OFFICE NAME,OFFICE STATUS,PINCODE,TELEPHONE NO.,TALUK,DISTRICT,STATE/U.T.,POSTAL DIVISION,POSTAL REGION,POSTAL CIRCLE
                                                                                                            ,,                                          (THE INFORMATION IS SORTED DISTRICT AND TALUK WISE),,,,,,,
,,,,,,,,,
Bordumsa S.O,Sub Post Office,792056,,BORDUMSA,CHANGLANG,ARUNACHAL PRADESH,ARUNACHAL PRADESH,SHILLONG HQ,NORTH EASTERN
Bubang B.O,Branch Post Office,792120,,BUBANG,CHANGLANG,ARUNACHAL PRADESH,ARUNACHAL PRADESH,SHILLONG HQ,NORTH EASTERN
Changlang S.O,Sub Post Office,792120,,CHANGLANG,CHANGLANG,ARUNACHAL PRADESH,ARUNACHAL PRADESH,SHILLONG HQ,NORTH EASTERN
Rangfrah Covt College B.O,Branch Post Office,792120,,CHANGLANG,CHANGLANG,ARUNACHAL PRADESH,ARUNACHAL PRADESH,SHILLONG HQ,NORTH EASTERN
Jairampur S.O,Sub Post Office,792121,,JAIRAMPUR,CHANGLANG,ARUNACHAL PRADESH,ARUNACHAL PRADESH,SHILLONG HQ,NORTH EASTERN
Manmao B.O,Branch Post Office,792121,,JAIRAMPUR,CHANGLANG,ARUNACHAL PRADESH,ARUNACHAL PRADESH,SHILLONG HQ,NORTH EASTERN
Khemiyong B.O,Branch Post Office,792120,,KHEMIYONG,CHANGLANG,ARUNACHAL PRADESH,ARUNACHAL PRADESH,SHILLONG HQ,NORTH EASTERN
Kherem Bisa B.O,Branch Post Office,792056,,KHEREM BISA,CHANGLANG,ARUNACHAL PRADESH,ARUNACHAL PRADESH,SHILLONG HQ,NORTH EASTERN
Lallung B.O,Branch Post Office,792056,,LALLUNG,CHANGLANG,ARUNACHAL PRADESH,ARUNACHAL PRADESH,SHILLONG HQ,NORTH EASTERN
Chopelling B.O,Branch Post Office,792122,,MIAO,CHANGLANG,ARUNACHAL PRADESH,ARUNACHAL PRADESH,SHILLONG HQ,NORTH EASTERN
Deban B.O,Branch Post Office,792122,,MIAO,CHANGLANG,ARUNACHAL PRADESH,ARUNACHAL PRADESH,SHILLONG HQ,NORTH EASTERN
Dharampur B.O,Branch Post Office,792122,,MIAO,CHANGLANG,ARUNACHAL PRADESH,ARUNACHAL PRADESH,SHILLONG HQ,NORTH EASTERN
Kharsang B.O,Branch Post Office,792122,,MIAO,CHANGLANG,ARUNACHAL PRADESH,ARUNACHAL PRADESH,SHILLONG HQ,NORTH EASTERN
Kutum Basti B.O,Branch Post Office,792122,,MIAO,CHANGLANG,ARUNACHAL PRADESH,ARUNACHAL PRADESH,SHILLONG HQ,NORTH EASTERN
Manabhum B.O,Branch Post Office,792122,,MIAO,CHANGLANG,ARUNACHAL PRADESH,ARUNACHAL PRADESH,SHILLONG HQ,NORTH EASTERN
Miao S.O,Sub Post Office,792122,,MIAO,CHANGLANG,ARUNACHAL PRADESH,ARUNACHAL PRADESH,SHILLONG HQ,NORTH EASTERN
Namchik B.O,Branch Post Office,792122,,MIAO,CHANGLANG,ARUNACHAL PRADESH,ARUNACHAL PRADESH,SHILLONG HQ,NORTH EASTERN
Namphai B.O,Branch Post Office,792122,,MIAO,CHANGLANG,ARUNACHAL PRADESH,ARUNACHAL PRADESH,SHILLONG HQ,NORTH EASTERN
Namdang B.O,Branch Post Office,792120,,NAMDANG,CHANGLANG,ARUNACHAL PRADESH,ARUNACHAL PRADESH,SHILLONG HQ,NORTH EASTERN
Namtok B.O,Branch Post Office,792120,,NAMTOK,CHANGLANG,ARUNACHAL PRADESH,ARUNACHAL PRADESH,SHILLONG HQ,NORTH EASTERN
New Mohang B.O,Branch Post Office,792056,,NEW MOHANG,CHANGLANG,ARUNACHAL PRADESH,ARUNACHAL PRADESH,SHILLONG HQ,NORTH EASTERN
Rajanagar B.O,Branch Post Office,792056,,RAJANAGAR,CHANGLANG,ARUNACHAL PRADESH,ARUNACHAL PRADESH,SHILLONG HQ,NORTH EASTERN
Ranglum B.O,Branch Post Office,792120,,RANGLUM,CHANGLANG,ARUNACHAL PRADESH,ARUNACHAL PRADESH,SHILLONG HQ,NORTH EASTERN
Gandhigram B.O,Branch Post Office,792055,,VIJOYNAGAR,CHANGLANG,ARUNACHAL PRADESH,ARUNACHAL PRADESH,SHILLONG HQ,NORTH EASTERN
Two-hat B.O,Branch Post Office,792055,,VIJOYNAGAR,CHANGLANG,ARUNACHAL PRADESH,ARUNACHAL PRADESH,SHILLONG HQ,NORTH EASTERN
Vijoynagar S.O,Sub Post Office,792055,,VIJOYNAGAR,CHANGLANG,ARUNACHAL PRADESH,ARUNACHAL PRADESH,SHILLONG HQ,NORTH EASTERN
Vijoypur B.O,Branch Post Office,792056,,VIJOYPUR,CHANGLANG,ARUNACHAL PRADESH,ARUNACHAL PRADESH,SHILLONG HQ,NORTH EASTERN
Yangkang B.O,Branch Post Office,792120,,YANGKANG,CHANGLANG,ARUNACHAL PRADESH,ARUNACHAL PRADESH,SHILLONG HQ,NORTH EASTERN
Alinye B.O,Branch Post Office,792101,,ALINYE,DIBANG VALLEY,ARUNACHAL PRADESH,ARUNACHAL PRADESH,SHILLONG HQ,NORTH EASTERN
Anelih B.O,Branch Post Office,792101,,ANELIH,DIBANG VALLEY,ARUNACHAL PRADESH,ARUNACHAL PRADESH,SHILLONG HQ,NORTH EASTERN
Anini S.O,Sub Post Office,792101,,ANINI,DIBANG VALLEY,ARUNACHAL PRADESH,ARUNACHAL PRADESH,SHILLONG HQ,NORTH EASTERN
Seijosa S.O,Sub Post Office,790103,,SEIJOSA,EAST KAMENG,ARUNACHAL PRADESH,ARUNACHAL PRADESH,SHILLONG HQ,NORTH EASTERN
Bameng B.O,Branch Post Office,790102,,SEPPA,EAST KAMENG,ARUNACHAL PRADESH,ARUNACHAL PRADESH,SHILLONG HQ,NORTH EASTERN
Bana B.O,Branch Post Office,790102,,SEPPA,EAST KAMENG,ARUNACHAL PRADESH,ARUNACHAL PRADESH,SHILLONG HQ,NORTH EASTERN
Chyangtajo B.O,Branch Post Office,790102,,SEPPA,EAST KAMENG,ARUNACHAL PRADESH,ARUNACHAL PRADESH,SHILLONG HQ,NORTH EASTERN
Khenewa B.O,Branch Post Office,790102,,SEPPA,EAST KAMENG,ARUNACHAL PRADESH,ARUNACHAL PRADESH,SHILLONG HQ,NORTH EASTERN
Lada B.O,Branch Post Office,790102,,SEPPA,EAST KAMENG,ARUNACHAL PRADESH,ARUNACHAL PRADESH,SHILLONG HQ,NORTH EASTERN
P.Kessang B.O,Branch Post Office,790102,,SEPPA,EAST KAMENG,ARUNACHAL PRADESH,ARUNACHAL PRADESH,SHILLONG HQ,NORTH EASTERN
Palizi B.O,Branch Post Office,790102,,SEPPA,EAST KAMENG,ARUNACHAL PRADESH,ARUNACHAL PRADESH,SHILLONG HQ,NORTH EASTERN
Pipu-dipu B.O,Branch Post Office,790102,,SEPPA,EAST KAMENG,ARUNACHAL PRADESH,ARUNACHAL PRADESH,SHILLONG HQ,NORTH EASTERN
Seppa S.O,Sub Post Office,790102,,SEPPA,EAST KAMENG,ARUNACHAL PRADESH,ARUNACHAL PRADESH,SHILLONG HQ,NORTH EASTERN
Thrizino B.O,Branch Post Office,790102,,SEPPA,EAST KAMENG,ARUNACHAL PRADESH,ARUNACHAL PRADESH,SHILLONG HQ,NORTH EASTERN
Veo B.O,Branch Post Office,790102,,SEPPA,EAST KAMENG,ARUNACHAL PRADESH,ARUNACHAL PRADESH,SHILLONG HQ,NORTH EASTERN
Ayeng B.O,Branch Post Office,791104,,MEBO,EAST SIANG,ARUNACHAL PRADESH,ARUNACHAL PRADESH,SHILLONG HQ,NORTH EASTERN
Borguli B.O,Branch Post Office,791104,,MEBO,EAST SIANG,ARUNACHAL PRADESH,ARUNACHAL PRADESH,SHILLONG HQ,NORTH EASTERN
Mebo S.O,Sub Post Office,791104,,MEBO,EAST SIANG,ARUNACHAL PRADESH,ARUNACHAL PRADESH,SHILLONG HQ,NORTH EASTERN
Namsing B.O,Branch Post Office,791104,,MEBO,EAST SIANG,ARUNACHAL PRADESH,ARUNACHAL PRADESH,SHILLONG HQ,NORTH EASTERN
Ngopok B.O,Branch Post Office,791104,,MEBO,EAST SIANG,ARUNACHAL PRADESH,ARUNACHAL PRADESH,SHILLONG HQ,NORTH EASTERN
Silluk B.O,Branch Post Office,791104,,MEBO,EAST SIANG,ARUNACHAL PRADESH,ARUNACHAL PRADESH,SHILLONG HQ,NORTH EASTERN
Sirem B.O,Branch Post Office,791104,,MEBO,EAST SIANG,ARUNACHAL PRADESH,ARUNACHAL PRADESH,SHILLONG HQ,NORTH EASTERN
Adipasi B.O,Branch Post Office,791102,,PASIGHAT,EAST SIANG,ARUNACHAL PRADESH,ARUNACHAL PRADESH,SHILLONG HQ,NORTH EASTERN
Balek B.O,Branch Post Office,791102,,PASIGHAT,EAST SIANG,ARUNACHAL PRADESH,ARUNACHAL PRADESH,SHILLONG HQ,NORTH EASTERN
Bilat B.O,Branch Post Office,791102,,PASIGHAT,EAST SIANG,ARUNACHAL PRADESH,ARUNACHAL PRADESH,SHILLONG HQ,NORTH EASTERN
Boleng B.O,Branch Post Office,791102,,PASIGHAT,EAST SIANG,ARUNACHAL PRADESH,ARUNACHAL PRADESH,SHILLONG HQ,NORTH EASTERN
Dalbing B.O,Branch Post Office,791102,,PASIGHAT,EAST SIANG,ARUNACHAL PRADESH,ARUNACHAL PRADESH,SHILLONG HQ,NORTH EASTERN
Damro B.O,Branch Post Office,791102,,PASIGHAT,EAST SIANG,ARUNACHAL PRADESH,ARUNACHAL PRADESH,SHILLONG HQ,NORTH EASTERN
Debing B.O,Branch Post Office,791102,,PASIGHAT,EAST SIANG,ARUNACHAL PRADESH,ARUNACHAL PRADESH,SHILLONG HQ,NORTH EASTERN
Hill Top S.O,Sub Post Office,791103,,PASIGHAT,EAST SIANG,ARUNACHAL PRADESH,ARUNACHAL PRADESH,SHILLONG HQ,NORTH EASTERN
Kebang B.O,Branch Post Office,791102,,PASIGHAT,EAST SIANG,ARUNACHAL PRADESH,ARUNACHAL PRADESH,SHILLONG HQ,NORTH EASTERN
Korang B.O,Branch Post Office,791102,,PASIGHAT,EAST SIANG,ARUNACHAL PRADESH,ARUNACHAL PRADESH,SHILLONG HQ,NORTH EASTERN
Koyu B.O,Branch Post Office,791102,,PASIGHAT,EAST SIANG,ARUNACHAL PRADESH,ARUNACHAL PRADESH,SHILLONG HQ,NORTH EASTERN
Ledum B.O,Branch Post Office,791102,,PASIGHAT,EAST SIANG,ARUNACHAL PRADESH,ARUNACHAL PRADESH,SHILLONG HQ,NORTH EASTERN
Nari B.O,Branch Post Office,791102,,PASIGHAT,EAST SIANG,ARUNACHAL PRADESH,ARUNACHAL PRADESH,SHILLONG HQ,NORTH EASTERN
Oyan B.O,Branch Post Office,791102,,PASIGHAT,EAST SIANG,ARUNACHAL PRADESH,ARUNACHAL PRADESH,SHILLONG HQ,NORTH EASTERN
Pangin B.O,Branch Post Office,791102,,PASIGHAT,EAST SIANG,ARUNACHAL PRADESH,ARUNACHAL PRADESH,SHILLONG HQ,NORTH EASTERN
Pasighat S.O,Sub Post Office,791102,,PASIGHAT,EAST SIANG,ARUNACHAL PRADESH,ARUNACHAL PRADESH,SHILLONG HQ,NORTH EASTERN
Rani B.O,Branch Post Office,791102,,PASIGHAT,EAST SIANG,ARUNACHAL PRADESH,ARUNACHAL PRADESH,SHILLONG HQ,NORTH EASTERN
Renging B.O,Branch Post Office,791102,,PASIGHAT,EAST SIANG,ARUNACHAL PRADESH,ARUNACHAL PRADESH,SHILLONG HQ,NORTH EASTERN
Riga B.O,Branch Post Office,791102,,PASIGHAT,EAST SIANG,ARUNACHAL PRADESH,ARUNACHAL PRADESH,SHILLONG HQ,NORTH EASTERN
Ruksin B.O,Branch Post Office,791102,,PASIGHAT,EAST SIANG,ARUNACHAL PRADESH,ARUNACHAL PRADESH,SHILLONG HQ,NORTH EASTERN
Sille B.O,Branch Post Office,791102,,PASIGHAT,EAST SIANG,ARUNACHAL PRADESH,ARUNACHAL PRADESH,SHILLONG HQ,NORTH EASTERN
Yagrung B.O,Branch Post Office,791102,,PASIGHAT,EAST SIANG,ARUNACHAL PRADESH,ARUNACHAL PRADESH,SHILLONG HQ,NORTH EASTERN
GTC B.O,Branch Post Office,791102,,PASIGHT,EAST SIANG,ARUNACHAL PRADESH,ARUNACHAL PRADESH,SHILLONG HQ,NORTH EASTERN
Chambang B.O,Branch Post Office,791118,,CHAMBANG,KURUNG KUMEY,ARUNACHAL PRADESH,ARUNACHAL PRADESH,SHILLONG HQ,NORTH EASTERN
Damin B.O,Branch Post Office,791118,,DAMIN,KURUNG KUMEY,ARUNACHAL PRADESH,ARUNACHAL PRADESH,SHILLONG HQ,NORTH EASTERN
Koloriang B.O,Branch Post Office,791118,,KOLORIANG,KURUNG KUMEY,ARUNACHAL PRADESH,ARUNACHAL PRADESH,SHILLONG HQ,NORTH EASTERN
Sangram B.O,Branch Post Office,791118,,KOLORIANG,KURUNG KUMEY,ARUNACHAL PRADESH,ARUNACHAL PRADESH,SHILLONG HQ,NORTH EASTERN
Sarli B.O,Branch Post Office,791118,,KOLORIANG,KURUNG KUMEY,ARUNACHAL PRADESH,ARUNACHAL PRADESH,SHILLONG HQ,NORTH EASTERN
Hiya B.O,Branch Post Office,791118,,NYAPIN,KURUNG KUMEY,ARUNACHAL PRADESH,ARUNACHAL PRADESH,SHILLONG HQ,NORTH EASTERN
Nyapin B.O,Branch Post Office,791118,,NYAPIN,KURUNG KUMEY,ARUNACHAL PRADESH,ARUNACHAL PRADESH,SHILLONG HQ,NORTH EASTERN
Palin S.O,Sub Post Office,791118,,PALIN,KURUNG KUMEY,ARUNACHAL PRADESH,ARUNACHAL PRADESH,SHILLONG HQ,NORTH EASTERN
Tali B.O,Branch Post Office,791118,,TALI,KURUNG KUMEY,ARUNACHAL PRADESH,ARUNACHAL PRADESH,SHILLONG HQ,NORTH EASTERN
Alubari B.O,Branch Post Office,792102,,CHOWKHAM,LOHIT,ARUNACHAL PRADESH,ARUNACHAL PRADESH,SHILLONG HQ,NORTH EASTERN
Chakma B.O,Branch Post Office,792102,,CHOWKHAM,LOHIT,ARUNACHAL PRADESH,ARUNACHAL PRADESH,SHILLONG HQ,NORTH EASTERN
Chowkham S.O,Sub Post Office,792102,,CHOWKHAM,LOHIT,ARUNACHAL PRADESH,ARUNACHAL PRADESH,SHILLONG HQ,NORTH EASTERN
Kherem B.O,Branch Post Office,792102,,CHOWKHAM,LOHIT,ARUNACHAL PRADESH,ARUNACHAL PRADESH,SHILLONG HQ,NORTH EASTERN
Kamlang Nagar B.O,Branch Post Office,792102,,KAMLANG NAGAR,LOHIT,ARUNACHAL PRADESH,ARUNACHAL PRADESH,SHILLONG HQ,NORTH EASTERN
Kumari Kachari B.O,Branch Post Office,792051,,MAHADEVPUR,LOHIT,ARUNACHAL PRADESH,ARUNACHAL PRADESH,SHILLONG HQ,NORTH EASTERN
Mahadevpur S.O,Sub Post Office,792051,,MAHADEVPUR,LOHIT,ARUNACHAL PRADESH,ARUNACHAL PRADESH,SHILLONG HQ,NORTH EASTERN
Podumani B.O,Branch Post Office,792051,,MAHADEVPUR,LOHIT,ARUNACHAL PRADESH,ARUNACHAL PRADESH,SHILLONG HQ,NORTH EASTERN
Medo B.O,Branch Post Office,792102,,MEDO,LOHIT,ARUNACHAL PRADESH,ARUNACHAL PRADESH,SHILLONG HQ,NORTH EASTERN
Momong B.O,Branch Post Office,792102,,MOMONG,LOHIT,ARUNACHAL PRADESH,ARUNACHAL PRADESH,SHILLONG HQ,NORTH EASTERN
Diyun B.O,Branch Post Office,792103,,NAMSAI,LOHIT,ARUNACHAL PRADESH,ARUNACHAL PRADESH,SHILLONG HQ,NORTH EASTERN
Innao B.O,Branch Post Office,792103,,NAMSAI,LOHIT,ARUNACHAL PRADESH,ARUNACHAL PRADESH,SHILLONG HQ,NORTH EASTERN
Jaipur B.O,Branch Post Office,792103,,NAMSAI,LOHIT,ARUNACHAL PRADESH,ARUNACHAL PRADESH,SHILLONG HQ,NORTH EASTERN
Kumsai B.O,Branch Post Office,792103,,NAMSAI,LOHIT,ARUNACHAL PRADESH,ARUNACHAL PRADESH,SHILLONG HQ,NORTH EASTERN
Lathao B.O,Branch Post Office,792103,,NAMSAI,LOHIT,ARUNACHAL PRADESH,ARUNACHAL PRADESH,SHILLONG HQ,NORTH EASTERN
Manmao B.O,Branch Post Office,792103,,NAMSAI,LOHIT,ARUNACHAL PRADESH,ARUNACHAL PRADESH,SHILLONG HQ,NORTH EASTERN
Nampong B.O,Branch Post Office,792103,,NAMSAI,LOHIT,ARUNACHAL PRADESH,ARUNACHAL PRADESH,SHILLONG HQ,NORTH EASTERN
Namsai S.O,Sub Post Office,792103,,NAMSAI,LOHIT,ARUNACHAL PRADESH,ARUNACHAL PRADESH,SHILLONG HQ,NORTH EASTERN
Nanam B.O,Branch Post Office,792103,,NAMSAI,LOHIT,ARUNACHAL PRADESH,ARUNACHAL PRADESH,SHILLONG HQ,NORTH EASTERN
Peyong B.O,Branch Post Office,792103,,NAMSAI,LOHIT,ARUNACHAL PRADESH,ARUNACHAL PRADESH,SHILLONG HQ,NORTH EASTERN
Udaipur B.O,Branch Post Office,792103,,NAMSAI,LOHIT,ARUNACHAL PRADESH,ARUNACHAL PRADESH,SHILLONG HQ,NORTH EASTERN
Wingko B.O,Branch Post Office,792103,,NAMSAI,LOHIT,ARUNACHAL PRADESH,ARUNACHAL PRADESH,SHILLONG HQ,NORTH EASTERN
Sunpura S.O,Sub Post Office,792111,,SUNPURA,LOHIT,ARUNACHAL PRADESH,ARUNACHAL PRADESH,SHILLONG HQ,NORTH EASTERN
Yealing B.O,Branch Post Office,792111,,SUNPURA,LOHIT,ARUNACHAL PRADESH,ARUNACHAL PRADESH,SHILLONG HQ,NORTH EASTERN
Changliang B.O,Branch Post Office,792001,,TEZU,LOHIT,ARUNACHAL PRADESH,ARUNACHAL PRADESH,SHILLONG HQ,NORTH EASTERN
Danglat B.O,Branch Post Office,792001,,TEZU,LOHIT,ARUNACHAL PRADESH,ARUNACHAL PRADESH,SHILLONG HQ,NORTH EASTERN
Gohaingaon B.O,Branch Post Office,792001,,TEZU,LOHIT,ARUNACHAL PRADESH,ARUNACHAL PRADESH,SHILLONG HQ,NORTH EASTERN
Lohitpur B.O,Branch Post Office,792001,,TEZU,LOHIT,ARUNACHAL PRADESH,ARUNACHAL PRADESH,SHILLONG HQ,NORTH EASTERN
Loiliang B.O,Branch Post Office,792001,,TEZU,LOHIT,ARUNACHAL PRADESH,ARUNACHAL PRADESH,SHILLONG HQ,NORTH EASTERN
Tafragram B.O,Branch Post Office,792001,,TEZU,LOHIT,ARUNACHAL PRADESH,ARUNACHAL PRADESH,SHILLONG HQ,NORTH EASTERN
Tezu Covt.College B.O,Branch Post Office,792001,,TEZU,LOHIT,ARUNACHAL PRADESH,ARUNACHAL PRADESH,SHILLONG HQ,NORTH EASTERN
Tezu S.O,Sub Post Office,792001,,TEZU,LOHIT,ARUNACHAL PRADESH,ARUNACHAL PRADESH,SHILLONG HQ,NORTH EASTERN
Tindolong B.O,Branch Post Office,792001,,TEZU,LOHIT,ARUNACHAL PRADESH,ARUNACHAL PRADESH,SHILLONG HQ,NORTH EASTERN
Wakro B.O,Branch Post Office,792102,,WAKRO,LOHIT,ARUNACHAL PRADESH,ARUNACHAL PRADESH,SHILLONG HQ,NORTH EASTERN
Abango B.O,Branch Post Office,792110,,ROING,LOWER DIBANG VALLEY,ARUNACHAL PRADESH,ARUNACHAL PRADESH,SHILLONG HQ,NORTH EASTERN
Anupam B.O,Branch Post Office,792110,,ROING,LOWER DIBANG VALLEY,ARUNACHAL PRADESH,ARUNACHAL PRADESH,SHILLONG HQ,NORTH EASTERN
Bijari B.O,Branch Post Office,792110,,ROING,LOWER DIBANG VALLEY,ARUNACHAL PRADESH,ARUNACHAL PRADESH,SHILLONG HQ,NORTH EASTERN
Bolung B.O,Branch Post Office,792110,,ROING,LOWER DIBANG VALLEY,ARUNACHAL PRADESH,ARUNACHAL PRADESH,SHILLONG HQ,NORTH EASTERN
Bomjir B.O,Branch Post Office,792110,,ROING,LOWER DIBANG VALLEY,ARUNACHAL PRADESH,ARUNACHAL PRADESH,SHILLONG HQ,NORTH EASTERN
Dambuk B.O,Branch Post Office,792110,,ROING,LOWER DIBANG VALLEY,ARUNACHAL PRADESH,ARUNACHAL PRADESH,SHILLONG HQ,NORTH EASTERN
Desali B.O,Branch Post Office,792110,,ROING,LOWER DIBANG VALLEY,ARUNACHAL PRADESH,ARUNACHAL PRADESH,SHILLONG HQ,NORTH EASTERN
Elopa B.O,Branch Post Office,792110,,ROING,LOWER DIBANG VALLEY,ARUNACHAL PRADESH,ARUNACHAL PRADESH,SHILLONG HQ,NORTH EASTERN
Etalin B.O,Branch Post Office,792110,,ROING,LOWER DIBANG VALLEY,ARUNACHAL PRADESH,ARUNACHAL PRADESH,SHILLONG HQ,NORTH EASTERN
Hunli B.O,Branch Post Office,792110,,ROING,LOWER DIBANG VALLEY,ARUNACHAL PRADESH,ARUNACHAL PRADESH,SHILLONG HQ,NORTH EASTERN
Iduli B.O,Branch Post Office,792110,,ROING,LOWER DIBANG VALLEY,ARUNACHAL PRADESH,ARUNACHAL PRADESH,SHILLONG HQ,NORTH EASTERN
Jia B.O,Branch Post Office,792110,,ROING,LOWER DIBANG VALLEY,ARUNACHAL PRADESH,ARUNACHAL PRADESH,SHILLONG HQ,NORTH EASTERN
Koranu B.O,Branch Post Office,792110,,ROING,LOWER DIBANG VALLEY,ARUNACHAL PRADESH,ARUNACHAL PRADESH,SHILLONG HQ,NORTH EASTERN
Kronli B.O,Branch Post Office,792110,,ROING,LOWER DIBANG VALLEY,ARUNACHAL PRADESH,ARUNACHAL PRADESH,SHILLONG HQ,NORTH EASTERN
Meka B.O,Branch Post Office,792110,,ROING,LOWER DIBANG VALLEY,ARUNACHAL PRADESH,ARUNACHAL PRADESH,SHILLONG HQ,NORTH EASTERN
Paglam B.O,Branch Post Office,792110,,ROING,LOWER DIBANG VALLEY,ARUNACHAL PRADESH,ARUNACHAL PRADESH,SHILLONG HQ,NORTH EASTERN
Parbuk B.O,Branch Post Office,792110,,ROING,LOWER DIBANG VALLEY,ARUNACHAL PRADESH,ARUNACHAL PRADESH,SHILLONG HQ,NORTH EASTERN
Roing S.O,Sub Post Office,792110,,ROING,LOWER DIBANG VALLEY,ARUNACHAL PRADESH,ARUNACHAL PRADESH,SHILLONG HQ,NORTH EASTERN
Santipur B.O,Branch Post Office,792110,,ROING,LOWER DIBANG VALLEY,ARUNACHAL PRADESH,ARUNACHAL PRADESH,SHILLONG HQ,NORTH EASTERN
Chimpu B.O,Branch Post Office,791113,,ITANAGAR,LOWER SUBANSIRI,ARUNACHAL PRADESH,ARUNACHAL PRADESH,SHILLONG HQ,NORTH EASTERN
Ranga Nadi Project S.O,Sub Post Office,791119,,R N PROJECT,LOWER SUBANSIRI,ARUNACHAL PRADESH,ARUNACHAL PRADESH,SHILLONG HQ,NORTH EASTERN
Boasimla B.O,Branch Post Office,791120,,ZIRO,LOWER SUBANSIRI,ARUNACHAL PRADESH,ARUNACHAL PRADESH,SHILLONG HQ,NORTH EASTERN
Deed B.O,Branch Post Office,791120,,ZIRO,LOWER SUBANSIRI,ARUNACHAL PRADESH,ARUNACHAL PRADESH,SHILLONG HQ,NORTH EASTERN
Godak B.O,Branch Post Office,791120,,ZIRO,LOWER SUBANSIRI,ARUNACHAL PRADESH,ARUNACHAL PRADESH,SHILLONG HQ,NORTH EASTERN
Hija B.O,Branch Post Office,791120,,ZIRO,LOWER SUBANSIRI,ARUNACHAL PRADESH,ARUNACHAL PRADESH,SHILLONG HQ,NORTH EASTERN
Joram B.O,Branch Post Office,791120,,ZIRO,LOWER SUBANSIRI,ARUNACHAL PRADESH,ARUNACHAL PRADESH,SHILLONG HQ,NORTH EASTERN
Mengio B.O,Branch Post Office,791119,,ZIRO,LOWER SUBANSIRI,ARUNACHAL PRADESH,ARUNACHAL PRADESH,SHILLONG HQ,NORTH EASTERN
Old Ziro B.O,Branch Post Office,791120,,ZIRO,LOWER SUBANSIRI,ARUNACHAL PRADESH,ARUNACHAL PRADESH,SHILLONG HQ,NORTH EASTERN
Raga B.O,Branch Post Office,791120,,ZIRO,LOWER SUBANSIRI,ARUNACHAL PRADESH,ARUNACHAL PRADESH,SHILLONG HQ,NORTH EASTERN
Talo B.O,Branch Post Office,791120,,ZIRO,LOWER SUBANSIRI,ARUNACHAL PRADESH,ARUNACHAL PRADESH,SHILLONG HQ,NORTH EASTERN
Yachuli B.O,Branch Post Office,791120,,ZIRO,LOWER SUBANSIRI,ARUNACHAL PRADESH,ARUNACHAL PRADESH,SHILLONG HQ,NORTH EASTERN
Yazali B.O,Branch Post Office,791119,,ZIRO,LOWER SUBANSIRI,ARUNACHAL PRADESH,ARUNACHAL PRADESH,SHILLONG HQ,NORTH EASTERN
Ziro S.O,Sub Post Office,791120,,ZIRO,LOWER SUBANSIRI,ARUNACHAL PRADESH,ARUNACHAL PRADESH,SHILLONG HQ,NORTH EASTERN
Balijan B.O,Branch Post Office,791123,,BALIJAN,PAPUM PARE,ARUNACHAL PRADESH,ARUNACHAL PRADESH,SHILLONG HQ,NORTH EASTERN
Banderdewa S.O,Sub Post Office,791123,,BANDERDEWA,PAPUM PARE,ARUNACHAL PRADESH,ARUNACHAL PRADESH,SHILLONG HQ,NORTH EASTERN
Doimukh S.O,Sub Post Office,791112,,DIOMUKH,PAPUM PARE,ARUNACHAL PRADESH,ARUNACHAL PRADESH,SHILLONG HQ,NORTH EASTERN
Kheel B.O,Branch Post Office,791112,,DOIMUKH,PAPUM PARE,ARUNACHAL PRADESH,ARUNACHAL PRADESH,SHILLONG HQ,NORTH EASTERN
Midpu B.O,Branch Post Office,791112,,DOIMUKH,PAPUM PARE,ARUNACHAL PRADESH,ARUNACHAL PRADESH,SHILLONG HQ,NORTH EASTERN
A P Sectt. S.O,Sub Post Office,791111,,ITANAGAR,PAPUM PARE,ARUNACHAL PRADESH,ARUNACHAL PRADESH,SHILLONG HQ,NORTH EASTERN
Donyi Polo B.O,Branch Post Office,791113,,ITANAGAR,PAPUM PARE,ARUNACHAL PRADESH,ARUNACHAL PRADESH,SHILLONG HQ,NORTH EASTERN
Itanagar H.O,Head Post Office,791111,,ITANAGAR,PAPUM PARE,ARUNACHAL PRADESH,ARUNACHAL PRADESH,SHILLONG HQ,NORTH EASTERN
Ram Krishna Mission S.O,Sub Post Office,791113,,ITANAGAR,PAPUM PARE,ARUNACHAL PRADESH,ARUNACHAL PRADESH,SHILLONG HQ,NORTH EASTERN
Vivek Vihar B.O,Branch Post Office,791113,,ITANAGAR,PAPUM PARE,ARUNACHAL PRADESH,ARUNACHAL PRADESH,SHILLONG HQ,NORTH EASTERN
Hawa Camp B.O,Branch Post Office,791121,,KIMIN,PAPUM PARE,ARUNACHAL PRADESH,ARUNACHAL PRADESH,SHILLONG HQ,NORTH EASTERN
Kimin S.O,Sub Post Office,791121,,KIMIN,PAPUM PARE,ARUNACHAL PRADESH,ARUNACHAL PRADESH,SHILLONG HQ,NORTH EASTERN
Kokila B.O,Branch Post Office,791123,,KOKILA,PAPUM PARE,ARUNACHAL PRADESH,ARUNACHAL PRADESH,SHILLONG HQ,NORTH EASTERN
Model Village B.O,Branch Post Office,791110,,NAHARLAGUN,PAPUM PARE,ARUNACHAL PRADESH,ARUNACHAL PRADESH,SHILLONG HQ,NORTH EASTERN
Naharlagun S.O,Sub Post Office,791110,,NAHARLAGUN,PAPUM PARE,ARUNACHAL PRADESH,ARUNACHAL PRADESH,SHILLONG HQ,NORTH EASTERN
Nirjuli S.O,Sub Post Office,791109,,NIRJULI,PAPUM PARE,ARUNACHAL PRADESH,ARUNACHAL PRADESH,SHILLONG HQ,NORTH EASTERN
Saglee B.O,Branch Post Office,791112,,SAGLEE,PAPUM PARE,ARUNACHAL PRADESH,ARUNACHAL PRADESH,SHILLONG HQ,NORTH EASTERN
Sonajuli B.O,Branch Post Office,791123,,SONAJULI,PAPUM PARE,ARUNACHAL PRADESH,ARUNACHAL PRADESH,SHILLONG HQ,NORTH EASTERN
Arunachal University B.O,Branch Post Office,791112,,YUPIA,PAPUM PARE,ARUNACHAL PRADESH,ARUNACHAL PRADESH,SHILLONG HQ,NORTH EASTERN
Yupia B.O,Branch Post Office,791110,,YUPIA,PAPUM PARE,ARUNACHAL PRADESH,ARUNACHAL PRADESH,SHILLONG HQ,NORTH EASTERN
Lhou B.O,Branch Post Office,790105,,JANG,TAWANG,ARUNACHAL PRADESH,ARUNACHAL PRADESH,SHILLONG HQ,NORTH EASTERN
Mukto B.O,Branch Post Office,790105,,JANG,TAWANG,ARUNACHAL PRADESH,ARUNACHAL PRADESH,SHILLONG HQ,NORTH EASTERN
Thingbu B.O,Branch Post Office,790105,,JANG,TAWANG,ARUNACHAL PRADESH,ARUNACHAL PRADESH,SHILLONG HQ,NORTH EASTERN
Gispu B.O,Branch Post Office,790106,,LUMLA,TAWANG,ARUNACHAL PRADESH,ARUNACHAL PRADESH,SHILLONG HQ,NORTH EASTERN
Lumla S.O,Sub Post Office,790106,,LUMLA,TAWANG,ARUNACHAL PRADESH,ARUNACHAL PRADESH,SHILLONG HQ,NORTH EASTERN
Zimithang B.O,Branch Post Office,790106,,LUMLA,TAWANG,ARUNACHAL PRADESH,ARUNACHAL PRADESH,SHILLONG HQ,NORTH EASTERN
Jang S.O,Sub Post Office,790105,,TANG,TAWANG,ARUNACHAL PRADESH,ARUNACHAL PRADESH,SHILLONG HQ,NORTH EASTERN
B.Supply B.O,Branch Post Office,790104,,TAWANG,TAWANG,ARUNACHAL PRADESH,ARUNACHAL PRADESH,SHILLONG HQ,NORTH EASTERN
Kitpi B.O,Branch Post Office,790104,,TAWANG,TAWANG,ARUNACHAL PRADESH,ARUNACHAL PRADESH,SHILLONG HQ,NORTH EASTERN
Lumberdung B.O,Branch Post Office,790104,,TAWANG,TAWANG,ARUNACHAL PRADESH,ARUNACHAL PRADESH,SHILLONG HQ,NORTH EASTERN
Sakpret B.O,Branch Post Office,790104,,TAWANG,TAWANG,ARUNACHAL PRADESH,ARUNACHAL PRADESH,SHILLONG HQ,NORTH EASTERN
Tawang S.O,Sub Post Office,790104,,TAWANG,TAWANG,ARUNACHAL PRADESH,ARUNACHAL PRADESH,SHILLONG HQ,NORTH EASTERN
Temple Gompa B.O,Branch Post Office,790104,,TAWANG,TAWANG,ARUNACHAL PRADESH,ARUNACHAL PRADESH,SHILLONG HQ,NORTH EASTERN
Deomali S.O,Sub Post Office,786629,,DEOMALI,TIRAP,ARUNACHAL PRADESH,ARUNACHAL PRADESH,SHILLONG HQ,NORTH EASTERN
Hukanjuri B.O,Branch Post Office,786629,,DEOMALI,TIRAP,ARUNACHAL PRADESH,ARUNACHAL PRADESH,SHILLONG HQ,NORTH EASTERN
Kanubari B.O,Branch Post Office,786630,,KANUBARI,TIRAP,ARUNACHAL PRADESH,ARUNACHAL PRADESH,SHILLONG HQ,NORTH EASTERN
Borduria B.O,Branch Post Office,786630,,KHONSA,TIRAP,ARUNACHAL PRADESH,ARUNACHAL PRADESH,SHILLONG HQ,NORTH EASTERN
Dadam B.O,Branch Post Office,786630,,KHONSA,TIRAP,ARUNACHAL PRADESH,ARUNACHAL PRADESH,SHILLONG HQ,NORTH EASTERN
Kaimai B.O,Branch Post Office,786630,,KHONSA,TIRAP,ARUNACHAL PRADESH,ARUNACHAL PRADESH,SHILLONG HQ,NORTH EASTERN
Kapu B.O,Branch Post Office,786630,,KHONSA,TIRAP,ARUNACHAL PRADESH,ARUNACHAL PRADESH,SHILLONG HQ,NORTH EASTERN
Khela B.O,Branch Post Office,786630,,KHONSA,TIRAP,ARUNACHAL PRADESH,ARUNACHAL PRADESH,SHILLONG HQ,NORTH EASTERN
Kheti B.O,Branch Post Office,786630,,KHONSA,TIRAP,ARUNACHAL PRADESH,ARUNACHAL PRADESH,SHILLONG HQ,NORTH EASTERN
Khonsa Basti B.O,Branch Post Office,786630,,KHONSA,TIRAP,ARUNACHAL PRADESH,ARUNACHAL PRADESH,SHILLONG HQ,NORTH EASTERN
Bagra B.O,Branch Post Office,791001,,BAGRA,WEST SIANG,ARUNACHAL PRADESH,ARUNACHAL PRADESH,SHILLONG HQ,NORTH EASTERN
Bame B.O,Branch Post Office,791101,,BAME,WEST SIANG,ARUNACHAL PRADESH,ARUNACHAL PRADESH,SHILLONG HQ,NORTH EASTERN
Basar S.O,Sub Post Office,791101,,BASAR,WEST SIANG,ARUNACHAL PRADESH,ARUNACHAL PRADESH,SHILLONG HQ,NORTH EASTERN
Bene B.O,Branch Post Office,791001,,BENE,WEST SIANG,ARUNACHAL PRADESH,ARUNACHAL PRADESH,SHILLONG HQ,NORTH EASTERN
Dali B.O,Branch Post Office,791101,,DALI,WEST SIANG,ARUNACHAL PRADESH,ARUNACHAL PRADESH,SHILLONG HQ,NORTH EASTERN
Darak B.O,Branch Post Office,791001,,DARAK,WEST SIANG,ARUNACHAL PRADESH,ARUNACHAL PRADESH,SHILLONG HQ,NORTH EASTERN
Daring B.O,Branch Post Office,791101,,DARING,WEST SIANG,ARUNACHAL PRADESH,ARUNACHAL PRADESH,SHILLONG HQ,NORTH EASTERN
Darka B.O,Branch Post Office,791001,,DARKA,WEST SIANG,ARUNACHAL PRADESH,ARUNACHAL PRADESH,SHILLONG HQ,NORTH EASTERN
Rumgong B.O,Branch Post Office,791001,,GUMGONG,WEST SIANG,ARUNACHAL PRADESH,ARUNACHAL PRADESH,SHILLONG HQ,NORTH EASTERN
Kambang B.O,Branch Post Office,791001,,KAMBANG,WEST SIANG,ARUNACHAL PRADESH,ARUNACHAL PRADESH,SHILLONG HQ,NORTH EASTERN
Kaying B.O,Branch Post Office,791001,,KAYING,WEST SIANG,ARUNACHAL PRADESH,ARUNACHAL PRADESH,SHILLONG HQ,NORTH EASTERN
Kombo B.O,Branch Post Office,791001,,KOMBO,WEST SIANG,ARUNACHAL PRADESH,ARUNACHAL PRADESH,SHILLONG HQ,NORTH EASTERN
Garu B.O,Branch Post Office,791125,,LIKABALI,WEST SIANG,ARUNACHAL PRADESH,ARUNACHAL PRADESH,SHILLONG HQ,NORTH EASTERN
Gensi B.O,Branch Post Office,791125,,LIKABALI,WEST SIANG,ARUNACHAL PRADESH,ARUNACHAL PRADESH,SHILLONG HQ,NORTH EASTERN
Likabali S.O,Sub Post Office,791125,,LIKABALI,WEST SIANG,ARUNACHAL PRADESH,ARUNACHAL PRADESH,SHILLONG HQ,NORTH EASTERN
Liromoba B.O,Branch Post Office,791101,,LIROMOBA,WEST SIANG,ARUNACHAL PRADESH,ARUNACHAL PRADESH,SHILLONG HQ,NORTH EASTERN
Logum Jining B.O,Branch Post Office,791001,,LOGUM JINING,WEST SIANG,ARUNACHAL PRADESH,ARUNACHAL PRADESH,SHILLONG HQ,NORTH EASTERN
Mechuka S.O,Sub Post Office,792051,,MECHUKA,WEST SIANG,ARUNACHAL PRADESH,ARUNACHAL PRADESH,SHILLONG HQ,NORTH EASTERN
Monigong B.O,Branch Post Office,791001,,MONIGONG,WEST SIANG,ARUNACHAL PRADESH,ARUNACHAL PRADESH,SHILLONG HQ,NORTH EASTERN
Nikte B.O,Branch Post Office,791001,,NIKTE,WEST SIANG,ARUNACHAL PRADESH,ARUNACHAL PRADESH,SHILLONG HQ,NORTH EASTERN
Payum B.O,Branch Post Office,791001,,PAYUM,WEST SIANG,ARUNACHAL PRADESH,ARUNACHAL PRADESH,SHILLONG HQ,NORTH EASTERN
Tato B.O,Branch Post Office,791001,,TATO,WEST SIANG,ARUNACHAL PRADESH,ARUNACHAL PRADESH,SHILLONG HQ,NORTH EASTERN
Tirbin B.O,Branch Post Office,791101,,TIRBIN,WEST SIANG,ARUNACHAL PRADESH,ARUNACHAL PRADESH,SHILLONG HQ,NORTH EASTERN
Vivek Nagar B.O,Branch Post Office,791001,,VIVEK NAGAR,WEST SIANG,ARUNACHAL PRADESH,ARUNACHAL PRADESH,SHILLONG HQ,NORTH EASTERN
Yoji Yora B.O,Branch Post Office,791001,,YOJI YORA,WEST SIANG,ARUNACHAL PRADESH,ARUNACHAL PRADESH,SHILLONG HQ,NORTH EASTERN
Yomcha B.O,Branch Post Office,791001,,YOMCHA,WEST SIANG,ARUNACHAL PRADESH,ARUNACHAL PRADESH,SHILLONG HQ,NORTH EASTERN
