OFFICE NAME,OFFICE STATUS,PINCODE,TELEPHONE NO.,TALUK,DISTRICT,STATE/U.T.,POSTAL DIVISION,POSTAL REGION,POSTAL CIRCLE
                                                                                                            ,,                                          (THE INFORMATION IS SORTED DISTRICT AND TALUK WISE),,,,,,,
,,,,,,,,,
Adawal B.O,Branch Post Office,494001,,JAGDALPUR,BASTAR,CHATTISGARH,BASTAR,RAIPUR,CHATTISGARH
Amaguda B.O,Branch Post Office,494001,,JAGDALPUR,BASTAR,CHATTISGARH,BASTAR,RAIPUR,CHATTISGARH
Asna S.O,Sub Post Office,494221,07782-261279,JAGDALPUR,BASTAR,CHATTISGARH,BASTAR,RAIPUR,CHATTISGARH
Babusemra B.O,Branch Post Office,494001,,JAGDALPUR,BASTAR,CHATTISGARH,BASTAR,RAIPUR,CHATTISGARH
Badanji B.O,Branch Post Office,494010,,JAGDALPUR,BASTAR,CHATTISGARH,BASTAR,RAIPUR,CHATTISGARH
Badeamabal B.O,Branch Post Office,494224,,JAGDALPUR,BASTAR,CHATTISGARH,BASTAR,RAIPUR,CHATTISGARH
Badebodenar B.O,Branch Post Office,494442,,JAGDALPUR,BASTAR,CHATTISGARH,BASTAR,RAIPUR,CHATTISGARH
Badechakwa B.O,Branch Post Office,494223,,JAGDALPUR,BASTAR,CHATTISGARH,BASTAR,RAIPUR,CHATTISGARH
Badedeoda B.O,Branch Post Office,494222,,JAGDALPUR,BASTAR,CHATTISGARH,BASTAR,RAIPUR,CHATTISGARH
Badedharaur B.O,Branch Post Office,494010,,JAGDALPUR,BASTAR,CHATTISGARH,BASTAR,RAIPUR,CHATTISGARH
Badekakloor B.O,Branch Post Office,494442,,JAGDALPUR,BASTAR,CHATTISGARH,BASTAR,RAIPUR,CHATTISGARH
Badekilepal B.O,Branch Post Office,494442,,JAGDALPUR,BASTAR,CHATTISGARH,BASTAR,RAIPUR,CHATTISGARH
Bademurma B.O,Branch Post Office,494001,,JAGDALPUR,BASTAR,CHATTISGARH,BASTAR,RAIPUR,CHATTISGARH
Baghmohlai B.O,Branch Post Office,494223,,JAGDALPUR,BASTAR,CHATTISGARH,BASTAR,RAIPUR,CHATTISGARH
Bajawand B.O,Branch Post Office,494221,,JAGDALPUR,BASTAR,CHATTISGARH,BASTAR,RAIPUR,CHATTISGARH
Bakawand S.O,Sub Post Office,494222,07867-289241,JAGDALPUR,BASTAR,CHATTISGARH,BASTAR,RAIPUR,CHATTISGARH
Baniyagaon B.O,Branch Post Office,494224,,JAGDALPUR,BASTAR,CHATTISGARH,BASTAR,RAIPUR,CHATTISGARH
Barda B.O,Branch Post Office,494222,,JAGDALPUR,BASTAR,CHATTISGARH,BASTAR,RAIPUR,CHATTISGARH
Bastanar B.O,Branch Post Office,494442,,JAGDALPUR,BASTAR,CHATTISGARH,BASTAR,RAIPUR,CHATTISGARH
Bastar S.O,Sub Post Office,494223,07782-262230,JAGDALPUR,BASTAR,CHATTISGARH,BASTAR,RAIPUR,CHATTISGARH
Belar B.O,Branch Post Office,494010,,JAGDALPUR,BASTAR,CHATTISGARH,BASTAR,RAIPUR,CHATTISGARH
Bhainsgaon B.O,Branch Post Office,494223,,JAGDALPUR,BASTAR,CHATTISGARH,BASTAR,RAIPUR,CHATTISGARH
Bhanpuri Basti B.O,Branch Post Office,494224,,JAGDALPUR,BASTAR,CHATTISGARH,BASTAR,RAIPUR,CHATTISGARH
Bhanpuri S.O,Sub Post Office,494224,07867-282630,JAGDALPUR,BASTAR,CHATTISGARH,BASTAR,RAIPUR,CHATTISGARH
Binta B.O,Branch Post Office,494010,,JAGDALPUR,BASTAR,CHATTISGARH,BASTAR,RAIPUR,CHATTISGARH
Burdi B.O,Branch Post Office,494111,,JAGDALPUR,BASTAR,CHATTISGARH,BASTAR,RAIPUR,CHATTISGARH
Chapka B.O,Branch Post Office,494224,,JAGDALPUR,BASTAR,CHATTISGARH,BASTAR,RAIPUR,CHATTISGARH
Chhaparbhanpuri B.O,Branch Post Office,494010,,JAGDALPUR,BASTAR,CHATTISGARH,BASTAR,RAIPUR,CHATTISGARH
Chingpal B.O,Branch Post Office,494442,,JAGDALPUR,BASTAR,CHATTISGARH,BASTAR,RAIPUR,CHATTISGARH
Chitaloor B.O,Branch Post Office,494001,,JAGDALPUR,BASTAR,CHATTISGARH,BASTAR,RAIPUR,CHATTISGARH
Chitapur B.O,Branch Post Office,494442,,JAGDALPUR,BASTAR,CHATTISGARH,BASTAR,RAIPUR,CHATTISGARH
Chitrakote B.O,Branch Post Office,494010,,JAGDALPUR,BASTAR,CHATTISGARH,BASTAR,RAIPUR,CHATTISGARH
Chiurgaon B.O,Branch Post Office,494222,,JAGDALPUR,BASTAR,CHATTISGARH,BASTAR,RAIPUR,CHATTISGARH
Chokar B.O,Branch Post Office,494223,,JAGDALPUR,BASTAR,CHATTISGARH,BASTAR,RAIPUR,CHATTISGARH
Chotedeoda B.O,Branch Post Office,494221,,JAGDALPUR,BASTAR,CHATTISGARH,BASTAR,RAIPUR,CHATTISGARH
Dhanpunji B.O,Branch Post Office,494001,,JAGDALPUR,BASTAR,CHATTISGARH,BASTAR,RAIPUR,CHATTISGARH
Dharampura S.O,Sub Post Office,494005,07782-229140,JAGDALPUR,BASTAR,CHATTISGARH,BASTAR,RAIPUR,CHATTISGARH
Dilmili B.O,Branch Post Office,494442,,JAGDALPUR,BASTAR,CHATTISGARH,BASTAR,RAIPUR,CHATTISGARH
Dimrapal B.O,Branch Post Office,494001,,JAGDALPUR,BASTAR,CHATTISGARH,BASTAR,RAIPUR,CHATTISGARH
Dubeumargaon B.O,Branch Post Office,494223,,JAGDALPUR,BASTAR,CHATTISGARH,BASTAR,RAIPUR,CHATTISGARH
Ermur B.O,Branch Post Office,494010,,JAGDALPUR,BASTAR,CHATTISGARH,BASTAR,RAIPUR,CHATTISGARH
Errakot B.O,Branch Post Office,494442,,JAGDALPUR,BASTAR,CHATTISGARH,BASTAR,RAIPUR,CHATTISGARH
Gadhiya B.O,Branch Post Office,494010,,JAGDALPUR,BASTAR,CHATTISGARH,BASTAR,RAIPUR,CHATTISGARH
Garda B.O,Branch Post Office,494010,,JAGDALPUR,BASTAR,CHATTISGARH,BASTAR,RAIPUR,CHATTISGARH
Garenga B.O,Branch Post Office,494224,,JAGDALPUR,BASTAR,CHATTISGARH,BASTAR,RAIPUR,CHATTISGARH
Ghotia B.O,Branch Post Office,494010,,JAGDALPUR,BASTAR,CHATTISGARH,BASTAR,RAIPUR,CHATTISGARH
Guria B.O,Branch Post Office,494224,,JAGDALPUR,BASTAR,CHATTISGARH,BASTAR,RAIPUR,CHATTISGARH
Hatkachora B.O,Branch Post Office,494001,,JAGDALPUR,BASTAR,CHATTISGARH,BASTAR,RAIPUR,CHATTISGARH
Iti Bastar B.O,Branch Post Office,494223,,JAGDALPUR,BASTAR,CHATTISGARH,BASTAR,RAIPUR,CHATTISGARH
Jagdalpur H.O,Head Post Office,494001,07782-222390,JAGDALPUR,BASTAR,CHATTISGARH,BASTAR,RAIPUR,CHATTISGARH
Jagdalpur Kutchery S.O,Sub Post Office,494001,07782-221490,JAGDALPUR,BASTAR,CHATTISGARH,BASTAR,RAIPUR,CHATTISGARH
Jagdalpur Rly Colony S.O,Sub Post Office,494001,07782-223830,JAGDALPUR,BASTAR,CHATTISGARH,BASTAR,RAIPUR,CHATTISGARH
Jagdalpur Sadar Bzr S.O,Sub Post Office,494001,07782-224750,JAGDALPUR,BASTAR,CHATTISGARH,BASTAR,RAIPUR,CHATTISGARH
Jaibel B.O,Branch Post Office,494224,,JAGDALPUR,BASTAR,CHATTISGARH,BASTAR,RAIPUR,CHATTISGARH
Jaitgiri B.O,Branch Post Office,494222,,JAGDALPUR,BASTAR,CHATTISGARH,BASTAR,RAIPUR,CHATTISGARH
Kachnar B.O,Branch Post Office,494221,,JAGDALPUR,BASTAR,CHATTISGARH,BASTAR,RAIPUR,CHATTISGARH
Kaknar B.O,Branch Post Office,494010,,JAGDALPUR,BASTAR,CHATTISGARH,BASTAR,RAIPUR,CHATTISGARH
Karanji B.O,Branch Post Office,494005,,JAGDALPUR,BASTAR,CHATTISGARH,BASTAR,RAIPUR,CHATTISGARH
Karitgaon B.O,Branch Post Office,494221,,JAGDALPUR,BASTAR,CHATTISGARH,BASTAR,RAIPUR,CHATTISGARH
Karpawand B.O,Branch Post Office,494222,,JAGDALPUR,BASTAR,CHATTISGARH,BASTAR,RAIPUR,CHATTISGARH
Kesarpal B.O,Branch Post Office,494224,,JAGDALPUR,BASTAR,CHATTISGARH,BASTAR,RAIPUR,CHATTISGARH
Khorkosa B.O,Branch Post Office,494223,,JAGDALPUR,BASTAR,CHATTISGARH,BASTAR,RAIPUR,CHATTISGARH
Kinjoli B.O,Branch Post Office,494222,,JAGDALPUR,BASTAR,CHATTISGARH,BASTAR,RAIPUR,CHATTISGARH
Kodenar B.O,Branch Post Office,494442,,JAGDALPUR,BASTAR,CHATTISGARH,BASTAR,RAIPUR,CHATTISGARH
Kohkapal B.O,Branch Post Office,494221,,JAGDALPUR,BASTAR,CHATTISGARH,BASTAR,RAIPUR,CHATTISGARH
Kolawali B.O,Branch Post Office,494222,,JAGDALPUR,BASTAR,CHATTISGARH,BASTAR,RAIPUR,CHATTISGARH
Kolchur B.O,Branch Post Office,494223,,JAGDALPUR,BASTAR,CHATTISGARH,BASTAR,RAIPUR,CHATTISGARH
Korta B.O,Branch Post Office,494222,,JAGDALPUR,BASTAR,CHATTISGARH,BASTAR,RAIPUR,CHATTISGARH
Kumhali B.O,Branch Post Office,494224,,JAGDALPUR,BASTAR,CHATTISGARH,BASTAR,RAIPUR,CHATTISGARH
Kumharawand B.O,Branch Post Office,494005,,JAGDALPUR,BASTAR,CHATTISGARH,BASTAR,RAIPUR,CHATTISGARH
Kumharsandra B.O,Branch Post Office,494442,,JAGDALPUR,BASTAR,CHATTISGARH,BASTAR,RAIPUR,CHATTISGARH
Kumhli B.O,Branch Post Office,494010,,JAGDALPUR,BASTAR,CHATTISGARH,BASTAR,RAIPUR,CHATTISGARH
Kurandi B.O,Branch Post Office,494001,,JAGDALPUR,BASTAR,CHATTISGARH,BASTAR,RAIPUR,CHATTISGARH
Kurenga B.O,Branch Post Office,494005,,JAGDALPUR,BASTAR,CHATTISGARH,BASTAR,RAIPUR,CHATTISGARH
Kuruspal B.O,Branch Post Office,494010,,JAGDALPUR,BASTAR,CHATTISGARH,BASTAR,RAIPUR,CHATTISGARH
Kuthar B.O,Branch Post Office,494010,,JAGDALPUR,BASTAR,CHATTISGARH,BASTAR,RAIPUR,CHATTISGARH
Lamker B.O,Branch Post Office,494223,,JAGDALPUR,BASTAR,CHATTISGARH,BASTAR,RAIPUR,CHATTISGARH
Lohandiguda S.O,Sub Post Office,494010,07859-288230,JAGDALPUR,BASTAR,CHATTISGARH,BASTAR,RAIPUR,CHATTISGARH
Madhota B.O,Branch Post Office,494223,,JAGDALPUR,BASTAR,CHATTISGARH,BASTAR,RAIPUR,CHATTISGARH
Madlapal B.O,Branch Post Office,494224,,JAGDALPUR,BASTAR,CHATTISGARH,BASTAR,RAIPUR,CHATTISGARH
Madpal B.O,Branch Post Office,494001,,JAGDALPUR,BASTAR,CHATTISGARH,BASTAR,RAIPUR,CHATTISGARH
Malgaon B.O,Branch Post Office,494221,,JAGDALPUR,BASTAR,CHATTISGARH,BASTAR,RAIPUR,CHATTISGARH
Mangnar B.O,Branch Post Office,494222,,JAGDALPUR,BASTAR,CHATTISGARH,BASTAR,RAIPUR,CHATTISGARH
Mardum B.O,Branch Post Office,494010,,JAGDALPUR,BASTAR,CHATTISGARH,BASTAR,RAIPUR,CHATTISGARH
Markel B.O,Branch Post Office,494001,,JAGDALPUR,BASTAR,CHATTISGARH,BASTAR,RAIPUR,CHATTISGARH
Matnar B.O,Branch Post Office,494010,,JAGDALPUR,BASTAR,CHATTISGARH,BASTAR,RAIPUR,CHATTISGARH
Matnar B.O,Branch Post Office,494222,,JAGDALPUR,BASTAR,CHATTISGARH,BASTAR,RAIPUR,CHATTISGARH
Michnar B.O,Branch Post Office,494442,,JAGDALPUR,BASTAR,CHATTISGARH,BASTAR,RAIPUR,CHATTISGARH
Mohlai B.O,Branch Post Office,494224,,JAGDALPUR,BASTAR,CHATTISGARH,BASTAR,RAIPUR,CHATTISGARH
Mongrapal B.O,Branch Post Office,494223,,JAGDALPUR,BASTAR,CHATTISGARH,BASTAR,RAIPUR,CHATTISGARH
Muli B.O,Branch Post Office,494222,,JAGDALPUR,BASTAR,CHATTISGARH,BASTAR,RAIPUR,CHATTISGARH
Mundagaon B.O,Branch Post Office,494224,,JAGDALPUR,BASTAR,CHATTISGARH,BASTAR,RAIPUR,CHATTISGARH
Mutanpal B.O,Branch Post Office,494442,,JAGDALPUR,BASTAR,CHATTISGARH,BASTAR,RAIPUR,CHATTISGARH
Nagarnaar B.O,Branch Post Office,494001,,JAGDALPUR,BASTAR,CHATTISGARH,BASTAR,RAIPUR,CHATTISGARH
Nalpawand B.O,Branch Post Office,494221,,JAGDALPUR,BASTAR,CHATTISGARH,BASTAR,RAIPUR,CHATTISGARH
Nangur B.O,Branch Post Office,494001,,JAGDALPUR,BASTAR,CHATTISGARH,BASTAR,RAIPUR,CHATTISGARH
Narayanpal B.O,Branch Post Office,494010,,JAGDALPUR,BASTAR,CHATTISGARH,BASTAR,RAIPUR,CHATTISGARH
Neganar B.O,Branch Post Office,494442,,JAGDALPUR,BASTAR,CHATTISGARH,BASTAR,RAIPUR,CHATTISGARH
Netanaar B.O,Branch Post Office,494001,,JAGDALPUR,BASTAR,CHATTISGARH,BASTAR,RAIPUR,CHATTISGARH
Niyanaar B.O,Branch Post Office,494001,,JAGDALPUR,BASTAR,CHATTISGARH,BASTAR,RAIPUR,CHATTISGARH
Pahurbel B.O,Branch Post Office,494222,,JAGDALPUR,BASTAR,CHATTISGARH,BASTAR,RAIPUR,CHATTISGARH
Pandripani B.O,Branch Post Office,494001,,JAGDALPUR,BASTAR,CHATTISGARH,BASTAR,RAIPUR,CHATTISGARH
Parapur B.O,Branch Post Office,494010,,JAGDALPUR,BASTAR,CHATTISGARH,BASTAR,RAIPUR,CHATTISGARH
Puspal B.O,Branch Post Office,494001,,JAGDALPUR,BASTAR,CHATTISGARH,BASTAR,RAIPUR,CHATTISGARH
Raikot B.O,Branch Post Office,494442,,JAGDALPUR,BASTAR,CHATTISGARH,BASTAR,RAIPUR,CHATTISGARH
Rajnagar B.O,Branch Post Office,494222,,JAGDALPUR,BASTAR,CHATTISGARH,BASTAR,RAIPUR,CHATTISGARH
Ratenga B.O,Branch Post Office,494010,,JAGDALPUR,BASTAR,CHATTISGARH,BASTAR,RAIPUR,CHATTISGARH
Retawand B.O,Branch Post Office,494223,,JAGDALPUR,BASTAR,CHATTISGARH,BASTAR,RAIPUR,CHATTISGARH
Rotma B.O,Branch Post Office,494223,,JAGDALPUR,BASTAR,CHATTISGARH,BASTAR,RAIPUR,CHATTISGARH
Sadgud B.O,Branch Post Office,494001,,JAGDALPUR,BASTAR,CHATTISGARH,BASTAR,RAIPUR,CHATTISGARH
Salemeta B.O,Branch Post Office,494224,,JAGDALPUR,BASTAR,CHATTISGARH,BASTAR,RAIPUR,CHATTISGARH
Sandkarmari B.O,Branch Post Office,494222,,JAGDALPUR,BASTAR,CHATTISGARH,BASTAR,RAIPUR,CHATTISGARH
Sargipal B.O,Branch Post Office,494222,,JAGDALPUR,BASTAR,CHATTISGARH,BASTAR,RAIPUR,CHATTISGARH
Satosa B.O,Branch Post Office,494224,,JAGDALPUR,BASTAR,CHATTISGARH,BASTAR,RAIPUR,CHATTISGARH
Seoni B.O,Branch Post Office,494224,,JAGDALPUR,BASTAR,CHATTISGARH,BASTAR,RAIPUR,CHATTISGARH
Singanpur B.O,Branch Post Office,494005,,JAGDALPUR,BASTAR,CHATTISGARH,BASTAR,RAIPUR,CHATTISGARH
Sirisguda B.O,Branch Post Office,494010,,JAGDALPUR,BASTAR,CHATTISGARH,BASTAR,RAIPUR,CHATTISGARH
Sonarpal B.O,Branch Post Office,494224,,JAGDALPUR,BASTAR,CHATTISGARH,BASTAR,RAIPUR,CHATTISGARH
Sonpur B.O,Branch Post Office,494222,,JAGDALPUR,BASTAR,CHATTISGARH,BASTAR,RAIPUR,CHATTISGARH
Sorgaon B.O,Branch Post Office,494224,,JAGDALPUR,BASTAR,CHATTISGARH,BASTAR,RAIPUR,CHATTISGARH
Sudhapal B.O,Branch Post Office,494010,,JAGDALPUR,BASTAR,CHATTISGARH,BASTAR,RAIPUR,CHATTISGARH
Talnar B.O,Branch Post Office,494221,,JAGDALPUR,BASTAR,CHATTISGARH,BASTAR,RAIPUR,CHATTISGARH
Talur B.O,Branch Post Office,494223,,JAGDALPUR,BASTAR,CHATTISGARH,BASTAR,RAIPUR,CHATTISGARH
Taragaon B.O,Branch Post Office,494010,,JAGDALPUR,BASTAR,CHATTISGARH,BASTAR,RAIPUR,CHATTISGARH
Tarapur B.O,Branch Post Office,494221,,JAGDALPUR,BASTAR,CHATTISGARH,BASTAR,RAIPUR,CHATTISGARH
Telemarenga B.O,Branch Post Office,494442,,JAGDALPUR,BASTAR,CHATTISGARH,BASTAR,RAIPUR,CHATTISGARH
Titirgaon B.O,Branch Post Office,494005,,JAGDALPUR,BASTAR,CHATTISGARH,BASTAR,RAIPUR,CHATTISGARH
Tokapal Rajoor S.O,Sub Post Office,494442,07782-263333,JAGDALPUR,BASTAR,CHATTISGARH,BASTAR,RAIPUR,CHATTISGARH
Usari B.O,Branch Post Office,494224,,JAGDALPUR,BASTAR,CHATTISGARH,BASTAR,RAIPUR,CHATTISGARH
Adenga B.O,Branch Post Office,494331,,KESHKAL,BASTAR,CHATTISGARH,BASTAR,RAIPUR,CHATTISGARH
Alor B.O,Branch Post Office,494228,,KESHKAL,BASTAR,CHATTISGARH,BASTAR,RAIPUR,CHATTISGARH
Amabeda B.O,Branch Post Office,494230,,KESHKAL,BASTAR,CHATTISGARH,BASTAR,RAIPUR,CHATTISGARH
Arandi B.O,Branch Post Office,494230,,KESHKAL,BASTAR,CHATTISGARH,BASTAR,RAIPUR,CHATTISGARH
Arra B.O,Branch Post Office,494230,,KESHKAL,BASTAR,CHATTISGARH,BASTAR,RAIPUR,CHATTISGARH
Badagaon B.O,Branch Post Office,494230,,KESHKAL,BASTAR,CHATTISGARH,BASTAR,RAIPUR,CHATTISGARH
Bade Rajpur B.O,Branch Post Office,494347,,KESHKAL,BASTAR,CHATTISGARH,BASTAR,RAIPUR,CHATTISGARH
Badedongar B.O,Branch Post Office,494228,,KESHKAL,BASTAR,CHATTISGARH,BASTAR,RAIPUR,CHATTISGARH
Badekhauli B.O,Branch Post Office,494230,,KESHKAL,BASTAR,CHATTISGARH,BASTAR,RAIPUR,CHATTISGARH
Bangaon B.O,Branch Post Office,494228,,KESHKAL,BASTAR,CHATTISGARH,BASTAR,RAIPUR,CHATTISGARH
Banjoda B.O,Branch Post Office,494230,,KESHKAL,BASTAR,CHATTISGARH,BASTAR,RAIPUR,CHATTISGARH
Banskote B.O,Branch Post Office,494347,,KESHKAL,BASTAR,CHATTISGARH,BASTAR,RAIPUR,CHATTISGARH
Barkai B.O,Branch Post Office,494228,,KESHKAL,BASTAR,CHATTISGARH,BASTAR,RAIPUR,CHATTISGARH
Bhandarseoni B.O,Branch Post Office,494229,,KESHKAL,BASTAR,CHATTISGARH,BASTAR,RAIPUR,CHATTISGARH
Bhanpuri B.O,Branch Post Office,494229,,KESHKAL,BASTAR,CHATTISGARH,BASTAR,RAIPUR,CHATTISGARH
Binjhe B.O,Branch Post Office,494230,,KESHKAL,BASTAR,CHATTISGARH,BASTAR,RAIPUR,CHATTISGARH
Cherbeda B.O,Branch Post Office,494230,,KESHKAL,BASTAR,CHATTISGARH,BASTAR,RAIPUR,CHATTISGARH
Choteodagaon B.O,Branch Post Office,494230,,KESHKAL,BASTAR,CHATTISGARH,BASTAR,RAIPUR,CHATTISGARH
Dhanora B.O,Branch Post Office,494230,,KESHKAL,BASTAR,CHATTISGARH,BASTAR,RAIPUR,CHATTISGARH
Eragaon B.O,Branch Post Office,494230,,KESHKAL,BASTAR,CHATTISGARH,BASTAR,RAIPUR,CHATTISGARH
Ghutkel B.O,Branch Post Office,494347,,KESHKAL,BASTAR,CHATTISGARH,BASTAR,RAIPUR,CHATTISGARH
Hirri B.O,Branch Post Office,494229,,KESHKAL,BASTAR,CHATTISGARH,BASTAR,RAIPUR,CHATTISGARH
Jodekera B.O,Branch Post Office,494228,,KESHKAL,BASTAR,CHATTISGARH,BASTAR,RAIPUR,CHATTISGARH
Juganikalar B.O,Branch Post Office,494229,,KESHKAL,BASTAR,CHATTISGARH,BASTAR,RAIPUR,CHATTISGARH
Kaurgaon B.O,Branch Post Office,494347,,KESHKAL,BASTAR,CHATTISGARH,BASTAR,RAIPUR,CHATTISGARH
Keshkal S.O,Sub Post Office,494331,07848-259220,KESHKAL,BASTAR,CHATTISGARH,BASTAR,RAIPUR,CHATTISGARH
Khalari B.O,Branch Post Office,494347,,KESHKAL,BASTAR,CHATTISGARH,BASTAR,RAIPUR,CHATTISGARH
Khetarpal B.O,Branch Post Office,494230,,KESHKAL,BASTAR,CHATTISGARH,BASTAR,RAIPUR,CHATTISGARH
Kohkameta B.O,Branch Post Office,494331,,KESHKAL,BASTAR,CHATTISGARH,BASTAR,RAIPUR,CHATTISGARH
Kongud B.O,Branch Post Office,494230,,KESHKAL,BASTAR,CHATTISGARH,BASTAR,RAIPUR,CHATTISGARH
Kopra B.O,Branch Post Office,494347,,KESHKAL,BASTAR,CHATTISGARH,BASTAR,RAIPUR,CHATTISGARH
Kotpad B.O,Branch Post Office,494228,,KESHKAL,BASTAR,CHATTISGARH,BASTAR,RAIPUR,CHATTISGARH
Lihagaon B.O,Branch Post Office,494347,,KESHKAL,BASTAR,CHATTISGARH,BASTAR,RAIPUR,CHATTISGARH
Lubha B.O,Branch Post Office,494228,,KESHKAL,BASTAR,CHATTISGARH,BASTAR,RAIPUR,CHATTISGARH
Manghiatgaon B.O,Branch Post Office,494228,,KESHKAL,BASTAR,CHATTISGARH,BASTAR,RAIPUR,CHATTISGARH
Marangpuri B.O,Branch Post Office,494347,,KESHKAL,BASTAR,CHATTISGARH,BASTAR,RAIPUR,CHATTISGARH
Nagarbeda B.O,Branch Post Office,494230,,KESHKAL,BASTAR,CHATTISGARH,BASTAR,RAIPUR,CHATTISGARH
Piprabahigaon S.O,Sub Post Office,494230,07848-258444,KESHKAL,BASTAR,CHATTISGARH,BASTAR,RAIPUR,CHATTISGARH
Piprakhas B.O,Branch Post Office,494230,,KESHKAL,BASTAR,CHATTISGARH,BASTAR,RAIPUR,CHATTISGARH
Randhna B.O,Branch Post Office,494228,,KESHKAL,BASTAR,CHATTISGARH,BASTAR,RAIPUR,CHATTISGARH
Salna B.O,Branch Post Office,494347,,KESHKAL,BASTAR,CHATTISGARH,BASTAR,RAIPUR,CHATTISGARH
Sawala B.O,Branch Post Office,494230,,KESHKAL,BASTAR,CHATTISGARH,BASTAR,RAIPUR,CHATTISGARH
Sikagaon B.O,Branch Post Office,494230,,KESHKAL,BASTAR,CHATTISGARH,BASTAR,RAIPUR,CHATTISGARH
Singanpur B.O,Branch Post Office,494331,,KESHKAL,BASTAR,CHATTISGARH,BASTAR,RAIPUR,CHATTISGARH
Taraibeda B.O,Branch Post Office,494230,,KESHKAL,BASTAR,CHATTISGARH,BASTAR,RAIPUR,CHATTISGARH
Tenwsa B.O,Branch Post Office,494347,,KESHKAL,BASTAR,CHATTISGARH,BASTAR,RAIPUR,CHATTISGARH
Titirwand B.O,Branch Post Office,494347,,KESHKAL,BASTAR,CHATTISGARH,BASTAR,RAIPUR,CHATTISGARH
Todasi B.O,Branch Post Office,494230,,KESHKAL,BASTAR,CHATTISGARH,BASTAR,RAIPUR,CHATTISGARH
Urandabeda B.O,Branch Post Office,494228,,KESHKAL,BASTAR,CHATTISGARH,BASTAR,RAIPUR,CHATTISGARH
Useli B.O,Branch Post Office,494230,,KESHKAL,BASTAR,CHATTISGARH,BASTAR,RAIPUR,CHATTISGARH
Vishrampuri S.O,Sub Post Office,494347,07849-254655,KESHKAL,BASTAR,CHATTISGARH,BASTAR,RAIPUR,CHATTISGARH
Babai B.O,Branch Post Office,494226,,KONDAGAON,BASTAR,CHATTISGARH,BASTAR,RAIPUR,CHATTISGARH
Badekanera B.O,Branch Post Office,494226,,KONDAGAON,BASTAR,CHATTISGARH,BASTAR,RAIPUR,CHATTISGARH
Bafna B.O,Branch Post Office,494226,,KONDAGAON,BASTAR,CHATTISGARH,BASTAR,RAIPUR,CHATTISGARH
Bamni Bazar B.O,Branch Post Office,494226,,KONDAGAON,BASTAR,CHATTISGARH,BASTAR,RAIPUR,CHATTISGARH
Baniyagaon B.O,Branch Post Office,494226,,KONDAGAON,BASTAR,CHATTISGARH,BASTAR,RAIPUR,CHATTISGARH
Banjugani B.O,Branch Post Office,494226,,KONDAGAON,BASTAR,CHATTISGARH,BASTAR,RAIPUR,CHATTISGARH
Bayanar B.O,Branch Post Office,494226,,KONDAGAON,BASTAR,CHATTISGARH,BASTAR,RAIPUR,CHATTISGARH
Bijapur B.O,Branch Post Office,494226,,KONDAGAON,BASTAR,CHATTISGARH,BASTAR,RAIPUR,CHATTISGARH
Bunagaon B.O,Branch Post Office,494226,,KONDAGAON,BASTAR,CHATTISGARH,BASTAR,RAIPUR,CHATTISGARH
Chema B.O,Branch Post Office,494226,,KONDAGAON,BASTAR,CHATTISGARH,BASTAR,RAIPUR,CHATTISGARH
Chhinari B.O,Branch Post Office,494226,,KONDAGAON,BASTAR,CHATTISGARH,BASTAR,RAIPUR,CHATTISGARH
Chipawand B.O,Branch Post Office,494226,,KONDAGAON,BASTAR,CHATTISGARH,BASTAR,RAIPUR,CHATTISGARH
Dahikonga B.O,Branch Post Office,494226,,KONDAGAON,BASTAR,CHATTISGARH,BASTAR,RAIPUR,CHATTISGARH
Dharli B.O,Branch Post Office,494226,,KONDAGAON,BASTAR,CHATTISGARH,BASTAR,RAIPUR,CHATTISGARH
Dnk Colony B.O,Branch Post Office,494226,,KONDAGAON,BASTAR,CHATTISGARH,BASTAR,RAIPUR,CHATTISGARH
Girola B.O,Branch Post Office,494226,,KONDAGAON,BASTAR,CHATTISGARH,BASTAR,RAIPUR,CHATTISGARH
Golawand B.O,Branch Post Office,494226,,KONDAGAON,BASTAR,CHATTISGARH,BASTAR,RAIPUR,CHATTISGARH
Heerapur B.O,Branch Post Office,494226,,KONDAGAON,BASTAR,CHATTISGARH,BASTAR,RAIPUR,CHATTISGARH
Jaitpuri B.O,Branch Post Office,494229,,KONDAGAON,BASTAR,CHATTISGARH,BASTAR,RAIPUR,CHATTISGARH
Joba B.O,Branch Post Office,494226,,KONDAGAON,BASTAR,CHATTISGARH,BASTAR,RAIPUR,CHATTISGARH
Kerawahi B.O,Branch Post Office,494229,,KONDAGAON,BASTAR,CHATTISGARH,BASTAR,RAIPUR,CHATTISGARH
Kibaibalenga B.O,Branch Post Office,494226,,KONDAGAON,BASTAR,CHATTISGARH,BASTAR,RAIPUR,CHATTISGARH
Kokodi B.O,Branch Post Office,494226,,KONDAGAON,BASTAR,CHATTISGARH,BASTAR,RAIPUR,CHATTISGARH
Kondagaon Naka S.O,Sub Post Office,494226,07786-243298,KONDAGAON,BASTAR,CHATTISGARH,BASTAR,RAIPUR,CHATTISGARH
Kondagaon S.O,Sub Post Office,494226,07786-242206,KONDAGAON,BASTAR,CHATTISGARH,BASTAR,RAIPUR,CHATTISGARH
Kongera B.O,Branch Post Office,494226,,KONDAGAON,BASTAR,CHATTISGARH,BASTAR,RAIPUR,CHATTISGARH
Lanjoda B.O,Branch Post Office,494229,,KONDAGAON,BASTAR,CHATTISGARH,BASTAR,RAIPUR,CHATTISGARH
Makdi B.O,Branch Post Office,494226,,KONDAGAON,BASTAR,CHATTISGARH,BASTAR,RAIPUR,CHATTISGARH
Malakot B.O,Branch Post Office,494226,,KONDAGAON,BASTAR,CHATTISGARH,BASTAR,RAIPUR,CHATTISGARH
Malgaon B.O,Branch Post Office,494226,,KONDAGAON,BASTAR,CHATTISGARH,BASTAR,RAIPUR,CHATTISGARH
Mardapal B.O,Branch Post Office,494226,,KONDAGAON,BASTAR,CHATTISGARH,BASTAR,RAIPUR,CHATTISGARH
Matwal B.O,Branch Post Office,494226,,KONDAGAON,BASTAR,CHATTISGARH,BASTAR,RAIPUR,CHATTISGARH
Mohlai B.O,Branch Post Office,494226,,KONDAGAON,BASTAR,CHATTISGARH,BASTAR,RAIPUR,CHATTISGARH
Mulmula B.O,Branch Post Office,494226,,KONDAGAON,BASTAR,CHATTISGARH,BASTAR,RAIPUR,CHATTISGARH
Otenda B.O,Branch Post Office,494226,,KONDAGAON,BASTAR,CHATTISGARH,BASTAR,RAIPUR,CHATTISGARH
Palari B.O,Branch Post Office,494226,,KONDAGAON,BASTAR,CHATTISGARH,BASTAR,RAIPUR,CHATTISGARH
Pharasgaon Camp S.O,Sub Post Office,494229,07784-200515,KONDAGAON,BASTAR,CHATTISGARH,BASTAR,RAIPUR,CHATTISGARH
Pharasgaon S.O,Sub Post Office,494228,07784-257238,KONDAGAON,BASTAR,CHATTISGARH,BASTAR,RAIPUR,CHATTISGARH
Shampur B.O,Branch Post Office,494226,,KONDAGAON,BASTAR,CHATTISGARH,BASTAR,RAIPUR,CHATTISGARH
Sonabal B.O,Branch Post Office,494226,,KONDAGAON,BASTAR,CHATTISGARH,BASTAR,RAIPUR,CHATTISGARH
Umargaon B.O,Branch Post Office,494226,,KONDAGAON,BASTAR,CHATTISGARH,BASTAR,RAIPUR,CHATTISGARH
Gadiras B.O,Branch Post Office,494111,,KONTA,BASTAR,CHATTISGARH,BASTAR,RAIPUR,CHATTISGARH
Atukpalli B.O,Branch Post Office,494446,,BHOPALPATNAM,BIJAPUR,CHATTISGARH,BASTAR,RAIPUR,CHATTISGARH
Awapalli S.O,Sub Post Office,494447,07851-223220,BHOPALPATNAM,BIJAPUR,CHATTISGARH,BASTAR,RAIPUR,CHATTISGARH
Bareguda B.O,Branch Post Office,494446,,BHOPALPATNAM,BIJAPUR,CHATTISGARH,BASTAR,RAIPUR,CHATTISGARH
Basaguda B.O,Branch Post Office,494447,,BHOPALPATNAM,BIJAPUR,CHATTISGARH,BASTAR,RAIPUR,CHATTISGARH
Bhopalpatnam S.O,Sub Post Office,494446,07851-222310,BHOPALPATNAM,BIJAPUR,CHATTISGARH,BASTAR,RAIPUR,CHATTISGARH
Chandangiri B.O,Branch Post Office,494446,,BHOPALPATNAM,BIJAPUR,CHATTISGARH,BASTAR,RAIPUR,CHATTISGARH
Chandur B.O,Branch Post Office,494446,,BHOPALPATNAM,BIJAPUR,CHATTISGARH,BASTAR,RAIPUR,CHATTISGARH
Cherpalli B.O,Branch Post Office,494448,,BHOPALPATNAM,BIJAPUR,CHATTISGARH,BASTAR,RAIPUR,CHATTISGARH
Chinnakawali B.O,Branch Post Office,494448,,BHOPALPATNAM,BIJAPUR,CHATTISGARH,BASTAR,RAIPUR,CHATTISGARH
Dharmaram B.O,Branch Post Office,494447,,BHOPALPATNAM,BIJAPUR,CHATTISGARH,BASTAR,RAIPUR,CHATTISGARH
Dudheda (Kottaguda) B.O,Branch Post Office,494448,,BHOPALPATNAM,BIJAPUR,CHATTISGARH,BASTAR,RAIPUR,CHATTISGARH
Elmidi B.O,Branch Post Office,494447,,BHOPALPATNAM,BIJAPUR,CHATTISGARH,BASTAR,RAIPUR,CHATTISGARH
Kandulnar B.O,Branch Post Office,494448,,BHOPALPATNAM,BIJAPUR,CHATTISGARH,BASTAR,RAIPUR,CHATTISGARH
Kottaguda B.O,Branch Post Office,494446,,BHOPALPATNAM,BIJAPUR,CHATTISGARH,BASTAR,RAIPUR,CHATTISGARH
Madded S.O,Sub Post Office,494448,07851-221232,BHOPALPATNAM,BIJAPUR,CHATTISGARH,BASTAR,RAIPUR,CHATTISGARH
Mallepalli B.O,Branch Post Office,494447,,BHOPALPATNAM,BIJAPUR,CHATTISGARH,BASTAR,RAIPUR,CHATTISGARH
Marudbaka B.O,Branch Post Office,494447,,BHOPALPATNAM,BIJAPUR,CHATTISGARH,BASTAR,RAIPUR,CHATTISGARH
Munjalkanker B.O,Branch Post Office,494447,,BHOPALPATNAM,BIJAPUR,CHATTISGARH,BASTAR,RAIPUR,CHATTISGARH
Murdanda B.O,Branch Post Office,494447,,BHOPALPATNAM,BIJAPUR,CHATTISGARH,BASTAR,RAIPUR,CHATTISGARH
Pakela B.O,Branch Post Office,494447,,BHOPALPATNAM,BIJAPUR,CHATTISGARH,BASTAR,RAIPUR,CHATTISGARH
Pamed B.O,Branch Post Office,494447,,BHOPALPATNAM,BIJAPUR,CHATTISGARH,BASTAR,RAIPUR,CHATTISGARH
Pamgal B.O,Branch Post Office,494448,,BHOPALPATNAM,BIJAPUR,CHATTISGARH,BASTAR,RAIPUR,CHATTISGARH
Pujarikanker B.O,Branch Post Office,494447,,BHOPALPATNAM,BIJAPUR,CHATTISGARH,BASTAR,RAIPUR,CHATTISGARH
Pusbaka B.O,Branch Post Office,494447,,BHOPALPATNAM,BIJAPUR,CHATTISGARH,BASTAR,RAIPUR,CHATTISGARH
Pusgudi B.O,Branch Post Office,494448,,BHOPALPATNAM,BIJAPUR,CHATTISGARH,BASTAR,RAIPUR,CHATTISGARH
Rudraram B.O,Branch Post Office,494446,,BHOPALPATNAM,BIJAPUR,CHATTISGARH,BASTAR,RAIPUR,CHATTISGARH
Sankanpalli B.O,Branch Post Office,494448,,BHOPALPATNAM,BIJAPUR,CHATTISGARH,BASTAR,RAIPUR,CHATTISGARH
Tarlaguda B.O,Branch Post Office,494446,,BHOPALPATNAM,BIJAPUR,CHATTISGARH,BASTAR,RAIPUR,CHATTISGARH
Tekmetla B.O,Branch Post Office,494447,,BHOPALPATNAM,BIJAPUR,CHATTISGARH,BASTAR,RAIPUR,CHATTISGARH
Timed B.O,Branch Post Office,494446,,BHOPALPATNAM,BIJAPUR,CHATTISGARH,BASTAR,RAIPUR,CHATTISGARH
Usoor B.O,Branch Post Office,494447,,BHOPALPATNAM,BIJAPUR,CHATTISGARH,BASTAR,RAIPUR,CHATTISGARH
Badekakler B.O,Branch Post Office,494444,,BIJAPUR,BIJAPUR,CHATTISGARH,BASTAR,RAIPUR,CHATTISGARH
Bhairamgarh B.O,Branch Post Office,494444,,BIJAPUR,BIJAPUR,CHATTISGARH,BASTAR,RAIPUR,CHATTISGARH
Bijapur S.O,Sub Post Office,494444,07853-220244,BIJAPUR,BIJAPUR,CHATTISGARH,BASTAR,RAIPUR,CHATTISGARH
Cherpal B.O,Branch Post Office,494444,,BIJAPUR,BIJAPUR,CHATTISGARH,BASTAR,RAIPUR,CHATTISGARH
Dhanora B.O,Branch Post Office,494444,,BIJAPUR,BIJAPUR,CHATTISGARH,BASTAR,RAIPUR,CHATTISGARH
Etpal B.O,Branch Post Office,494444,,BIJAPUR,BIJAPUR,CHATTISGARH,BASTAR,RAIPUR,CHATTISGARH
Gangaloor B.O,Branch Post Office,494444,,BIJAPUR,BIJAPUR,CHATTISGARH,BASTAR,RAIPUR,CHATTISGARH
Gudma B.O,Branch Post Office,494444,,BIJAPUR,BIJAPUR,CHATTISGARH,BASTAR,RAIPUR,CHATTISGARH
Kaika B.O,Branch Post Office,494444,,BIJAPUR,BIJAPUR,CHATTISGARH,BASTAR,RAIPUR,CHATTISGARH
Karkeli B.O,Branch Post Office,494444,,BIJAPUR,BIJAPUR,CHATTISGARH,BASTAR,RAIPUR,CHATTISGARH
Kutru B.O,Branch Post Office,494444,,BIJAPUR,BIJAPUR,CHATTISGARH,BASTAR,RAIPUR,CHATTISGARH
Lanka B.O,Branch Post Office,494444,,BIJAPUR,BIJAPUR,CHATTISGARH,BASTAR,RAIPUR,CHATTISGARH
Matwada B.O,Branch Post Office,494444,,BIJAPUR,BIJAPUR,CHATTISGARH,BASTAR,RAIPUR,CHATTISGARH
Nemed B.O,Branch Post Office,494444,,BIJAPUR,BIJAPUR,CHATTISGARH,BASTAR,RAIPUR,CHATTISGARH
Padeda B.O,Branch Post Office,494444,,BIJAPUR,BIJAPUR,CHATTISGARH,BASTAR,RAIPUR,CHATTISGARH
Pharsegarh B.O,Branch Post Office,494444,,BIJAPUR,BIJAPUR,CHATTISGARH,BASTAR,RAIPUR,CHATTISGARH
Pidiya B.O,Branch Post Office,494444,,BIJAPUR,BIJAPUR,CHATTISGARH,BASTAR,RAIPUR,CHATTISGARH
Pusnar B.O,Branch Post Office,494444,,BIJAPUR,BIJAPUR,CHATTISGARH,BASTAR,RAIPUR,CHATTISGARH
Ranibodli B.O,Branch Post Office,494444,,BIJAPUR,BIJAPUR,CHATTISGARH,BASTAR,RAIPUR,CHATTISGARH
Sagmeta B.O,Branch Post Office,494444,,BIJAPUR,BIJAPUR,CHATTISGARH,BASTAR,RAIPUR,CHATTISGARH
Sandra B.O,Branch Post Office,494444,,BIJAPUR,BIJAPUR,CHATTISGARH,BASTAR,RAIPUR,CHATTISGARH
Toynar B.O,Branch Post Office,494444,,BIJAPUR,BIJAPUR,CHATTISGARH,BASTAR,RAIPUR,CHATTISGARH
Tumnar B.O,Branch Post Office,494444,,BIJAPUR,BIJAPUR,CHATTISGARH,BASTAR,RAIPUR,CHATTISGARH
Etepal B.O,Branch Post Office,494552,,DANTEWADA,BIJAPUR,CHATTISGARH,BASTAR,RAIPUR,CHATTISGARH
Ujwal Nagar S.O,Sub Post Office,495555,,.,BILASPUR,CHATTISGARH,BILASPUR,RAIPUR,CHATTISGARH
Chhatauna B.O,Branch Post Office,495116,,BELGAHANA,BILASPUR,CHATTISGARH,BILASPUR,RAIPUR,CHATTISGARH
Kenda B.O,Branch Post Office,495116,,BELGAHANA,BILASPUR,CHATTISGARH,BILASPUR,RAIPUR,CHATTISGARH
Khairjhiti B.O,Branch Post Office,495116,,BELGAHANA,BILASPUR,CHATTISGARH,BILASPUR,RAIPUR,CHATTISGARH
Khongsara B.O,Branch Post Office,495116,,BELGAHANA,BILASPUR,CHATTISGARH,BILASPUR,RAIPUR,CHATTISGARH
Majhgaon B.O,Branch Post Office,495116,,BELGAHANA,BILASPUR,CHATTISGARH,BILASPUR,RAIPUR,CHATTISGARH
Majhwani B.O,Branch Post Office,495116,,BELGAHANA,BILASPUR,CHATTISGARH,BILASPUR,RAIPUR,CHATTISGARH
Mithunawagaon B.O,Branch Post Office,495116,,BELGAHANA,BILASPUR,CHATTISGARH,BILASPUR,RAIPUR,CHATTISGARH
Pudu B.O,Branch Post Office,495116,,BELGAHANA,BILASPUR,CHATTISGARH,BILASPUR,RAIPUR,CHATTISGARH
Semariya B.O,Branch Post Office,495116,,BELGAHANA,BILASPUR,CHATTISGARH,BILASPUR,RAIPUR,CHATTISGARH
Tenganmada B.O,Branch Post Office,495116,,BELGAHANA,BILASPUR,CHATTISGARH,BILASPUR,RAIPUR,CHATTISGARH
Umariyadadar B.O,Branch Post Office,495116,,BELGAHNA,BILASPUR,CHATTISGARH,BILASPUR,RAIPUR,CHATTISGARH
Bahtarai B.O,Branch Post Office,495001,,BILASPUR,BILASPUR,CHATTISGARH,BILASPUR,RAIPUR,CHATTISGARH
Baimanagoi B.O,Branch Post Office,495006,,BILASPUR,BILASPUR,CHATTISGARH,BILASPUR,RAIPUR,CHATTISGARH
Bilaspur H.O,Head Post Office,495001,07752-228218,BILASPUR,BILASPUR,CHATTISGARH,BILASPUR,RAIPUR,CHATTISGARH
Bilaspur Industrial Estate S.O,Sub Post Office,495223,07752-252722,BILASPUR,BILASPUR,CHATTISGARH,BILASPUR,RAIPUR,CHATTISGARH
Bilaspur Kutchery S.O,Sub Post Office,495001,,BILASPUR,BILASPUR,CHATTISGARH,BILASPUR,RAIPUR,CHATTISGARH
Bilaspur R.S. S.O,Sub Post Office,495004,07752-247340,BILASPUR,BILASPUR,CHATTISGARH,BILASPUR,RAIPUR,CHATTISGARH
Chantidih B.O,Branch Post Office,495006,,BILASPUR,BILASPUR,CHATTISGARH,BILASPUR,RAIPUR,CHATTISGARH
Cmd College Bilaspur S.O,Sub Post Office,495004,07752-238288,BILASPUR,BILASPUR,CHATTISGARH,BILASPUR,RAIPUR,CHATTISGARH
Deorikhurd B.O,Branch Post Office,495004,,BILASPUR,BILASPUR,CHATTISGARH,BILASPUR,RAIPUR,CHATTISGARH
Dhuma B.O,Branch Post Office,495004,,BILASPUR,BILASPUR,CHATTISGARH,BILASPUR,RAIPUR,CHATTISGARH
Girdhauna B.O,Branch Post Office,495001,,BILASPUR,BILASPUR,CHATTISGARH,BILASPUR,RAIPUR,CHATTISGARH
Gole Bazar Bilaspur S.O,Sub Post Office,495001,07752-238234,BILASPUR,BILASPUR,CHATTISGARH,BILASPUR,RAIPUR,CHATTISGARH
Harditonakala B.O,Branch Post Office,495004,,BILASPUR,BILASPUR,CHATTISGARH,BILASPUR,RAIPUR,CHATTISGARH
High Court Bilaspur S.O,Sub Post Office,495001,07752-238207,BILASPUR,BILASPUR,CHATTISGARH,BILASPUR,RAIPUR,CHATTISGARH
Juna Bilaspur S.O,Sub Post Office,495001,07752-230935,BILASPUR,BILASPUR,CHATTISGARH,BILASPUR,RAIPUR,CHATTISGARH
Kathakoni B.O,Branch Post Office,495001,,BILASPUR,BILASPUR,CHATTISGARH,BILASPUR,RAIPUR,CHATTISGARH
Kilaward Bilaspur S.O,Sub Post Office,495001,,BILASPUR,BILASPUR,CHATTISGARH,BILASPUR,RAIPUR,CHATTISGARH
Koni S.O,Sub Post Office,495009,07752-260032,BILASPUR,BILASPUR,CHATTISGARH,BILASPUR,RAIPUR,CHATTISGARH
Mangla B.O,Branch Post Office,495001,,BILASPUR,BILASPUR,CHATTISGARH,BILASPUR,RAIPUR,CHATTISGARH
Mochh B.O,Branch Post Office,495001,,BILASPUR,BILASPUR,CHATTISGARH,BILASPUR,RAIPUR,CHATTISGARH
Mopka B.O,Branch Post Office,495006,,BILASPUR,BILASPUR,CHATTISGARH,BILASPUR,RAIPUR,CHATTISGARH
Pandhi B.O,Branch Post Office,495006,,BILASPUR,BILASPUR,CHATTISGARH,BILASPUR,RAIPUR,CHATTISGARH
Ramdas Nagar S.O,Sub Post Office,495004,,BILASPUR,BILASPUR,CHATTISGARH,BILASPUR,RAIPUR,CHATTISGARH
Saida B.O,Branch Post Office,495001,,BILASPUR,BILASPUR,CHATTISGARH,BILASPUR,RAIPUR,CHATTISGARH
Sakri B.O,Branch Post Office,495001,,BILASPUR,BILASPUR,CHATTISGARH,BILASPUR,RAIPUR,CHATTISGARH
Sarkanda Bilaspur S.O,Sub Post Office,495006,07752-212069,BILASPUR,BILASPUR,CHATTISGARH,BILASPUR,RAIPUR,CHATTISGARH
Secl Bilaspur S.O,Sub Post Office,495006,07752-246495,BILASPUR,BILASPUR,CHATTISGARH,BILASPUR,RAIPUR,CHATTISGARH
Sirgitti B.O,Branch Post Office,495004,,BILASPUR,BILASPUR,CHATTISGARH,BILASPUR,RAIPUR,CHATTISGARH
Spinning Mills Bilaspur S.O,Sub Post Office,495006,07752-240140,BILASPUR,BILASPUR,CHATTISGARH,BILASPUR,RAIPUR,CHATTISGARH
Torwa S.O,Sub Post Office,495004,,BILASPUR,BILASPUR,CHATTISGARH,BILASPUR,RAIPUR,CHATTISGARH
Urtum B.O,Branch Post Office,495006,,BILASPUR,BILASPUR,CHATTISGARH,BILASPUR,RAIPUR,CHATTISGARH
Anda B.O,Branch Post Office,495224,,BILHA,BILASPUR,CHATTISGARH,BILASPUR,RAIPUR,CHATTISGARH
Badrathakur B.O,Branch Post Office,495224,,BILHA,BILASPUR,CHATTISGARH,BILASPUR,RAIPUR,CHATTISGARH
Baitalpur B.O,Branch Post Office,495224,,BILHA,BILASPUR,CHATTISGARH,BILASPUR,RAIPUR,CHATTISGARH
Baoli B.O,Branch Post Office,495224,,BILHA,BILASPUR,CHATTISGARH,BILASPUR,RAIPUR,CHATTISGARH
Bartori B.O,Branch Post Office,495224,,BILHA,BILASPUR,CHATTISGARH,BILASPUR,RAIPUR,CHATTISGARH
Bilha S.O,Sub Post Office,495224,07752-259222,BILHA,BILASPUR,CHATTISGARH,BILASPUR,RAIPUR,CHATTISGARH
Bitkuli B.O,Branch Post Office,495224,,BILHA,BILASPUR,CHATTISGARH,BILASPUR,RAIPUR,CHATTISGARH
Bortara B.O,Branch Post Office,495224,,BILHA,BILASPUR,CHATTISGARH,BILASPUR,RAIPUR,CHATTISGARH
Chakarbhata Camp S.O,Sub Post Office,495220,07752-275221,BILHA,BILASPUR,CHATTISGARH,BILASPUR,RAIPUR,CHATTISGARH
Dagori B.O,Branch Post Office,495224,,BILHA,BILASPUR,CHATTISGARH,BILASPUR,RAIPUR,CHATTISGARH
Hirri Mines S.O,Sub Post Office,495222,07752-276680,BILHA,BILASPUR,CHATTISGARH,BILASPUR,RAIPUR,CHATTISGARH
Pasid B.O,Branch Post Office,495224,,BILHA,BILASPUR,CHATTISGARH,BILASPUR,RAIPUR,CHATTISGARH
Piraiya B.O,Branch Post Office,495224,,BILHA,BILASPUR,CHATTISGARH,BILASPUR,RAIPUR,CHATTISGARH
Sargaon B.O,Branch Post Office,495224,,BILHA,BILASPUR,CHATTISGARH,BILASPUR,RAIPUR,CHATTISGARH
Sarwani B.O,Branch Post Office,495224,,BILHA,BILASPUR,CHATTISGARH,BILASPUR,RAIPUR,CHATTISGARH
Sewar B.O,Branch Post Office,495224,,BILHA,BILASPUR,CHATTISGARH,BILASPUR,RAIPUR,CHATTISGARH
Muru B.O,Branch Post Office,495220,,CHAKARBHATA CAMP,BILASPUR,CHATTISGARH,BILASPUR,RAIPUR,CHATTISGARH
Sagar B.O,Branch Post Office,495220,,CHAKARBHATA CAMP,BILASPUR,CHATTISGARH,BILASPUR,RAIPUR,CHATTISGARH
Sakarra B.O,Branch Post Office,495220,,CHAKARBHATA CAMP,BILASPUR,CHATTISGARH,BILASPUR,RAIPUR,CHATTISGARH
Bharari B.O,Branch Post Office,495112,,GANIYARI,BILASPUR,CHATTISGARH,BILASPUR,RAIPUR,CHATTISGARH
Bharni B.O,Branch Post Office,495112,,GANIYARI,BILASPUR,CHATTISGARH,BILASPUR,RAIPUR,CHATTISGARH
Ghutku B.O,Branch Post Office,495112,,GANIYARI,BILASPUR,CHATTISGARH,BILASPUR,RAIPUR,CHATTISGARH
Lamer B.O,Branch Post Office,495112,,GANIYARI,BILASPUR,CHATTISGARH,BILASPUR,RAIPUR,CHATTISGARH
Neora B.O,Branch Post Office,495112,,GANIYARI,BILASPUR,CHATTISGARH,BILASPUR,RAIPUR,CHATTISGARH
Pipartarai B.O,Branch Post Office,495112,,GANIYARI,BILASPUR,CHATTISGARH,BILASPUR,RAIPUR,CHATTISGARH
Tanda B.O,Branch Post Office,495112,,GANIYARI,BILASPUR,CHATTISGARH,BILASPUR,RAIPUR,CHATTISGARH
Hirri B.O,Branch Post Office,495222,,HIRRI MINES,BILASPUR,CHATTISGARH,BILASPUR,RAIPUR,CHATTISGARH
Aramsahi B.O,Branch Post Office,495550,,JAIRAMNAGAR,BILASPUR,CHATTISGARH,BILASPUR,RAIPUR,CHATTISGARH
Gatora B.O,Branch Post Office,495550,,JAIRAMNAGAR,BILASPUR,CHATTISGARH,BILASPUR,RAIPUR,CHATTISGARH
Gudi B.O,Branch Post Office,495550,,JAIRAMNAGAR,BILASPUR,CHATTISGARH,BILASPUR,RAIPUR,CHATTISGARH
Janji B.O,Branch Post Office,495550,,JAIRAMNAGAR,BILASPUR,CHATTISGARH,BILASPUR,RAIPUR,CHATTISGARH
Kaudia B.O,Branch Post Office,495550,,JAIRAMNAGAR,BILASPUR,CHATTISGARH,BILASPUR,RAIPUR,CHATTISGARH
Mudpar B.O,Branch Post Office,495550,,JAIRAMNAGAR,BILASPUR,CHATTISGARH,BILASPUR,RAIPUR,CHATTISGARH
Nargoda B.O,Branch Post Office,495550,,JAIRAMNAGAR,BILASPUR,CHATTISGARH,BILASPUR,RAIPUR,CHATTISGARH
Pondi B.O,Branch Post Office,495550,,JAIRAMNAGAR,BILASPUR,CHATTISGARH,BILASPUR,RAIPUR,CHATTISGARH
Hardi (J) B.O,Branch Post Office,495668,,JANJGIR,BILASPUR,CHATTISGARH,BILASPUR,RAIPUR,CHATTISGARH
Achanakmar B.O,Branch Post Office,495113,,KARGI ROAD,BILASPUR,CHATTISGARH,BILASPUR,RAIPUR,CHATTISGARH
Amoli B.O,Branch Post Office,495113,,KARGI ROAD,BILASPUR,CHATTISGARH,BILASPUR,RAIPUR,CHATTISGARH
Bansajhal B.O,Branch Post Office,495113,,KARGI ROAD,BILASPUR,CHATTISGARH,BILASPUR,RAIPUR,CHATTISGARH
Bhaisajhar B.O,Branch Post Office,495113,,KARGI ROAD,BILASPUR,CHATTISGARH,BILASPUR,RAIPUR,CHATTISGARH
Bija B.O,Branch Post Office,495113,,KARGI ROAD,BILASPUR,CHATTISGARH,BILASPUR,RAIPUR,CHATTISGARH
Bijaypur B.O,Branch Post Office,495113,,KARGI ROAD,BILASPUR,CHATTISGARH,BILASPUR,RAIPUR,CHATTISGARH
Billiband B.O,Branch Post Office,495113,,KARGI ROAD,BILASPUR,CHATTISGARH,BILASPUR,RAIPUR,CHATTISGARH
Dhuma B.O,Branch Post Office,495113,,KARGI ROAD,BILASPUR,CHATTISGARH,BILASPUR,RAIPUR,CHATTISGARH
Gobripat B.O,Branch Post Office,495113,,KARGI ROAD,BILASPUR,CHATTISGARH,BILASPUR,RAIPUR,CHATTISGARH
Jhingatpur B.O,Branch Post Office,495113,,KARGI ROAD,BILASPUR,CHATTISGARH,BILASPUR,RAIPUR,CHATTISGARH
Kargi Road S.O,Sub Post Office,495113,07753-253244,KARGI ROAD,BILASPUR,CHATTISGARH,BILASPUR,RAIPUR,CHATTISGARH
Kargikala B.O,Branch Post Office,495113,,KARGI ROAD,BILASPUR,CHATTISGARH,BILASPUR,RAIPUR,CHATTISGARH
Krgikhurd B.O,Branch Post Office,495113,,KARGI ROAD,BILASPUR,CHATTISGARH,BILASPUR,RAIPUR,CHATTISGARH
Pali B.O,Branch Post Office,495113,,KARGI ROAD,BILASPUR,CHATTISGARH,BILASPUR,RAIPUR,CHATTISGARH
Parsada B.O,Branch Post Office,495113,,KARGI ROAD,BILASPUR,CHATTISGARH,BILASPUR,RAIPUR,CHATTISGARH
Salkhanowgaon B.O,Branch Post Office,495113,,KARGI ROAD,BILASPUR,CHATTISGARH,BILASPUR,RAIPUR,CHATTISGARH
Shivtarai B.O,Branch Post Office,495113,,KARGI ROAD,BILASPUR,CHATTISGARH,BILASPUR,RAIPUR,CHATTISGARH
Belgahana S.O,Sub Post Office,495116,07751-257230,KARGIROAD,BILASPUR,CHATTISGARH,BILASPUR,RAIPUR,CHATTISGARH
Birkona B.O,Branch Post Office,495009,,KONI,BILASPUR,CHATTISGARH,BILASPUR,RAIPUR,CHATTISGARH
Lofandi B.O,Branch Post Office,495009,,KONI,BILASPUR,CHATTISGARH,BILASPUR,RAIPUR,CHATTISGARH
Paunsara B.O,Branch Post Office,495009,,KONI,BILASPUR,CHATTISGARH,BILASPUR,RAIPUR,CHATTISGARH
Semartal B.O,Branch Post Office,495009,,KONI,BILASPUR,CHATTISGARH,BILASPUR,RAIPUR,CHATTISGARH
Sendri B.O,Branch Post Office,495009,,KONI,BILASPUR,CHATTISGARH,BILASPUR,RAIPUR,CHATTISGARH
Akhrar B.O,Branch Post Office,495115,,LORMI,BILASPUR,CHATTISGARH,BILASPUR,RAIPUR,CHATTISGARH
Baigakapa B.O,Branch Post Office,495115,,LORMI,BILASPUR,CHATTISGARH,BILASPUR,RAIPUR,CHATTISGARH
Bandha B.O,Branch Post Office,495115,,LORMI,BILASPUR,CHATTISGARH,BILASPUR,RAIPUR,CHATTISGARH
Barampur B.O,Branch Post Office,495115,,LORMI,BILASPUR,CHATTISGARH,BILASPUR,RAIPUR,CHATTISGARH
Bodtara B.O,Branch Post Office,495115,,LORMI,BILASPUR,CHATTISGARH,BILASPUR,RAIPUR,CHATTISGARH
Chandeli B.O,Branch Post Office,495115,,LORMI,BILASPUR,CHATTISGARH,BILASPUR,RAIPUR,CHATTISGARH
Chilfi B.O,Branch Post Office,495115,,LORMI,BILASPUR,CHATTISGARH,BILASPUR,RAIPUR,CHATTISGARH
Daukapa B.O,Branch Post Office,495115,,LORMI,BILASPUR,CHATTISGARH,BILASPUR,RAIPUR,CHATTISGARH
Deorhat B.O,Branch Post Office,495115,,LORMI,BILASPUR,CHATTISGARH,BILASPUR,RAIPUR,CHATTISGARH
Dindori B.O,Branch Post Office,495115,,LORMI,BILASPUR,CHATTISGARH,BILASPUR,RAIPUR,CHATTISGARH
Dongariya B.O,Branch Post Office,495115,,LORMI,BILASPUR,CHATTISGARH,BILASPUR,RAIPUR,CHATTISGARH
Fulwari B.O,Branch Post Office,495115,,LORMI,BILASPUR,CHATTISGARH,BILASPUR,RAIPUR,CHATTISGARH
Ghanaghat B.O,Branch Post Office,495115,,LORMI,BILASPUR,CHATTISGARH,BILASPUR,RAIPUR,CHATTISGARH
Jhajhpurikala B.O,Branch Post Office,495115,,LORMI,BILASPUR,CHATTISGARH,BILASPUR,RAIPUR,CHATTISGARH
Jhapal B.O,Branch Post Office,495115,,LORMI,BILASPUR,CHATTISGARH,BILASPUR,RAIPUR,CHATTISGARH
Junapara B.O,Branch Post Office,495115,,LORMI,BILASPUR,CHATTISGARH,BILASPUR,RAIPUR,CHATTISGARH
Khamhi B.O,Branch Post Office,495115,,LORMI,BILASPUR,CHATTISGARH,BILASPUR,RAIPUR,CHATTISGARH
Khaprikala B.O,Branch Post Office,495115,,LORMI,BILASPUR,CHATTISGARH,BILASPUR,RAIPUR,CHATTISGARH
Khudia B.O,Branch Post Office,495115,,LORMI,BILASPUR,CHATTISGARH,BILASPUR,RAIPUR,CHATTISGARH
Kotri B.O,Branch Post Office,495115,,LORMI,BILASPUR,CHATTISGARH,BILASPUR,RAIPUR,CHATTISGARH
Lagra B.O,Branch Post Office,495115,,LORMI,BILASPUR,CHATTISGARH,BILASPUR,RAIPUR,CHATTISGARH
Lormi S.O,Sub Post Office,495115,07756-253140,LORMI,BILASPUR,CHATTISGARH,BILASPUR,RAIPUR,CHATTISGARH
Nawadih B.O,Branch Post Office,495115,,LORMI,BILASPUR,CHATTISGARH,BILASPUR,RAIPUR,CHATTISGARH
Ramhepur B.O,Branch Post Office,495115,,LORMI,BILASPUR,CHATTISGARH,BILASPUR,RAIPUR,CHATTISGARH
Salheghori B.O,Branch Post Office,495115,,LORMI,BILASPUR,CHATTISGARH,BILASPUR,RAIPUR,CHATTISGARH
Sardha B.O,Branch Post Office,495115,,LORMI,BILASPUR,CHATTISGARH,BILASPUR,RAIPUR,CHATTISGARH
Sukli B.O,Branch Post Office,495115,,LORMI,BILASPUR,CHATTISGARH,BILASPUR,RAIPUR,CHATTISGARH
Surhi B.O,Branch Post Office,495115,,LORMI,BILASPUR,CHATTISGARH,BILASPUR,RAIPUR,CHATTISGARH
Bharari B.O,Branch Post Office,495551,,MASTURI,BILASPUR,CHATTISGARH,BILASPUR,RAIPUR,CHATTISGARH
Bhatchaura B.O,Branch Post Office,495551,,MASTURI,BILASPUR,CHATTISGARH,BILASPUR,RAIPUR,CHATTISGARH
Darrighat B.O,Branch Post Office,495551,,MASTURI,BILASPUR,CHATTISGARH,BILASPUR,RAIPUR,CHATTISGARH
Deogaon B.O,Branch Post Office,495551,,MASTURI,BILASPUR,CHATTISGARH,BILASPUR,RAIPUR,CHATTISGARH
Gondadih B.O,Branch Post Office,495551,,MASTURI,BILASPUR,CHATTISGARH,BILASPUR,RAIPUR,CHATTISGARH
Gopal Nagar S.O,Sub Post Office,495663,07818-233241,MASTURI,BILASPUR,CHATTISGARH,BILASPUR,RAIPUR,CHATTISGARH
Jairam Nagar S.O,Sub Post Office,495550,07752-273621,MASTURI,BILASPUR,CHATTISGARH,BILASPUR,RAIPUR,CHATTISGARH
Jondhra B.O,Branch Post Office,495551,,MASTURI,BILASPUR,CHATTISGARH,BILASPUR,RAIPUR,CHATTISGARH
Koni B.O,Branch Post Office,495551,,MASTURI,BILASPUR,CHATTISGARH,BILASPUR,RAIPUR,CHATTISGARH
Loharsison B.O,Branch Post Office,495551,,MASTURI,BILASPUR,CHATTISGARH,BILASPUR,RAIPUR,CHATTISGARH
Malhar B.O,Branch Post Office,495551,,MASTURI,BILASPUR,CHATTISGARH,BILASPUR,RAIPUR,CHATTISGARH
Manikchauri B.O,Branch Post Office,495551,,MASTURI,BILASPUR,CHATTISGARH,BILASPUR,RAIPUR,CHATTISGARH
Masturi S.O,Sub Post Office,495551,07752-273121,MASTURI,BILASPUR,CHATTISGARH,BILASPUR,RAIPUR,CHATTISGARH
Okhar B.O,Branch Post Office,495551,,MASTURI,BILASPUR,CHATTISGARH,BILASPUR,RAIPUR,CHATTISGARH
Pachpedi B.O,Branch Post Office,495551,,MASTURI,BILASPUR,CHATTISGARH,BILASPUR,RAIPUR,CHATTISGARH
Risda B.O,Branch Post Office,495551,,MASTURI,BILASPUR,CHATTISGARH,BILASPUR,RAIPUR,CHATTISGARH
Son B.O,Branch Post Office,495551,,MASTURI,BILASPUR,CHATTISGARH,BILASPUR,RAIPUR,CHATTISGARH
Sukulkari B.O,Branch Post Office,495551,,MASTURI,BILASPUR,CHATTISGARH,BILASPUR,RAIPUR,CHATTISGARH
Tikari B.O,Branch Post Office,495551,,MASTURI,BILASPUR,CHATTISGARH,BILASPUR,RAIPUR,CHATTISGARH
Banki B.O,Branch Post Office,495334,,MUNGELI,BILASPUR,CHATTISGARH,BILASPUR,RAIPUR,CHATTISGARH
Bhalapur B.O,Branch Post Office,495334,,MUNGELI,BILASPUR,CHATTISGARH,BILASPUR,RAIPUR,CHATTISGARH
Bhalukhondhra B.O,Branch Post Office,495334,,MUNGELI,BILASPUR,CHATTISGARH,BILASPUR,RAIPUR,CHATTISGARH
Bijatarai B.O,Branch Post Office,495334,,MUNGELI,BILASPUR,CHATTISGARH,BILASPUR,RAIPUR,CHATTISGARH
Chakrabhatha B.O,Branch Post Office,495334,,MUNGELI,BILASPUR,CHATTISGARH,BILASPUR,RAIPUR,CHATTISGARH
Chhatan B.O,Branch Post Office,495334,,MUNGELI,BILASPUR,CHATTISGARH,BILASPUR,RAIPUR,CHATTISGARH
Chhindbhog B.O,Branch Post Office,495334,,MUNGELI,BILASPUR,CHATTISGARH,BILASPUR,RAIPUR,CHATTISGARH
Chirhula B.O,Branch Post Office,495334,,MUNGELI,BILASPUR,CHATTISGARH,BILASPUR,RAIPUR,CHATTISGARH
Deori B.O,Branch Post Office,495334,,MUNGELI,BILASPUR,CHATTISGARH,BILASPUR,RAIPUR,CHATTISGARH
Dharampura B.O,Branch Post Office,495334,,MUNGELI,BILASPUR,CHATTISGARH,BILASPUR,RAIPUR,CHATTISGARH
Donda B.O,Branch Post Office,495334,,MUNGELI,BILASPUR,CHATTISGARH,BILASPUR,RAIPUR,CHATTISGARH
Fasterpur B.O,Branch Post Office,495334,,MUNGELI,BILASPUR,CHATTISGARH,BILASPUR,RAIPUR,CHATTISGARH
Gidha B.O,Branch Post Office,495334,,MUNGELI,BILASPUR,CHATTISGARH,BILASPUR,RAIPUR,CHATTISGARH
Kanteli B.O,Branch Post Office,495334,,MUNGELI,BILASPUR,CHATTISGARH,BILASPUR,RAIPUR,CHATTISGARH
Karesara B.O,Branch Post Office,495334,,MUNGELI,BILASPUR,CHATTISGARH,BILASPUR,RAIPUR,CHATTISGARH
Karhi B.O,Branch Post Office,495334,,MUNGELI,BILASPUR,CHATTISGARH,BILASPUR,RAIPUR,CHATTISGARH
Khairwar B.O,Branch Post Office,495334,,MUNGELI,BILASPUR,CHATTISGARH,BILASPUR,RAIPUR,CHATTISGARH
Kodwa B.O,Branch Post Office,495334,,MUNGELI,BILASPUR,CHATTISGARH,BILASPUR,RAIPUR,CHATTISGARH
Kosamtara B.O,Branch Post Office,495334,,MUNGELI,BILASPUR,CHATTISGARH,BILASPUR,RAIPUR,CHATTISGARH
Lalpur B.O,Branch Post Office,495334,,MUNGELI,BILASPUR,CHATTISGARH,BILASPUR,RAIPUR,CHATTISGARH
Manoharpur B.O,Branch Post Office,495334,,MUNGELI,BILASPUR,CHATTISGARH,BILASPUR,RAIPUR,CHATTISGARH
Mungeli S.O,Sub Post Office,495334,07755-264001,MUNGELI,BILASPUR,CHATTISGARH,BILASPUR,RAIPUR,CHATTISGARH
Nawagaon B.O,Branch Post Office,495334,,MUNGELI,BILASPUR,CHATTISGARH,BILASPUR,RAIPUR,CHATTISGARH
Nawaspur B.O,Branch Post Office,495334,,MUNGELI,BILASPUR,CHATTISGARH,BILASPUR,RAIPUR,CHATTISGARH
Nirjam B.O,Branch Post Office,495334,,MUNGELI,BILASPUR,CHATTISGARH,BILASPUR,RAIPUR,CHATTISGARH
Pandarbhattha B.O,Branch Post Office,495334,,MUNGELI,BILASPUR,CHATTISGARH,BILASPUR,RAIPUR,CHATTISGARH
Patharia S.O,Sub Post Office,495335,07755-289726,MUNGELI,BILASPUR,CHATTISGARH,BILASPUR,RAIPUR,CHATTISGARH
Phandwani B.O,Branch Post Office,495334,,MUNGELI,BILASPUR,CHATTISGARH,BILASPUR,RAIPUR,CHATTISGARH
Puran B.O,Branch Post Office,495334,,MUNGELI,BILASPUR,CHATTISGARH,BILASPUR,RAIPUR,CHATTISGARH
Rajpur (S) B.O,Branch Post Office,495334,,MUNGELI,BILASPUR,CHATTISGARH,BILASPUR,RAIPUR,CHATTISGARH
Terhadhaura B.O,Branch Post Office,495334,,MUNGELI,BILASPUR,CHATTISGARH,BILASPUR,RAIPUR,CHATTISGARH
Badrabukhari B.O,Branch Post Office,495335,,PATHARIA,BILASPUR,CHATTISGARH,BILASPUR,RAIPUR,CHATTISGARH
Bhatgaon B.O,Branch Post Office,495335,,PATHARIA,BILASPUR,CHATTISGARH,BILASPUR,RAIPUR,CHATTISGARH
Goindri B.O,Branch Post Office,495335,,PATHARIA,BILASPUR,CHATTISGARH,BILASPUR,RAIPUR,CHATTISGARH
Jareli B.O,Branch Post Office,495335,,PATHARIA,BILASPUR,CHATTISGARH,BILASPUR,RAIPUR,CHATTISGARH
Kukusda B.O,Branch Post Office,495335,,PATHARIA,BILASPUR,CHATTISGARH,BILASPUR,RAIPUR,CHATTISGARH
Lauda B.O,Branch Post Office,495335,,PATHARIA,BILASPUR,CHATTISGARH,BILASPUR,RAIPUR,CHATTISGARH
Pandiyain B.O,Branch Post Office,495335,,PATHARIA,BILASPUR,CHATTISGARH,BILASPUR,RAIPUR,CHATTISGARH
Puchheli B.O,Branch Post Office,495335,,PATHARIA,BILASPUR,CHATTISGARH,BILASPUR,RAIPUR,CHATTISGARH
Sildaha B.O,Branch Post Office,495335,,PATHARIA,BILASPUR,CHATTISGARH,BILASPUR,RAIPUR,CHATTISGARH
Siltara B.O,Branch Post Office,495335,,PATHARIA,BILASPUR,CHATTISGARH,BILASPUR,RAIPUR,CHATTISGARH
Sonthi (M) B.O,Branch Post Office,495335,,PATHARIA,BILASPUR,CHATTISGARH,BILASPUR,RAIPUR,CHATTISGARH
Amadand B.O,Branch Post Office,495119,,PENDRA,BILASPUR,CHATTISGARH,BILASPUR,RAIPUR,CHATTISGARH
Amarpur B.O,Branch Post Office,495119,,PENDRA,BILASPUR,CHATTISGARH,BILASPUR,RAIPUR,CHATTISGARH
Amaru B.O,Branch Post Office,495119,,PENDRA,BILASPUR,CHATTISGARH,BILASPUR,RAIPUR,CHATTISGARH
Andi B.O,Branch Post Office,495119,,PENDRA,BILASPUR,CHATTISGARH,BILASPUR,RAIPUR,CHATTISGARH
Bacharwar B.O,Branch Post Office,495119,,PENDRA,BILASPUR,CHATTISGARH,BILASPUR,RAIPUR,CHATTISGARH
Bagadi B.O,Branch Post Office,495119,,PENDRA,BILASPUR,CHATTISGARH,BILASPUR,RAIPUR,CHATTISGARH
Basti Bagra B.O,Branch Post Office,495119,,PENDRA,BILASPUR,CHATTISGARH,BILASPUR,RAIPUR,CHATTISGARH
Dhobhar B.O,Branch Post Office,495119,,PENDRA,BILASPUR,CHATTISGARH,BILASPUR,RAIPUR,CHATTISGARH
Dongaria B.O,Branch Post Office,495119,,PENDRA,BILASPUR,CHATTISGARH,BILASPUR,RAIPUR,CHATTISGARH
Karri B.O,Branch Post Office,495119,,PENDRA,BILASPUR,CHATTISGARH,BILASPUR,RAIPUR,CHATTISGARH
Kotgar B.O,Branch Post Office,495119,,PENDRA,BILASPUR,CHATTISGARH,BILASPUR,RAIPUR,CHATTISGARH
Kotmi B.O,Branch Post Office,495119,,PENDRA,BILASPUR,CHATTISGARH,BILASPUR,RAIPUR,CHATTISGARH
Kudkai B.O,Branch Post Office,495119,,PENDRA,BILASPUR,CHATTISGARH,BILASPUR,RAIPUR,CHATTISGARH
Kudri B.O,Branch Post Office,495119,,PENDRA,BILASPUR,CHATTISGARH,BILASPUR,RAIPUR,CHATTISGARH
Lainga B.O,Branch Post Office,495119,,PENDRA,BILASPUR,CHATTISGARH,BILASPUR,RAIPUR,CHATTISGARH
Nawagaon B.O,Branch Post Office,495119,,PENDRA,BILASPUR,CHATTISGARH,BILASPUR,RAIPUR,CHATTISGARH
Nimdha B.O,Branch Post Office,495119,,PENDRA,BILASPUR,CHATTISGARH,BILASPUR,RAIPUR,CHATTISGARH
Pasan B.O,Branch Post Office,495119,,PENDRA,BILASPUR,CHATTISGARH,BILASPUR,RAIPUR,CHATTISGARH
Patgawan B.O,Branch Post Office,495119,,PENDRA,BILASPUR,CHATTISGARH,BILASPUR,RAIPUR,CHATTISGARH
Piparia B.O,Branch Post Office,495119,,PENDRA,BILASPUR,CHATTISGARH,BILASPUR,RAIPUR,CHATTISGARH
Pondikala B.O,Branch Post Office,495119,,PENDRA,BILASPUR,CHATTISGARH,BILASPUR,RAIPUR,CHATTISGARH
Putipakhna B.O,Branch Post Office,495119,,PENDRA,BILASPUR,CHATTISGARH,BILASPUR,RAIPUR,CHATTISGARH
Semra B.O,Branch Post Office,495119,,PENDRA,BILASPUR,CHATTISGARH,BILASPUR,RAIPUR,CHATTISGARH
Silpahri B.O,Branch Post Office,495119,,PENDRA,BILASPUR,CHATTISGARH,BILASPUR,RAIPUR,CHATTISGARH
Andhiyarkhoh B.O,Branch Post Office,495117,,PENDRA ROAD,BILASPUR,CHATTISGARH,BILASPUR,RAIPUR,CHATTISGARH
Darri B.O,Branch Post Office,495117,,PENDRA ROAD,BILASPUR,CHATTISGARH,BILASPUR,RAIPUR,CHATTISGARH
Marwahi S.O,Sub Post Office,495118,07750-252230,PENDRA ROAD,BILASPUR,CHATTISGARH,BILASPUR,RAIPUR,CHATTISGARH
Pendra Road R.S. S.O,Sub Post Office,495117,07751-220641,PENDRA ROAD,BILASPUR,CHATTISGARH,BILASPUR,RAIPUR,CHATTISGARH
Pendra Road S.O,Sub Post Office,495117,07751-220625,PENDRA ROAD,BILASPUR,CHATTISGARH,BILASPUR,RAIPUR,CHATTISGARH
Pendra S.O,Sub Post Office,495119,07751-224320,PENDRA ROAD,BILASPUR,CHATTISGARH,BILASPUR,RAIPUR,CHATTISGARH
Choktipani B.O,Branch Post Office,495117,,PENDRAROAD,BILASPUR,CHATTISGARH,BILASPUR,RAIPUR,CHATTISGARH
Gorakhpur B.O,Branch Post Office,495117,,PENDRAROAD,BILASPUR,CHATTISGARH,BILASPUR,RAIPUR,CHATTISGARH
Jogisar B.O,Branch Post Office,495117,,PENDRAROAD,BILASPUR,CHATTISGARH,BILASPUR,RAIPUR,CHATTISGARH
Keonchi B.O,Branch Post Office,495117,,PENDRAROAD,BILASPUR,CHATTISGARH,BILASPUR,RAIPUR,CHATTISGARH
Khodri B.O,Branch Post Office,495117,,PENDRAROAD,BILASPUR,CHATTISGARH,BILASPUR,RAIPUR,CHATTISGARH
Korja B.O,Branch Post Office,495117,,PENDRAROAD,BILASPUR,CHATTISGARH,BILASPUR,RAIPUR,CHATTISGARH
Lalpur B.O,Branch Post Office,495117,,PENDRAROAD,BILASPUR,CHATTISGARH,BILASPUR,RAIPUR,CHATTISGARH
Neosa B.O,Branch Post Office,495117,,PENDRAROAD,BILASPUR,CHATTISGARH,BILASPUR,RAIPUR,CHATTISGARH
Pakaria B.O,Branch Post Office,495117,,PENDRAROAD,BILASPUR,CHATTISGARH,BILASPUR,RAIPUR,CHATTISGARH
Pendra Road Sanotorium B.O,Branch Post Office,495117,,PENDRAROAD,BILASPUR,CHATTISGARH,BILASPUR,RAIPUR,CHATTISGARH
Piparkhunti B.O,Branch Post Office,495117,,PENDRAROAD,BILASPUR,CHATTISGARH,BILASPUR,RAIPUR,CHATTISGARH
Sadhwani B.O,Branch Post Office,495117,,PENDRAROAD,BILASPUR,CHATTISGARH,BILASPUR,RAIPUR,CHATTISGARH
Chapora B.O,Branch Post Office,495442,,RATANPUR,BILASPUR,CHATTISGARH,BILASPUR,RAIPUR,CHATTISGARH
Garwat B.O,Branch Post Office,495442,,RATANPUR,BILASPUR,CHATTISGARH,BILASPUR,RAIPUR,CHATTISGARH
Khaira B.O,Branch Post Office,495442,,RATANPUR,BILASPUR,CHATTISGARH,BILASPUR,RAIPUR,CHATTISGARH
Lakhram B.O,Branch Post Office,495442,,RATANPUR,BILASPUR,CHATTISGARH,BILASPUR,RAIPUR,CHATTISGARH
Mohda B.O,Branch Post Office,495442,,RATANPUR,BILASPUR,CHATTISGARH,BILASPUR,RAIPUR,CHATTISGARH
Pondi B.O,Branch Post Office,495442,,RATANPUR,BILASPUR,CHATTISGARH,BILASPUR,RAIPUR,CHATTISGARH
Ranigaon B.O,Branch Post Office,495442,,RATANPUR,BILASPUR,CHATTISGARH,BILASPUR,RAIPUR,CHATTISGARH
Ratanpur S.O,Sub Post Office,495442,07753-255531,RATANPUR,BILASPUR,CHATTISGARH,BILASPUR,RAIPUR,CHATTISGARH
Sarwandeori B.O,Branch Post Office,495442,,RATANPUR,BILASPUR,CHATTISGARH,BILASPUR,RAIPUR,CHATTISGARH
Selar B.O,Branch Post Office,495442,,RATANPUR,BILASPUR,CHATTISGARH,BILASPUR,RAIPUR,CHATTISGARH
Silli B.O,Branch Post Office,495442,,RATANPUR,BILASPUR,CHATTISGARH,BILASPUR,RAIPUR,CHATTISGARH
Singhri B.O,Branch Post Office,495442,,RATANPUR,BILASPUR,CHATTISGARH,BILASPUR,RAIPUR,CHATTISGARH
Seepat B.O,Branch Post Office,495006,,SEEPAT,BILASPUR,CHATTISGARH,BILASPUR,RAIPUR,CHATTISGARH
Amora B.O,Branch Post Office,495330,,TAKHATPUR,BILASPUR,CHATTISGARH,BILASPUR,RAIPUR,CHATTISGARH
Barela B.O,Branch Post Office,495330,,TAKHATPUR,BILASPUR,CHATTISGARH,BILASPUR,RAIPUR,CHATTISGARH
Belsari B.O,Branch Post Office,495330,,TAKHATPUR,BILASPUR,CHATTISGARH,BILASPUR,RAIPUR,CHATTISGARH
Birgaon B.O,Branch Post Office,495330,,TAKHATPUR,BILASPUR,CHATTISGARH,BILASPUR,RAIPUR,CHATTISGARH
Dashrangpur B.O,Branch Post Office,495330,,TAKHATPUR,BILASPUR,CHATTISGARH,BILASPUR,RAIPUR,CHATTISGARH
Dhandhan B.O,Branch Post Office,495330,,TAKHATPUR,BILASPUR,CHATTISGARH,BILASPUR,RAIPUR,CHATTISGARH
Dhangaongosai B.O,Branch Post Office,495330,,TAKHATPUR,BILASPUR,CHATTISGARH,BILASPUR,RAIPUR,CHATTISGARH
Ganiyari S.O,Sub Post Office,495112,07753-244820,TAKHATPUR,BILASPUR,CHATTISGARH,BILASPUR,RAIPUR,CHATTISGARH
Jarhagaon B.O,Branch Post Office,495330,,TAKHATPUR,BILASPUR,CHATTISGARH,BILASPUR,RAIPUR,CHATTISGARH
Jarondha B.O,Branch Post Office,495330,,TAKHATPUR,BILASPUR,CHATTISGARH,BILASPUR,RAIPUR,CHATTISGARH
Matsagra B.O,Branch Post Office,495330,,TAKHATPUR,BILASPUR,CHATTISGARH,BILASPUR,RAIPUR,CHATTISGARH
Padampur B.O,Branch Post Office,495330,,TAKHATPUR,BILASPUR,CHATTISGARH,BILASPUR,RAIPUR,CHATTISGARH
Pharhada B.O,Branch Post Office,495330,,TAKHATPUR,BILASPUR,CHATTISGARH,BILASPUR,RAIPUR,CHATTISGARH
Pura B.O,Branch Post Office,495330,,TAKHATPUR,BILASPUR,CHATTISGARH,BILASPUR,RAIPUR,CHATTISGARH
Rajpur B.O,Branch Post Office,495330,,TAKHATPUR,BILASPUR,CHATTISGARH,BILASPUR,RAIPUR,CHATTISGARH
Semarsal B.O,Branch Post Office,495330,,TAKHATPUR,BILASPUR,CHATTISGARH,BILASPUR,RAIPUR,CHATTISGARH
Siltara B.O,Branch Post Office,495330,,TAKHATPUR,BILASPUR,CHATTISGARH,BILASPUR,RAIPUR,CHATTISGARH
Takhatpur S.O,Sub Post Office,495330,07753-264639,TAKHATPUR,BILASPUR,CHATTISGARH,BILASPUR,RAIPUR,CHATTISGARH
Modakpal B.O,Branch Post Office,494448,,BHOPALPATNAM,DANTEWADA,CHATTISGARH,BASTAR,RAIPUR,CHATTISGARH
Balood B.O,Branch Post Office,494449,,DANTAEWADA,DANTEWADA,CHATTISGARH,BASTAR,RAIPUR,CHATTISGARH
Bagmundi Panera B.O,Branch Post Office,494441,,DANTEAWADA,DANTEWADA,CHATTISGARH,BASTAR,RAIPUR,CHATTISGARH
Aranpur B.O,Branch Post Office,494556,,DANTEWADA,DANTEWADA,CHATTISGARH,BASTAR,RAIPUR,CHATTISGARH
Bache R.S. B.O,Branch Post Office,494553,,DANTEWADA,DANTEWADA,CHATTISGARH,BASTAR,RAIPUR,CHATTISGARH
Bacheli S.O,Sub Post Office,494553,07857-230330,DANTEWADA,DANTEWADA,CHATTISGARH,BASTAR,RAIPUR,CHATTISGARH
Badebedma B.O,Branch Post Office,494552,,DANTEWADA,DANTEWADA,CHATTISGARH,BASTAR,RAIPUR,CHATTISGARH
Badegudra B.O,Branch Post Office,494552,,DANTEWADA,DANTEWADA,CHATTISGARH,BASTAR,RAIPUR,CHATTISGARH
Badelakhapal B.O,Branch Post Office,494552,,DANTEWADA,DANTEWADA,CHATTISGARH,BASTAR,RAIPUR,CHATTISGARH
Balpet B.O,Branch Post Office,494449,,DANTEWADA,DANTEWADA,CHATTISGARH,BASTAR,RAIPUR,CHATTISGARH
Bangali Camp B.O,Branch Post Office,494556,,DANTEWADA,DANTEWADA,CHATTISGARH,BASTAR,RAIPUR,CHATTISGARH
Barsoor B.O,Branch Post Office,494441,,DANTEWADA,DANTEWADA,CHATTISGARH,BASTAR,RAIPUR,CHATTISGARH
Belnar B.O,Branch Post Office,494441,,DANTEWADA,DANTEWADA,CHATTISGARH,BASTAR,RAIPUR,CHATTISGARH
Bhansi S.O,Sub Post Office,494551,07857-261221,DANTEWADA,DANTEWADA,CHATTISGARH,BASTAR,RAIPUR,CHATTISGARH
Bhusaras B.O,Branch Post Office,494552,,DANTEWADA,DANTEWADA,CHATTISGARH,BASTAR,RAIPUR,CHATTISGARH
Burgum B.O,Branch Post Office,494556,,DANTEWADA,DANTEWADA,CHATTISGARH,BASTAR,RAIPUR,CHATTISGARH
Chhindnar B.O,Branch Post Office,494441,,DANTEWADA,DANTEWADA,CHATTISGARH,BASTAR,RAIPUR,CHATTISGARH
Chhotetumnar B.O,Branch Post Office,494441,,DANTEWADA,DANTEWADA,CHATTISGARH,BASTAR,RAIPUR,CHATTISGARH
Dabpal B.O,Branch Post Office,494449,,DANTEWADA,DANTEWADA,CHATTISGARH,BASTAR,RAIPUR,CHATTISGARH
Dantewada S.O,Sub Post Office,494449,07856-252220,DANTEWADA,DANTEWADA,CHATTISGARH,BASTAR,RAIPUR,CHATTISGARH
Dugeli B.O,Branch Post Office,494553,,DANTEWADA,DANTEWADA,CHATTISGARH,BASTAR,RAIPUR,CHATTISGARH
Gadapal B.O,Branch Post Office,494552,,DANTEWADA,DANTEWADA,CHATTISGARH,BASTAR,RAIPUR,CHATTISGARH
Gadmiri B.O,Branch Post Office,494552,,DANTEWADA,DANTEWADA,CHATTISGARH,BASTAR,RAIPUR,CHATTISGARH
Gamawada B.O,Branch Post Office,494551,,DANTEWADA,DANTEWADA,CHATTISGARH,BASTAR,RAIPUR,CHATTISGARH
Geedam S.O,Sub Post Office,494441,07856-244430,DANTEWADA,DANTEWADA,CHATTISGARH,BASTAR,RAIPUR,CHATTISGARH
Ghotpal B.O,Branch Post Office,494441,,DANTEWADA,DANTEWADA,CHATTISGARH,BASTAR,RAIPUR,CHATTISGARH
Gondras B.O,Branch Post Office,494556,,DANTEWADA,DANTEWADA,CHATTISGARH,BASTAR,RAIPUR,CHATTISGARH
Gumda B.O,Branch Post Office,494441,,DANTEWADA,DANTEWADA,CHATTISGARH,BASTAR,RAIPUR,CHATTISGARH
Gumyapal B.O,Branch Post Office,494556,,DANTEWADA,DANTEWADA,CHATTISGARH,BASTAR,RAIPUR,CHATTISGARH
Guphadi B.O,Branch Post Office,494556,,DANTEWADA,DANTEWADA,CHATTISGARH,BASTAR,RAIPUR,CHATTISGARH
Harrakoder B.O,Branch Post Office,494441,,DANTEWADA,DANTEWADA,CHATTISGARH,BASTAR,RAIPUR,CHATTISGARH
Heeranar B.O,Branch Post Office,494441,,DANTEWADA,DANTEWADA,CHATTISGARH,BASTAR,RAIPUR,CHATTISGARH
Jabeli B.O,Branch Post Office,494552,,DANTEWADA,DANTEWADA,CHATTISGARH,BASTAR,RAIPUR,CHATTISGARH
Kamaloor B.O,Branch Post Office,494449,,DANTEWADA,DANTEWADA,CHATTISGARH,BASTAR,RAIPUR,CHATTISGARH
Kanwalnar B.O,Branch Post Office,494449,,DANTEWADA,DANTEWADA,CHATTISGARH,BASTAR,RAIPUR,CHATTISGARH
Karli B.O,Branch Post Office,494441,,DANTEWADA,DANTEWADA,CHATTISGARH,BASTAR,RAIPUR,CHATTISGARH
Katekalyan B.O,Branch Post Office,494449,,DANTEWADA,DANTEWADA,CHATTISGARH,BASTAR,RAIPUR,CHATTISGARH
Kawadgaon B.O,Branch Post Office,494449,,DANTEWADA,DANTEWADA,CHATTISGARH,BASTAR,RAIPUR,CHATTISGARH
Kirandul Hill Top B.O,Branch Post Office,494556,,DANTEWADA,DANTEWADA,CHATTISGARH,BASTAR,RAIPUR,CHATTISGARH
Kirandul R.S. B.O,Branch Post Office,494556,,DANTEWADA,DANTEWADA,CHATTISGARH,BASTAR,RAIPUR,CHATTISGARH
Kirandul S.O,Sub Post Office,494556,07857-255444,DANTEWADA,DANTEWADA,CHATTISGARH,BASTAR,RAIPUR,CHATTISGARH
Kondasawli B.O,Branch Post Office,494556,,DANTEWADA,DANTEWADA,CHATTISGARH,BASTAR,RAIPUR,CHATTISGARH
Korgaon B.O,Branch Post Office,494441,,DANTEWADA,DANTEWADA,CHATTISGARH,BASTAR,RAIPUR,CHATTISGARH
Korlapal B.O,Branch Post Office,494441,,DANTEWADA,DANTEWADA,CHATTISGARH,BASTAR,RAIPUR,CHATTISGARH
Koshalnar B.O,Branch Post Office,494441,,DANTEWADA,DANTEWADA,CHATTISGARH,BASTAR,RAIPUR,CHATTISGARH
Kuakonda B.O,Branch Post Office,494552,,DANTEWADA,DANTEWADA,CHATTISGARH,BASTAR,RAIPUR,CHATTISGARH
Kumharras B.O,Branch Post Office,494551,,DANTEWADA,DANTEWADA,CHATTISGARH,BASTAR,RAIPUR,CHATTISGARH
Kuper B.O,Branch Post Office,494449,,DANTEWADA,DANTEWADA,CHATTISGARH,BASTAR,RAIPUR,CHATTISGARH
Mailawada B.O,Branch Post Office,494552,,DANTEWADA,DANTEWADA,CHATTISGARH,BASTAR,RAIPUR,CHATTISGARH
Masenar B.O,Branch Post Office,494552,,DANTEWADA,DANTEWADA,CHATTISGARH,BASTAR,RAIPUR,CHATTISGARH
Matenar B.O,Branch Post Office,494449,,DANTEWADA,DANTEWADA,CHATTISGARH,BASTAR,RAIPUR,CHATTISGARH
Metapal B.O,Branch Post Office,494449,,DANTEWADA,DANTEWADA,CHATTISGARH,BASTAR,RAIPUR,CHATTISGARH
Mirtur B.O,Branch Post Office,494441,,DANTEWADA,DANTEWADA,CHATTISGARH,BASTAR,RAIPUR,CHATTISGARH
Mokhpal B.O,Branch Post Office,494552,,DANTEWADA,DANTEWADA,CHATTISGARH,BASTAR,RAIPUR,CHATTISGARH
Nakulnar S.O,Sub Post Office,494552,07858-271230,DANTEWADA,DANTEWADA,CHATTISGARH,BASTAR,RAIPUR,CHATTISGARH
Palnar B.O,Branch Post Office,494552,,DANTEWADA,DANTEWADA,CHATTISGARH,BASTAR,RAIPUR,CHATTISGARH
Parcheli B.O,Branch Post Office,494449,,DANTEWADA,DANTEWADA,CHATTISGARH,BASTAR,RAIPUR,CHATTISGARH
Pedka B.O,Branch Post Office,494552,,DANTEWADA,DANTEWADA,CHATTISGARH,BASTAR,RAIPUR,CHATTISGARH
Pharaspal B.O,Branch Post Office,494449,,DANTEWADA,DANTEWADA,CHATTISGARH,BASTAR,RAIPUR,CHATTISGARH
Phulpad B.O,Branch Post Office,494552,,DANTEWADA,DANTEWADA,CHATTISGARH,BASTAR,RAIPUR,CHATTISGARH
Pinkonda B.O,Branch Post Office,494441,,DANTEWADA,DANTEWADA,CHATTISGARH,BASTAR,RAIPUR,CHATTISGARH
Pondoom B.O,Branch Post Office,494449,,DANTEWADA,DANTEWADA,CHATTISGARH,BASTAR,RAIPUR,CHATTISGARH
Potali B.O,Branch Post Office,494556,,DANTEWADA,DANTEWADA,CHATTISGARH,BASTAR,RAIPUR,CHATTISGARH
Ronje B.O,Branch Post Office,494441,,DANTEWADA,DANTEWADA,CHATTISGARH,BASTAR,RAIPUR,CHATTISGARH
Sameli B.O,Branch Post Office,494552,,DANTEWADA,DANTEWADA,CHATTISGARH,BASTAR,RAIPUR,CHATTISGARH
Shivanandashram B.O,Branch Post Office,494441,,DANTEWADA,DANTEWADA,CHATTISGARH,BASTAR,RAIPUR,CHATTISGARH
Shyamgiri B.O,Branch Post Office,494552,,DANTEWADA,DANTEWADA,CHATTISGARH,BASTAR,RAIPUR,CHATTISGARH
Surnar B.O,Branch Post Office,494552,,DANTEWADA,DANTEWADA,CHATTISGARH,BASTAR,RAIPUR,CHATTISGARH
Teknar B.O,Branch Post Office,494449,,DANTEWADA,DANTEWADA,CHATTISGARH,BASTAR,RAIPUR,CHATTISGARH
Telam B.O,Branch Post Office,494552,,DANTEWADA,DANTEWADA,CHATTISGARH,BASTAR,RAIPUR,CHATTISGARH
Tikanpal B.O,Branch Post Office,494552,,DANTEWADA,DANTEWADA,CHATTISGARH,BASTAR,RAIPUR,CHATTISGARH
Kakadi B.O,Branch Post Office,494556,,DANTEWDA,DANTEWADA,CHATTISGARH,BASTAR,RAIPUR,CHATTISGARH
Argatta B.O,Branch Post Office,494122,,KONTA,DANTEWADA,CHATTISGARH,BASTAR,RAIPUR,CHATTISGARH
Badegadam B.O,Branch Post Office,494115,,KONTA,DANTEWADA,CHATTISGARH,BASTAR,RAIPUR,CHATTISGARH
Badesatti B.O,Branch Post Office,494111,,KONTA,DANTEWADA,CHATTISGARH,BASTAR,RAIPUR,CHATTISGARH
Banda B.O,Branch Post Office,494114,,KONTA,DANTEWADA,CHATTISGARH,BASTAR,RAIPUR,CHATTISGARH
Bheji B.O,Branch Post Office,494114,,KONTA,DANTEWADA,CHATTISGARH,BASTAR,RAIPUR,CHATTISGARH
Chandangiri B.O,Branch Post Office,494115,,KONTA,DANTEWADA,CHATTISGARH,BASTAR,RAIPUR,CHATTISGARH
Chhindgarh B.O,Branch Post Office,494111,,KONTA,DANTEWADA,CHATTISGARH,BASTAR,RAIPUR,CHATTISGARH
Chindawada B.O,Branch Post Office,494115,,KONTA,DANTEWADA,CHATTISGARH,BASTAR,RAIPUR,CHATTISGARH
Chintagupha B.O,Branch Post Office,494122,,KONTA,DANTEWADA,CHATTISGARH,BASTAR,RAIPUR,CHATTISGARH
Chintalnar B.O,Branch Post Office,494122,,KONTA,DANTEWADA,CHATTISGARH,BASTAR,RAIPUR,CHATTISGARH
Darbha B.O,Branch Post Office,494115,,KONTA,DANTEWADA,CHATTISGARH,BASTAR,RAIPUR,CHATTISGARH
Dornapal S.O,Sub Post Office,494122,07866-283520,KONTA,DANTEWADA,CHATTISGARH,BASTAR,RAIPUR,CHATTISGARH
Dubbatota B.O,Branch Post Office,494122,,KONTA,DANTEWADA,CHATTISGARH,BASTAR,RAIPUR,CHATTISGARH
Errabore B.O,Branch Post Office,494114,,KONTA,DANTEWADA,CHATTISGARH,BASTAR,RAIPUR,CHATTISGARH
Gaganpalli B.O,Branch Post Office,494114,,KONTA,DANTEWADA,CHATTISGARH,BASTAR,RAIPUR,CHATTISGARH
Gogunda B.O,Branch Post Office,494122,,KONTA,DANTEWADA,CHATTISGARH,BASTAR,RAIPUR,CHATTISGARH
Gollapalli B.O,Branch Post Office,494114,,KONTA,DANTEWADA,CHATTISGARH,BASTAR,RAIPUR,CHATTISGARH
Gondpalli B.O,Branch Post Office,494122,,KONTA,DANTEWADA,CHATTISGARH,BASTAR,RAIPUR,CHATTISGARH
Gorli B.O,Branch Post Office,494115,,KONTA,DANTEWADA,CHATTISGARH,BASTAR,RAIPUR,CHATTISGARH
Hameergarh B.O,Branch Post Office,494115,,KONTA,DANTEWADA,CHATTISGARH,BASTAR,RAIPUR,CHATTISGARH
Idjepal B.O,Branch Post Office,494115,,KONTA,DANTEWADA,CHATTISGARH,BASTAR,RAIPUR,CHATTISGARH
Injeram B.O,Branch Post Office,494114,,KONTA,DANTEWADA,CHATTISGARH,BASTAR,RAIPUR,CHATTISGARH
Jagargunda B.O,Branch Post Office,494122,,KONTA,DANTEWADA,CHATTISGARH,BASTAR,RAIPUR,CHATTISGARH
Jeerampal B.O,Branch Post Office,494111,,KONTA,DANTEWADA,CHATTISGARH,BASTAR,RAIPUR,CHATTISGARH
Jhapra B.O,Branch Post Office,494111,,KONTA,DANTEWADA,CHATTISGARH,BASTAR,RAIPUR,CHATTISGARH
Kanjipani B.O,Branch Post Office,494111,,KONTA,DANTEWADA,CHATTISGARH,BASTAR,RAIPUR,CHATTISGARH
Kerlapal B.O,Branch Post Office,494122,,KONTA,DANTEWADA,CHATTISGARH,BASTAR,RAIPUR,CHATTISGARH
Kikirpal B.O,Branch Post Office,494115,,KONTA,DANTEWADA,CHATTISGARH,BASTAR,RAIPUR,CHATTISGARH
Kistaram B.O,Branch Post Office,494114,,KONTA,DANTEWADA,CHATTISGARH,BASTAR,RAIPUR,CHATTISGARH
Kodripal B.O,Branch Post Office,494111,,KONTA,DANTEWADA,CHATTISGARH,BASTAR,RAIPUR,CHATTISGARH
Kokawada B.O,Branch Post Office,494115,,KONTA,DANTEWADA,CHATTISGARH,BASTAR,RAIPUR,CHATTISGARH
Koleng B.O,Branch Post Office,494115,,KONTA,DANTEWADA,CHATTISGARH,BASTAR,RAIPUR,CHATTISGARH
Konta S.O,Sub Post Office,494114,07866-261630,KONTA,DANTEWADA,CHATTISGARH,BASTAR,RAIPUR,CHATTISGARH
Korra B.O,Branch Post Office,494111,,KONTA,DANTEWADA,CHATTISGARH,BASTAR,RAIPUR,CHATTISGARH
Kukanar B.O,Branch Post Office,494115,,KONTA,DANTEWADA,CHATTISGARH,BASTAR,RAIPUR,CHATTISGARH
Kundanpal B.O,Branch Post Office,494115,,KONTA,DANTEWADA,CHATTISGARH,BASTAR,RAIPUR,CHATTISGARH
Kunna B.O,Branch Post Office,494115,,KONTA,DANTEWADA,CHATTISGARH,BASTAR,RAIPUR,CHATTISGARH
Leda B.O,Branch Post Office,494115,,KONTA,DANTEWADA,CHATTISGARH,BASTAR,RAIPUR,CHATTISGARH
Mehta B.O,Branch Post Office,494114,,KONTA,DANTEWADA,CHATTISGARH,BASTAR,RAIPUR,CHATTISGARH
Michwar B.O,Branch Post Office,494115,,KONTA,DANTEWADA,CHATTISGARH,BASTAR,RAIPUR,CHATTISGARH
Misma B.O,Branch Post Office,494122,,KONTA,DANTEWADA,CHATTISGARH,BASTAR,RAIPUR,CHATTISGARH
Nagaram B.O,Branch Post Office,494122,,KONTA,DANTEWADA,CHATTISGARH,BASTAR,RAIPUR,CHATTISGARH
Pakela B.O,Branch Post Office,494111,,KONTA,DANTEWADA,CHATTISGARH,BASTAR,RAIPUR,CHATTISGARH
Pakhnar B.O,Branch Post Office,494115,,KONTA,DANTEWADA,CHATTISGARH,BASTAR,RAIPUR,CHATTISGARH
Pendalnar B.O,Branch Post Office,494115,,KONTA,DANTEWADA,CHATTISGARH,BASTAR,RAIPUR,CHATTISGARH
Polampalli B.O,Branch Post Office,494122,,KONTA,DANTEWADA,CHATTISGARH,BASTAR,RAIPUR,CHATTISGARH
Pondum B.O,Branch Post Office,494111,,KONTA,DANTEWADA,CHATTISGARH,BASTAR,RAIPUR,CHATTISGARH
Pongabheji B.O,Branch Post Office,494122,,KONTA,DANTEWADA,CHATTISGARH,BASTAR,RAIPUR,CHATTISGARH
Puspal B.O,Branch Post Office,494115,,KONTA,DANTEWADA,CHATTISGARH,BASTAR,RAIPUR,CHATTISGARH
Ramaram B.O,Branch Post Office,494111,,KONTA,DANTEWADA,CHATTISGARH,BASTAR,RAIPUR,CHATTISGARH
Rokel B.O,Branch Post Office,494111,,KONTA,DANTEWADA,CHATTISGARH,BASTAR,RAIPUR,CHATTISGARH
Sautnar B.O,Branch Post Office,494115,,KONTA,DANTEWADA,CHATTISGARH,BASTAR,RAIPUR,CHATTISGARH
Sirsitti B.O,Branch Post Office,494122,,KONTA,DANTEWADA,CHATTISGARH,BASTAR,RAIPUR,CHATTISGARH
Sonakuknar B.O,Branch Post Office,494111,,KONTA,DANTEWADA,CHATTISGARH,BASTAR,RAIPUR,CHATTISGARH
Sukma S.O,Sub Post Office,494111,07864-284244,KONTA,DANTEWADA,CHATTISGARH,BASTAR,RAIPUR,CHATTISGARH
Talnar B.O,Branch Post Office,494111,,KONTA,DANTEWADA,CHATTISGARH,BASTAR,RAIPUR,CHATTISGARH
Tirathgarh B.O,Branch Post Office,494115,,KONTA,DANTEWADA,CHATTISGARH,BASTAR,RAIPUR,CHATTISGARH
Tongpal S.O,Sub Post Office,494115,07863-286424,KONTA,DANTEWADA,CHATTISGARH,BASTAR,RAIPUR,CHATTISGARH
Urmapal B.O,Branch Post Office,494111,,KONTA,DANTEWADA,CHATTISGARH,BASTAR,RAIPUR,CHATTISGARH
Bahigaon B.O,Branch Post Office,493778,,.,DHAMTARI,CHATTISGARH,RAIPUR,RAIPUR,CHATTISGARH
Ghorawad B.O,Branch Post Office,493778,,.,DHAMTARI,CHATTISGARH,RAIPUR,RAIPUR,CHATTISGARH
Sihawa B.O,Branch Post Office,493778,,.,DHAMTARI,CHATTISGARH,RAIPUR,RAIPUR,CHATTISGARH
Achhota B.O,Branch Post Office,493773,,Dhamtari,DHAMTARI,CHATTISGARH,RAIPUR,RAIPUR,CHATTISGARH
Amdi B.O,Branch Post Office,493773,,Dhamtari,DHAMTARI,CHATTISGARH,RAIPUR,RAIPUR,CHATTISGARH
Anwari B.O,Branch Post Office,493770,,DHAMTARI,DHAMTARI,CHATTISGARH,RAIPUR,RAIPUR,CHATTISGARH
Aroud B.O,Branch Post Office,493773,,Dhamtari,DHAMTARI,CHATTISGARH,RAIPUR,RAIPUR,CHATTISGARH
Banraud B.O,Branch Post Office,493773,,Dhamtari,DHAMTARI,CHATTISGARH,RAIPUR,RAIPUR,CHATTISGARH
Bazar Kurridih B.O,Branch Post Office,493773,,Dhamtari,DHAMTARI,CHATTISGARH,RAIPUR,RAIPUR,CHATTISGARH
Bhakhara S.O,Sub Post Office,493770,07705-286444,DHAMTARI,DHAMTARI,CHATTISGARH,RAIPUR,RAIPUR,CHATTISGARH
Bhothli B.O,Branch Post Office,493773,,Dhamtari,DHAMTARI,CHATTISGARH,RAIPUR,RAIPUR,CHATTISGARH
Borsi B.O,Branch Post Office,493773,,Dhamtari,DHAMTARI,CHATTISGARH,RAIPUR,RAIPUR,CHATTISGARH
Chanagaon B.O,Branch Post Office,493773,,Dhamtari,DHAMTARI,CHATTISGARH,RAIPUR,RAIPUR,CHATTISGARH
Chhuhi B.O,Branch Post Office,493773,,Dhamtari,DHAMTARI,CHATTISGARH,RAIPUR,RAIPUR,CHATTISGARH
Dahi B.O,Branch Post Office,493770,,DHAMTARI,DHAMTARI,CHATTISGARH,RAIPUR,RAIPUR,CHATTISGARH
Demar B.O,Branch Post Office,493773,,Dhamtari,DHAMTARI,CHATTISGARH,RAIPUR,RAIPUR,CHATTISGARH
Dhamtari D.B.Ward S.O,Sub Post Office,493773,,Dhamtari,DHAMTARI,CHATTISGARH,RAIPUR,RAIPUR,CHATTISGARH
Dhamtari I.Ward S.O,Sub Post Office,493773,,Dhamtari,DHAMTARI,CHATTISGARH,RAIPUR,RAIPUR,CHATTISGARH
Dhamtari S.O,Sub Post Office,493773,07722-240610,Dhamtari,DHAMTARI,CHATTISGARH,RAIPUR,RAIPUR,CHATTISGARH
Doma B.O,Branch Post Office,493770,,DHAMTARI,DHAMTARI,CHATTISGARH,RAIPUR,RAIPUR,CHATTISGARH
Dugli B.O,Branch Post Office,493773,,Dhamtari,DHAMTARI,CHATTISGARH,RAIPUR,RAIPUR,CHATTISGARH
G.Jamgoan B.O,Branch Post Office,493770,,DHAMTARI,DHAMTARI,CHATTISGARH,RAIPUR,RAIPUR,CHATTISGARH
Gattasilli B.O,Branch Post Office,493773,,Dhamtari,DHAMTARI,CHATTISGARH,RAIPUR,RAIPUR,CHATTISGARH
Jhuratarai B.O,Branch Post Office,493773,,Dhamtari,DHAMTARI,CHATTISGARH,RAIPUR,RAIPUR,CHATTISGARH
Joratarai B.O,Branch Post Office,493770,,DHAMTARI,DHAMTARI,CHATTISGARH,RAIPUR,RAIPUR,CHATTISGARH
Kachna B.O,Branch Post Office,493770,,DHAMTARI,DHAMTARI,CHATTISGARH,RAIPUR,RAIPUR,CHATTISGARH
Karaiha B.O,Branch Post Office,493773,,Dhamtari,DHAMTARI,CHATTISGARH,RAIPUR,RAIPUR,CHATTISGARH
Keregaon B.O,Branch Post Office,493773,,Dhamtari,DHAMTARI,CHATTISGARH,RAIPUR,RAIPUR,CHATTISGARH
Kharenga B.O,Branch Post Office,493773,,Dhamtari,DHAMTARI,CHATTISGARH,RAIPUR,RAIPUR,CHATTISGARH
Korra B.O,Branch Post Office,493770,,DHAMTARI,DHAMTARI,CHATTISGARH,RAIPUR,RAIPUR,CHATTISGARH
Kosamsara B.O,Branch Post Office,493770,,DHAMTARI,DHAMTARI,CHATTISGARH,RAIPUR,RAIPUR,CHATTISGARH
Kukrel B.O,Branch Post Office,493773,,Dhamtari,DHAMTARI,CHATTISGARH,RAIPUR,RAIPUR,CHATTISGARH
Loharsi B.O,Branch Post Office,493773,,Dhamtari,DHAMTARI,CHATTISGARH,RAIPUR,RAIPUR,CHATTISGARH
Madeli B.O,Branch Post Office,493770,,DHAMTARI,DHAMTARI,CHATTISGARH,RAIPUR,RAIPUR,CHATTISGARH
Potiadih B.O,Branch Post Office,493773,,Dhamtari,DHAMTARI,CHATTISGARH,RAIPUR,RAIPUR,CHATTISGARH
Rampur B.O,Branch Post Office,493770,,DHAMTARI,DHAMTARI,CHATTISGARH,RAIPUR,RAIPUR,CHATTISGARH
Rudri S.O,Sub Post Office,493776,07722-237683,Dhamtari,DHAMTARI,CHATTISGARH,RAIPUR,RAIPUR,CHATTISGARH
Sambalpur B.O,Branch Post Office,493773,,Dhamtari,DHAMTARI,CHATTISGARH,RAIPUR,RAIPUR,CHATTISGARH
Semra B.O,Branch Post Office,493770,,DHAMTARI,DHAMTARI,CHATTISGARH,RAIPUR,RAIPUR,CHATTISGARH
Silouti B.O,Branch Post Office,493770,,DHAMTARI,DHAMTARI,CHATTISGARH,RAIPUR,RAIPUR,CHATTISGARH
Singhpur B.O,Branch Post Office,493773,,Dhamtari,DHAMTARI,CHATTISGARH,RAIPUR,RAIPUR,CHATTISGARH
Tarsiwa B.O,Branch Post Office,493773,,Dhamtari,DHAMTARI,CHATTISGARH,RAIPUR,RAIPUR,CHATTISGARH
Achhoti B.O,Branch Post Office,493663,,Kurud,DHAMTARI,CHATTISGARH,RAIPUR,RAIPUR,CHATTISGARH
Bagod B.O,Branch Post Office,493663,,Kurud,DHAMTARI,CHATTISGARH,RAIPUR,RAIPUR,CHATTISGARH
Belardona B.O,Branch Post Office,493663,,Kurud,DHAMTARI,CHATTISGARH,RAIPUR,RAIPUR,CHATTISGARH
Bhaismundi B.O,Branch Post Office,493663,,Kurud,DHAMTARI,CHATTISGARH,RAIPUR,RAIPUR,CHATTISGARH
Bhatagaon B.O,Branch Post Office,493663,,Kurud,DHAMTARI,CHATTISGARH,RAIPUR,RAIPUR,CHATTISGARH
Bhothidih B.O,Branch Post Office,493663,,Kurud,DHAMTARI,CHATTISGARH,RAIPUR,RAIPUR,CHATTISGARH
Birjhuli B.O,Branch Post Office,493663,,Kurud,DHAMTARI,CHATTISGARH,RAIPUR,RAIPUR,CHATTISGARH
Charmudia B.O,Branch Post Office,493663,,Kurud,DHAMTARI,CHATTISGARH,RAIPUR,RAIPUR,CHATTISGARH
Chhati B.O,Branch Post Office,493663,,Kurud,DHAMTARI,CHATTISGARH,RAIPUR,RAIPUR,CHATTISGARH
Dahdaha B.O,Branch Post Office,493663,,Kurud,DHAMTARI,CHATTISGARH,RAIPUR,RAIPUR,CHATTISGARH
Girod B.O,Branch Post Office,493663,,Kurud,DHAMTARI,CHATTISGARH,RAIPUR,RAIPUR,CHATTISGARH
Jhiriya B.O,Branch Post Office,493663,,Kurud,DHAMTARI,CHATTISGARH,RAIPUR,RAIPUR,CHATTISGARH
Kandel B.O,Branch Post Office,493663,,Kurud,DHAMTARI,CHATTISGARH,RAIPUR,RAIPUR,CHATTISGARH
Kareli Chhoti B.O,Branch Post Office,493663,,Kurud,DHAMTARI,CHATTISGARH,RAIPUR,RAIPUR,CHATTISGARH
Katalbod B.O,Branch Post Office,493663,,Kurud,DHAMTARI,CHATTISGARH,RAIPUR,RAIPUR,CHATTISGARH
Kundel B.O,Branch Post Office,493663,,Kurud,DHAMTARI,CHATTISGARH,RAIPUR,RAIPUR,CHATTISGARH
Kurud S.O,Sub Post Office,493663,07705-223144,Kurud,DHAMTARI,CHATTISGARH,RAIPUR,RAIPUR,CHATTISGARH
Magarlod B.O,Branch Post Office,493663,,Kurud,DHAMTARI,CHATTISGARH,RAIPUR,RAIPUR,CHATTISGARH
Mandraud B.O,Branch Post Office,493663,,Kurud,DHAMTARI,CHATTISGARH,RAIPUR,RAIPUR,CHATTISGARH
Marod B.O,Branch Post Office,493663,,Kurud,DHAMTARI,CHATTISGARH,RAIPUR,RAIPUR,CHATTISGARH
Megha B.O,Branch Post Office,493663,,Kurud,DHAMTARI,CHATTISGARH,RAIPUR,RAIPUR,CHATTISGARH
Mohdi B.O,Branch Post Office,493663,,Kurud,DHAMTARI,CHATTISGARH,RAIPUR,RAIPUR,CHATTISGARH
Nari B.O,Branch Post Office,493663,,Kurud,DHAMTARI,CHATTISGARH,RAIPUR,RAIPUR,CHATTISGARH
Parkhanda B.O,Branch Post Office,493663,,Kurud,DHAMTARI,CHATTISGARH,RAIPUR,RAIPUR,CHATTISGARH
Puri B.O,Branch Post Office,493663,,Kurud,DHAMTARI,CHATTISGARH,RAIPUR,RAIPUR,CHATTISGARH
Sankari B.O,Branch Post Office,493663,,Kurud,DHAMTARI,CHATTISGARH,RAIPUR,RAIPUR,CHATTISGARH
Sargi B.O,Branch Post Office,493663,,Kurud,DHAMTARI,CHATTISGARH,RAIPUR,RAIPUR,CHATTISGARH
Seonikala B.O,Branch Post Office,493663,,Kurud,DHAMTARI,CHATTISGARH,RAIPUR,RAIPUR,CHATTISGARH
Sirri B.O,Branch Post Office,493663,,Kurud,DHAMTARI,CHATTISGARH,RAIPUR,RAIPUR,CHATTISGARH
Sankra B.O,Branch Post Office,493778,,Nagir,DHAMTARI,CHATTISGARH,RAIPUR,RAIPUR,CHATTISGARH
Amali B.O,Branch Post Office,493778,,Nagri,DHAMTARI,CHATTISGARH,RAIPUR,RAIPUR,CHATTISGARH
Belar Bahra B.O,Branch Post Office,493778,,Nagri,DHAMTARI,CHATTISGARH,RAIPUR,RAIPUR,CHATTISGARH
Belar Bazar B.O,Branch Post Office,493778,,Nagri,DHAMTARI,CHATTISGARH,RAIPUR,RAIPUR,CHATTISGARH
Bhursidongri B.O,Branch Post Office,493778,,Nagri,DHAMTARI,CHATTISGARH,RAIPUR,RAIPUR,CHATTISGARH
Birgudi B.O,Branch Post Office,493778,,Nagri,DHAMTARI,CHATTISGARH,RAIPUR,RAIPUR,CHATTISGARH
Deopur B.O,Branch Post Office,493778,,Nagri,DHAMTARI,CHATTISGARH,RAIPUR,RAIPUR,CHATTISGARH
Dongardulla B.O,Branch Post Office,493778,,Nagri,DHAMTARI,CHATTISGARH,RAIPUR,RAIPUR,CHATTISGARH
Farsia B.O,Branch Post Office,493778,,Nagri,DHAMTARI,CHATTISGARH,RAIPUR,RAIPUR,CHATTISGARH
Garhdongri B.O,Branch Post Office,493778,,Nagri,DHAMTARI,CHATTISGARH,RAIPUR,RAIPUR,CHATTISGARH
Ghatula B.O,Branch Post Office,493778,,Nagri,DHAMTARI,CHATTISGARH,RAIPUR,RAIPUR,CHATTISGARH
Ghotgaon B.O,Branch Post Office,493778,,Nagri,DHAMTARI,CHATTISGARH,RAIPUR,RAIPUR,CHATTISGARH
Kaspur B.O,Branch Post Office,493778,,Nagri,DHAMTARI,CHATTISGARH,RAIPUR,RAIPUR,CHATTISGARH
Khamaria B.O,Branch Post Office,493778,,Nagri,DHAMTARI,CHATTISGARH,RAIPUR,RAIPUR,CHATTISGARH
Nagri S.O,Sub Post Office,493778,07700-251240,Nagri,DHAMTARI,CHATTISGARH,RAIPUR,RAIPUR,CHATTISGARH
Podagaon B.O,Branch Post Office,493778,,Nagri,DHAMTARI,CHATTISGARH,RAIPUR,RAIPUR,CHATTISGARH
Rajpur B.O,Branch Post Office,493778,,Nagri,DHAMTARI,CHATTISGARH,RAIPUR,RAIPUR,CHATTISGARH
Semra B.O,Branch Post Office,493778,,Nagri,DHAMTARI,CHATTISGARH,RAIPUR,RAIPUR,CHATTISGARH
Sondur Project B.O,Branch Post Office,493778,,Nagri,DHAMTARI,CHATTISGARH,RAIPUR,RAIPUR,CHATTISGARH
Umargaon B.O,Branch Post Office,493778,,Nagri,DHAMTARI,CHATTISGARH,RAIPUR,RAIPUR,CHATTISGARH
Bhatgaon B.O,Branch Post Office,493776,,Rudri,DHAMTARI,CHATTISGARH,RAIPUR,RAIPUR,CHATTISGARH
R.S.P.Colony Gangrel B.O,Branch Post Office,493776,,Rudri,DHAMTARI,CHATTISGARH,RAIPUR,RAIPUR,CHATTISGARH
Bhilai S.O,Sub Post Office,490001,,.,DURG,CHATTISGARH,DURG,RAIPUR,CHATTISGARH
Borsi S.O,Sub Post Office,491001,,.,DURG,CHATTISGARH,DURG,RAIPUR,CHATTISGARH
Admabad B.O,Branch Post Office,491226,,BALOD,DURG,CHATTISGARH,DURG,RAIPUR,CHATTISGARH
Badbhum B.O,Branch Post Office,491226,,BALOD,DURG,CHATTISGARH,DURG,RAIPUR,CHATTISGARH
Baghmara B.O,Branch Post Office,491226,,BALOD,DURG,CHATTISGARH,DURG,RAIPUR,CHATTISGARH
Balod S.O,Sub Post Office,491226,07749-222002,BALOD,DURG,CHATTISGARH,DURG,RAIPUR,CHATTISGARH
Balod Town S.O,Sub Post Office,491226,,BALOD,DURG,CHATTISGARH,DURG,RAIPUR,CHATTISGARH
Baloda B.O,Branch Post Office,491226,,BALOD,DURG,CHATTISGARH,DURG,RAIPUR,CHATTISGARH
Bazar Dallirajhara S.O,Sub Post Office,491228,,BALOD,DURG,CHATTISGARH,DURG,RAIPUR,CHATTISGARH
Belmond B.O,Branch Post Office,491226,,BALOD,DURG,CHATTISGARH,DURG,RAIPUR,CHATTISGARH
Bhaisbod B.O,Branch Post Office,491226,,BALOD,DURG,CHATTISGARH,DURG,RAIPUR,CHATTISGARH
Dallirajhara S.O,Sub Post Office,491228,07748-285744,BALOD,DURG,CHATTISGARH,DURG,RAIPUR,CHATTISGARH
Dudhli B.O,Branch Post Office,491226,,BALOD,DURG,CHATTISGARH,DURG,RAIPUR,CHATTISGARH
Gujra B.O,Branch Post Office,491226,,BALOD,DURG,CHATTISGARH,DURG,RAIPUR,CHATTISGARH
Jamrua B.O,Branch Post Office,491226,,BALOD,DURG,CHATTISGARH,DURG,RAIPUR,CHATTISGARH
Khapri B.O,Branch Post Office,491226,,BALOD,DURG,CHATTISGARH,DURG,RAIPUR,CHATTISGARH
Khobha B.O,Branch Post Office,491226,,BALOD,DURG,CHATTISGARH,DURG,RAIPUR,CHATTISGARH
Latabod B.O,Branch Post Office,491226,,BALOD,DURG,CHATTISGARH,DURG,RAIPUR,CHATTISGARH
Newarikala B.O,Branch Post Office,491226,,BALOD,DURG,CHATTISGARH,DURG,RAIPUR,CHATTISGARH
Pond B.O,Branch Post Office,491226,,BALOD,DURG,CHATTISGARH,DURG,RAIPUR,CHATTISGARH
Sankra J B.O,Branch Post Office,491226,,BALOD,DURG,CHATTISGARH,DURG,RAIPUR,CHATTISGARH
Singhola B.O,Branch Post Office,491226,,BALOD,DURG,CHATTISGARH,DURG,RAIPUR,CHATTISGARH
Taraud B.O,Branch Post Office,491226,,BALOD,DURG,CHATTISGARH,DURG,RAIPUR,CHATTISGARH
Tekapar B.O,Branch Post Office,491226,,BALOD,DURG,CHATTISGARH,DURG,RAIPUR,CHATTISGARH
Baba Mohtara B.O,Branch Post Office,491335,,BEMETARA,DURG,CHATTISGARH,DURG,RAIPUR,CHATTISGARH
Balsamund B.O,Branch Post Office,491335,,BEMETARA,DURG,CHATTISGARH,DURG,RAIPUR,CHATTISGARH
Bemetara S.O,Sub Post Office,491335,07824-222244,BEMETARA,DURG,CHATTISGARH,DURG,RAIPUR,CHATTISGARH
Bijabhat B.O,Branch Post Office,491335,,BEMETARA,DURG,CHATTISGARH,DURG,RAIPUR,CHATTISGARH
Chandanu B.O,Branch Post Office,491335,,BEMETARA,DURG,CHATTISGARH,DURG,RAIPUR,CHATTISGARH
Dadhi B.O,Branch Post Office,491335,,BEMETARA,DURG,CHATTISGARH,DURG,RAIPUR,CHATTISGARH
Jeora B.O,Branch Post Office,491335,,BEMETARA,DURG,CHATTISGARH,DURG,RAIPUR,CHATTISGARH
Jhal B.O,Branch Post Office,491335,,BEMETARA,DURG,CHATTISGARH,DURG,RAIPUR,CHATTISGARH
Kanhera B.O,Branch Post Office,491335,,BEMETARA,DURG,CHATTISGARH,DURG,RAIPUR,CHATTISGARH
Karesara B.O,Branch Post Office,491335,,BEMETARA,DURG,CHATTISGARH,DURG,RAIPUR,CHATTISGARH
Khandsara B.O,Branch Post Office,491335,,BEMETARA,DURG,CHATTISGARH,DURG,RAIPUR,CHATTISGARH
Kurda B.O,Branch Post Office,491335,,BEMETARA,DURG,CHATTISGARH,DURG,RAIPUR,CHATTISGARH
Matka B.O,Branch Post Office,491335,,BEMETARA,DURG,CHATTISGARH,DURG,RAIPUR,CHATTISGARH
Mohrenga B.O,Branch Post Office,491335,,BEMETARA,DURG,CHATTISGARH,DURG,RAIPUR,CHATTISGARH
Ninwa B.O,Branch Post Office,491335,,BEMETARA,DURG,CHATTISGARH,DURG,RAIPUR,CHATTISGARH
Odia B.O,Branch Post Office,491335,,BEMETARA,DURG,CHATTISGARH,DURG,RAIPUR,CHATTISGARH
Pendritarai B.O,Branch Post Office,491335,,BEMETARA,DURG,CHATTISGARH,DURG,RAIPUR,CHATTISGARH
Ranka B.O,Branch Post Office,491335,,BEMETARA,DURG,CHATTISGARH,DURG,RAIPUR,CHATTISGARH
Thengabhat B.O,Branch Post Office,491335,,BEMETARA,DURG,CHATTISGARH,DURG,RAIPUR,CHATTISGARH
Anandgaon B.O,Branch Post Office,491332,,BERLA,DURG,CHATTISGARH,DURG,RAIPUR,CHATTISGARH
Bargaon B.O,Branch Post Office,491332,,BERLA,DURG,CHATTISGARH,DURG,RAIPUR,CHATTISGARH
Berla S.O,Sub Post Office,491332,07825-287640,BERLA,DURG,CHATTISGARH,DURG,RAIPUR,CHATTISGARH
Biroda B.O,Branch Post Office,491332,,BERLA,DURG,CHATTISGARH,DURG,RAIPUR,CHATTISGARH
Dargaon B.O,Branch Post Office,491332,,BERLA,DURG,CHATTISGARH,DURG,RAIPUR,CHATTISGARH
K.Mohrenga B.O,Branch Post Office,491332,,BERLA,DURG,CHATTISGARH,DURG,RAIPUR,CHATTISGARH
Khudmuda B.O,Branch Post Office,491332,,BERLA,DURG,CHATTISGARH,DURG,RAIPUR,CHATTISGARH
Kusmi B.O,Branch Post Office,491332,,BERLA,DURG,CHATTISGARH,DURG,RAIPUR,CHATTISGARH
Lawatara B.O,Branch Post Office,491332,,BERLA,DURG,CHATTISGARH,DURG,RAIPUR,CHATTISGARH
Lenjwara B.O,Branch Post Office,491332,,BERLA,DURG,CHATTISGARH,DURG,RAIPUR,CHATTISGARH
Pahanda B.O,Branch Post Office,491332,,BERLA,DURG,CHATTISGARH,DURG,RAIPUR,CHATTISGARH
Patora B.O,Branch Post Office,491332,,BERLA,DURG,CHATTISGARH,DURG,RAIPUR,CHATTISGARH
Sarda B.O,Branch Post Office,491332,,BERLA,DURG,CHATTISGARH,DURG,RAIPUR,CHATTISGARH
Semaria B.O,Branch Post Office,491332,,BERLA,DURG,CHATTISGARH,DURG,RAIPUR,CHATTISGARH
Sondh B.O,Branch Post Office,491332,,BERLA,DURG,CHATTISGARH,DURG,RAIPUR,CHATTISGARH
Ahiwara B.O,Branch Post Office,490036,,DHAMDHA,DURG,CHATTISGARH,DURG,RAIPUR,CHATTISGARH
Barhapur B.O,Branch Post Office,491331,,DHAMDHA,DURG,CHATTISGARH,DURG,RAIPUR,CHATTISGARH
Bhatagaon B.O,Branch Post Office,491331,,DHAMDHA,DURG,CHATTISGARH,DURG,RAIPUR,CHATTISGARH
Bhimbhori B.O,Branch Post Office,490036,,DHAMDHA,DURG,CHATTISGARH,DURG,RAIPUR,CHATTISGARH
Deokar B.O,Branch Post Office,491331,,DHAMDHA,DURG,CHATTISGARH,DURG,RAIPUR,CHATTISGARH
Deori B.O,Branch Post Office,491331,,DHAMDHA,DURG,CHATTISGARH,DURG,RAIPUR,CHATTISGARH
Dhamdha S.O,Sub Post Office,491331,07821-234222,DHAMDHA,DURG,CHATTISGARH,DURG,RAIPUR,CHATTISGARH
Gadadih B.O,Branch Post Office,491331,,DHAMDHA,DURG,CHATTISGARH,DURG,RAIPUR,CHATTISGARH
Ghota B.O,Branch Post Office,491331,,DHAMDHA,DURG,CHATTISGARH,DURG,RAIPUR,CHATTISGARH
Ghotwani B.O,Branch Post Office,491331,,DHAMDHA,DURG,CHATTISGARH,DURG,RAIPUR,CHATTISGARH
Girhola B.O,Branch Post Office,490036,,DHAMDHA,DURG,CHATTISGARH,DURG,RAIPUR,CHATTISGARH
Gondgiri B.O,Branch Post Office,490036,,DHAMDHA,DURG,CHATTISGARH,DURG,RAIPUR,CHATTISGARH
Gondi B.O,Branch Post Office,490036,,DHAMDHA,DURG,CHATTISGARH,DURG,RAIPUR,CHATTISGARH
Gudheli B.O,Branch Post Office,490036,,DHAMDHA,DURG,CHATTISGARH,DURG,RAIPUR,CHATTISGARH
Hasda B.O,Branch Post Office,490036,,DHAMDHA,DURG,CHATTISGARH,DURG,RAIPUR,CHATTISGARH
Kareli B.O,Branch Post Office,491331,,DHAMDHA,DURG,CHATTISGARH,DURG,RAIPUR,CHATTISGARH
Kodia B.O,Branch Post Office,490036,,DHAMDHA,DURG,CHATTISGARH,DURG,RAIPUR,CHATTISGARH
Medesara B.O,Branch Post Office,490036,,DHAMDHA,DURG,CHATTISGARH,DURG,RAIPUR,CHATTISGARH
Murmunda B.O,Branch Post Office,490036,,DHAMDHA,DURG,CHATTISGARH,DURG,RAIPUR,CHATTISGARH
Nandini Khundini B.O,Branch Post Office,490036,,DHAMDHA,DURG,CHATTISGARH,DURG,RAIPUR,CHATTISGARH
Nandini S.O,Sub Post Office,490036,07821-257244,DHAMDHA,DURG,CHATTISGARH,DURG,RAIPUR,CHATTISGARH
Parpodi B.O,Branch Post Office,491331,,DHAMDHA,DURG,CHATTISGARH,DURG,RAIPUR,CHATTISGARH
Pendrawan B.O,Branch Post Office,491331,,DHAMDHA,DURG,CHATTISGARH,DURG,RAIPUR,CHATTISGARH
Rajpur B.O,Branch Post Office,491331,,DHAMDHA,DURG,CHATTISGARH,DURG,RAIPUR,CHATTISGARH
Raunda B.O,Branch Post Office,491331,,DHAMDHA,DURG,CHATTISGARH,DURG,RAIPUR,CHATTISGARH
Sahaspur B.O,Branch Post Office,491331,,DHAMDHA,DURG,CHATTISGARH,DURG,RAIPUR,CHATTISGARH
Mines Office Dallirajhara S.O,Sub Post Office,491228,,DONDI,DURG,CHATTISGARH,DURG,RAIPUR,CHATTISGARH
Amadula B.O,Branch Post Office,491228,,DONDI AWARI,DURG,CHATTISGARH,DURG,RAIPUR,CHATTISGARH
Bharritola B.O,Branch Post Office,491228,,DONDI AWARI,DURG,CHATTISGARH,DURG,RAIPUR,CHATTISGARH
Bital B.O,Branch Post Office,491228,,DONDI AWARI,DURG,CHATTISGARH,DURG,RAIPUR,CHATTISGARH
Chikhlakasa B.O,Branch Post Office,491228,,DONDI AWARI,DURG,CHATTISGARH,DURG,RAIPUR,CHATTISGARH
Chipra B.O,Branch Post Office,491228,,DONDI AWARI,DURG,CHATTISGARH,DURG,RAIPUR,CHATTISGARH
Dondi Awari B.O,Branch Post Office,491228,,DONDI AWARI,DURG,CHATTISGARH,DURG,RAIPUR,CHATTISGARH
Ghotia B.O,Branch Post Office,491228,,DONDI AWARI,DURG,CHATTISGARH,DURG,RAIPUR,CHATTISGARH
Gudum B.O,Branch Post Office,491228,,DONDI AWARI,DURG,CHATTISGARH,DURG,RAIPUR,CHATTISGARH
Khalari B.O,Branch Post Office,491228,,DONDI AWARI,DURG,CHATTISGARH,DURG,RAIPUR,CHATTISGARH
Kondekasa B.O,Branch Post Office,491228,,DONDI AWARI,DURG,CHATTISGARH,DURG,RAIPUR,CHATTISGARH
Kusumkasa B.O,Branch Post Office,491228,,DONDI AWARI,DURG,CHATTISGARH,DURG,RAIPUR,CHATTISGARH
Mahamaya Mines B.O,Branch Post Office,491228,,DONDI AWARI,DURG,CHATTISGARH,DURG,RAIPUR,CHATTISGARH
Narratola B.O,Branch Post Office,491228,,DONDI AWARI,DURG,CHATTISGARH,DURG,RAIPUR,CHATTISGARH
Salhe B.O,Branch Post Office,491228,,DONDI AWARI,DURG,CHATTISGARH,DURG,RAIPUR,CHATTISGARH
Surdongar B.O,Branch Post Office,491228,,DONDI AWARI,DURG,CHATTISGARH,DURG,RAIPUR,CHATTISGARH
Themabuzurg B.O,Branch Post Office,491228,,DONDI AWARI,DURG,CHATTISGARH,DURG,RAIPUR,CHATTISGARH
Acholi B.O,Branch Post Office,491771,,DONDI LOHARA,DURG,CHATTISGARH,DURG,RAIPUR,CHATTISGARH
Badgaon B.O,Branch Post Office,491771,,DONDI LOHARA,DURG,CHATTISGARH,DURG,RAIPUR,CHATTISGARH
Bhandera B.O,Branch Post Office,491771,,DONDI LOHARA,DURG,CHATTISGARH,DURG,RAIPUR,CHATTISGARH
Bhanwarmara B.O,Branch Post Office,491771,,DONDI LOHARA,DURG,CHATTISGARH,DURG,RAIPUR,CHATTISGARH
Bharda B.O,Branch Post Office,491771,,DONDI LOHARA,DURG,CHATTISGARH,DURG,RAIPUR,CHATTISGARH
Bhimkanhar B.O,Branch Post Office,491771,,DONDI LOHARA,DURG,CHATTISGARH,DURG,RAIPUR,CHATTISGARH
Deori B.O,Branch Post Office,491771,,DONDI LOHARA,DURG,CHATTISGARH,DURG,RAIPUR,CHATTISGARH
Dondi Lohara S.O,Sub Post Office,491771,07748-264222,DONDI LOHARA,DURG,CHATTISGARH,DURG,RAIPUR,CHATTISGARH
Faradfod B.O,Branch Post Office,491771,,DONDI LOHARA,DURG,CHATTISGARH,DURG,RAIPUR,CHATTISGARH
Kamkapar B.O,Branch Post Office,491771,,DONDI LOHARA,DURG,CHATTISGARH,DURG,RAIPUR,CHATTISGARH
Kherthabazar B.O,Branch Post Office,491771,,DONDI LOHARA,DURG,CHATTISGARH,DURG,RAIPUR,CHATTISGARH
Kholjhar B.O,Branch Post Office,491771,,DONDI LOHARA,DURG,CHATTISGARH,DURG,RAIPUR,CHATTISGARH
Kodekasa B.O,Branch Post Office,491771,,DONDI LOHARA,DURG,CHATTISGARH,DURG,RAIPUR,CHATTISGARH
Nahanda B.O,Branch Post Office,491771,,DONDI LOHARA,DURG,CHATTISGARH,DURG,RAIPUR,CHATTISGARH
Sahgaon B.O,Branch Post Office,491771,,DONDI LOHARA,DURG,CHATTISGARH,DURG,RAIPUR,CHATTISGARH
Sambalpur B.O,Branch Post Office,491771,,DONDI LOHARA,DURG,CHATTISGARH,DURG,RAIPUR,CHATTISGARH
Sanjari B.O,Branch Post Office,491771,,DONDI LOHARA,DURG,CHATTISGARH,DURG,RAIPUR,CHATTISGARH
Tatenga B.O,Branch Post Office,491771,,DONDI LOHARA,DURG,CHATTISGARH,DURG,RAIPUR,CHATTISGARH
Aundhi B.O,Branch Post Office,490021,,DURG,DURG,CHATTISGARH,DURG,RAIPUR,CHATTISGARH
Auri B.O,Branch Post Office,490021,,DURG,DURG,CHATTISGARH,DURG,RAIPUR,CHATTISGARH
Bhendsar B.O,Branch Post Office,491001,,DURG,DURG,CHATTISGARH,DURG,RAIPUR,CHATTISGARH
Bhilai 1 S.O,Sub Post Office,490001,0788-2356236,DURG,DURG,CHATTISGARH,DURG,RAIPUR,CHATTISGARH
Bhilai Boria S.O,Sub Post Office,490001,0788-2261412,DURG,DURG,CHATTISGARH,DURG,RAIPUR,CHATTISGARH
Bhilai East S.O,Sub Post Office,490021,0788-2358098,DURG,DURG,CHATTISGARH,DURG,RAIPUR,CHATTISGARH
Bhilai Marshalling Yard S.O,Sub Post Office,490025,0788-255240,DURG,DURG,CHATTISGARH,DURG,RAIPUR,CHATTISGARH
Bhilai West S.O,Sub Post Office,490009,0788-2243187,DURG,DURG,CHATTISGARH,DURG,RAIPUR,CHATTISGARH
Borai B.O,Branch Post Office,491001,,DURG,DURG,CHATTISGARH,DURG,RAIPUR,CHATTISGARH
Bori B.O,Branch Post Office,491001,,DURG,DURG,CHATTISGARH,DURG,RAIPUR,CHATTISGARH
Chicha B.O,Branch Post Office,491001,,DURG,DURG,CHATTISGARH,DURG,RAIPUR,CHATTISGARH
Civic Centre Bhilai S.O,Sub Post Office,490006,0788-2261624,DURG,DURG,CHATTISGARH,DURG,RAIPUR,CHATTISGARH
Deobaloda B.O,Branch Post Office,490025,,DURG,DURG,CHATTISGARH,DURG,RAIPUR,CHATTISGARH
Dhaur B.O,Branch Post Office,490024,,DURG,DURG,CHATTISGARH,DURG,RAIPUR,CHATTISGARH
Durg H.O,Head Post Office,491001,0788-2323404,DURG,DURG,CHATTISGARH,DURG,RAIPUR,CHATTISGARH
Durg Kutchery S.O,Sub Post Office,491001,,DURG,DURG,CHATTISGARH,DURG,RAIPUR,CHATTISGARH
Durg R S S.O,Sub Post Office,491001,,DURG,DURG,CHATTISGARH,DURG,RAIPUR,CHATTISGARH
Durg Sadar Bazar S.O,Sub Post Office,491001,0788-2330367,DURG,DURG,CHATTISGARH,DURG,RAIPUR,CHATTISGARH
Hanoda B.O,Branch Post Office,491001,,DURG,DURG,CHATTISGARH,DURG,RAIPUR,CHATTISGARH
Hirri B.O,Branch Post Office,491001,,DURG,DURG,CHATTISGARH,DURG,RAIPUR,CHATTISGARH
I E Bhilai S.O,Sub Post Office,490026,0788-2381148,DURG,DURG,CHATTISGARH,DURG,RAIPUR,CHATTISGARH
Ibsb Bhilai H.O,Head Post Office,490001,0788-2278129,DURG,DURG,CHATTISGARH,DURG,RAIPUR,CHATTISGARH
Jamul Cement Works S.O,Sub Post Office,490024,0788-2286860,DURG,DURG,CHATTISGARH,DURG,RAIPUR,CHATTISGARH
Janjgiri B.O,Branch Post Office,490025,,DURG,DURG,CHATTISGARH,DURG,RAIPUR,CHATTISGARH
Jawahar Market Bhilai S.O,Sub Post Office,490001,0788-2296282,DURG,DURG,CHATTISGARH,DURG,RAIPUR,CHATTISGARH
Jeora Sirsa B.O,Branch Post Office,491001,,DURG,DURG,CHATTISGARH,DURG,RAIPUR,CHATTISGARH
Karanja Bhilai B.O,Branch Post Office,490024,,DURG,DURG,CHATTISGARH,DURG,RAIPUR,CHATTISGARH
Kasaridih Durg S.O,Sub Post Office,491001,0788-2320997,DURG,DURG,CHATTISGARH,DURG,RAIPUR,CHATTISGARH
Khoka Bhilai S.O,Sub Post Office,490023,,DURG,DURG,CHATTISGARH,DURG,RAIPUR,CHATTISGARH
Khursipar Bhilai S.O,Sub Post Office,490011,0788-2282934,DURG,DURG,CHATTISGARH,DURG,RAIPUR,CHATTISGARH
Kurud B.O,Branch Post Office,490024,,DURG,DURG,CHATTISGARH,DURG,RAIPUR,CHATTISGARH
Litia Semaria B.O,Branch Post Office,491001,,DURG,DURG,CHATTISGARH,DURG,RAIPUR,CHATTISGARH
Malvia Nagar Durg S.O,Sub Post Office,491001,,DURG,DURG,CHATTISGARH,DURG,RAIPUR,CHATTISGARH
Maroda Bhilai S.O,Sub Post Office,490006,,DURG,DURG,CHATTISGARH,DURG,RAIPUR,CHATTISGARH
Mohan Nagar Durg S.O,Sub Post Office,491001,,DURG,DURG,CHATTISGARH,DURG,RAIPUR,CHATTISGARH
Motilal Nehru Nagr Bhilai S.O,Sub Post Office,490020,0788-2358099,DURG,DURG,CHATTISGARH,DURG,RAIPUR,CHATTISGARH
Nagpura B.O,Branch Post Office,491001,,DURG,DURG,CHATTISGARH,DURG,RAIPUR,CHATTISGARH
Nandkatti B.O,Branch Post Office,491001,,DURG,DURG,CHATTISGARH,DURG,RAIPUR,CHATTISGARH
Nardha B.O,Branch Post Office,490024,,DURG,DURG,CHATTISGARH,DURG,RAIPUR,CHATTISGARH
Nawagaon Bhilai S.O,Sub Post Office,490006,0788-2261312,DURG,DURG,CHATTISGARH,DURG,RAIPUR,CHATTISGARH
Nawagaon Purda B.O,Branch Post Office,491001,,DURG,DURG,CHATTISGARH,DURG,RAIPUR,CHATTISGARH
New Khursipar Bhilai S.O,Sub Post Office,490011,0788-2281067,DURG,DURG,CHATTISGARH,DURG,RAIPUR,CHATTISGARH
Padmanabhpur Durg S.O,Sub Post Office,491001,0788-2330423,DURG,DURG,CHATTISGARH,DURG,RAIPUR,CHATTISGARH
Pisgaon B.O,Branch Post Office,491001,,DURG,DURG,CHATTISGARH,DURG,RAIPUR,CHATTISGARH
Rasmara B.O,Branch Post Office,491001,,DURG,DURG,CHATTISGARH,DURG,RAIPUR,CHATTISGARH
S A F Lines Bhilai S.O,Sub Post Office,490022,0788-2292555,DURG,DURG,CHATTISGARH,DURG,RAIPUR,CHATTISGARH
Sector 2 S.O,Sub Post Office,490001,,DURG,DURG,CHATTISGARH,DURG,RAIPUR,CHATTISGARH
Sector 3 Bhilai S.O,Sub Post Office,490001,,DURG,DURG,CHATTISGARH,DURG,RAIPUR,CHATTISGARH
Sector 5 Bhilai S.O,Sub Post Office,490006,,DURG,DURG,CHATTISGARH,DURG,RAIPUR,CHATTISGARH
Sector 6 Bhilai S.O,Sub Post Office,490006,0788-2220155,DURG,DURG,CHATTISGARH,DURG,RAIPUR,CHATTISGARH
Sector 7 Bhilai S.O,Sub Post Office,490006,0788-2261413,DURG,DURG,CHATTISGARH,DURG,RAIPUR,CHATTISGARH
Sector 8 Bhilai S.O,Sub Post Office,490009,0788-2261412,DURG,DURG,CHATTISGARH,DURG,RAIPUR,CHATTISGARH
Sirsakala B.O,Branch Post Office,490021,,DURG,DURG,CHATTISGARH,DURG,RAIPUR,CHATTISGARH
Smriti Nagar Bhilai S.O,Sub Post Office,490020,0788-2291700,DURG,DURG,CHATTISGARH,DURG,RAIPUR,CHATTISGARH
Supela Bhilai S.O,Sub Post Office,490023,0788-2295954,DURG,DURG,CHATTISGARH,DURG,RAIPUR,CHATTISGARH
Surdung B.O,Branch Post Office,490024,,DURG,DURG,CHATTISGARH,DURG,RAIPUR,CHATTISGARH
Temri B.O,Branch Post Office,491001,,DURG,DURG,CHATTISGARH,DURG,RAIPUR,CHATTISGARH
Thanod B.O,Branch Post Office,491001,,DURG,DURG,CHATTISGARH,DURG,RAIPUR,CHATTISGARH
Tumakala B.O,Branch Post Office,491001,,DURG,DURG,CHATTISGARH,DURG,RAIPUR,CHATTISGARH
Urla B.O,Branch Post Office,490025,,DURG,DURG,CHATTISGARH,DURG,RAIPUR,CHATTISGARH
Vaishali Nagar Bhilai S.O,Sub Post Office,490023,0788-2294196,DURG,DURG,CHATTISGARH,DURG,RAIPUR,CHATTISGARH
Achaud B.O,Branch Post Office,491223,,GUNDERDEHI,DURG,CHATTISGARH,DURG,RAIPUR,CHATTISGARH
Albaras B.O,Branch Post Office,491221,,GUNDERDEHI,DURG,CHATTISGARH,DURG,RAIPUR,CHATTISGARH
Anda S.O,Sub Post Office,491221,,GUNDERDEHI,DURG,CHATTISGARH,DURG,RAIPUR,CHATTISGARH
Arjunda S.O,Sub Post Office,491225,0788-2622230,GUNDERDEHI,DURG,CHATTISGARH,DURG,RAIPUR,CHATTISGARH
Arkar B.O,Branch Post Office,491222,,GUNDERDEHI,DURG,CHATTISGARH,DURG,RAIPUR,CHATTISGARH
Armarikala B.O,Branch Post Office,491222,,GUNDERDEHI,DURG,CHATTISGARH,DURG,RAIPUR,CHATTISGARH
Barbaspur B.O,Branch Post Office,491222,,GUNDERDEHI,DURG,CHATTISGARH,DURG,RAIPUR,CHATTISGARH
Batrel B.O,Branch Post Office,491222,,GUNDERDEHI,DURG,CHATTISGARH,DURG,RAIPUR,CHATTISGARH
Belaudi B.O,Branch Post Office,491222,,GUNDERDEHI,DURG,CHATTISGARH,DURG,RAIPUR,CHATTISGARH
Belhari B.O,Branch Post Office,491223,,GUNDERDEHI,DURG,CHATTISGARH,DURG,RAIPUR,CHATTISGARH
Bhardakala B.O,Branch Post Office,491225,,GUNDERDEHI,DURG,CHATTISGARH,DURG,RAIPUR,CHATTISGARH
Bhatagaon B.O,Branch Post Office,491223,,GUNDERDEHI,DURG,CHATTISGARH,DURG,RAIPUR,CHATTISGARH
Bhatagaon B.O,Branch Post Office,491222,,GUNDERDEHI,DURG,CHATTISGARH,DURG,RAIPUR,CHATTISGARH
Chandkhuri B.O,Branch Post Office,491221,,GUNDERDEHI,DURG,CHATTISGARH,DURG,RAIPUR,CHATTISGARH
Chandnbirhi B.O,Branch Post Office,491222,,GUNDERDEHI,DURG,CHATTISGARH,DURG,RAIPUR,CHATTISGARH
Chaurel B.O,Branch Post Office,491225,,GUNDERDEHI,DURG,CHATTISGARH,DURG,RAIPUR,CHATTISGARH
Dagania B.O,Branch Post Office,491221,,GUNDERDEHI,DURG,CHATTISGARH,DURG,RAIPUR,CHATTISGARH
Dhamna B.O,Branch Post Office,491223,,GUNDERDEHI,DURG,CHATTISGARH,DURG,RAIPUR,CHATTISGARH
Dundera B.O,Branch Post Office,491225,,GUNDERDEHI,DURG,CHATTISGARH,DURG,RAIPUR,CHATTISGARH
Gabdi B.O,Branch Post Office,491225,,GUNDERDEHI,DURG,CHATTISGARH,DURG,RAIPUR,CHATTISGARH
Gorkapar B.O,Branch Post Office,491223,,GUNDERDEHI,DURG,CHATTISGARH,DURG,RAIPUR,CHATTISGARH
Gunderdehi S.O,Sub Post Office,491223,0788-2628144,GUNDERDEHI,DURG,CHATTISGARH,DURG,RAIPUR,CHATTISGARH
Hadgaon B.O,Branch Post Office,491225,,GUNDERDEHI,DURG,CHATTISGARH,DURG,RAIPUR,CHATTISGARH
Hardi B.O,Branch Post Office,491222,,GUNDERDEHI,DURG,CHATTISGARH,DURG,RAIPUR,CHATTISGARH
Jamgaon R B.O,Branch Post Office,491223,,GUNDERDEHI,DURG,CHATTISGARH,DURG,RAIPUR,CHATTISGARH
Kachandur B.O,Branch Post Office,491223,,GUNDERDEHI,DURG,CHATTISGARH,DURG,RAIPUR,CHATTISGARH
Kalangpur B.O,Branch Post Office,491223,,GUNDERDEHI,DURG,CHATTISGARH,DURG,RAIPUR,CHATTISGARH
Kanakote B.O,Branch Post Office,491221,,GUNDERDEHI,DURG,CHATTISGARH,DURG,RAIPUR,CHATTISGARH
Kandul B.O,Branch Post Office,491225,,GUNDERDEHI,DURG,CHATTISGARH,DURG,RAIPUR,CHATTISGARH
Karela B.O,Branch Post Office,491223,,GUNDERDEHI,DURG,CHATTISGARH,DURG,RAIPUR,CHATTISGARH
Kasahi B.O,Branch Post Office,491225,,GUNDERDEHI,DURG,CHATTISGARH,DURG,RAIPUR,CHATTISGARH
Kasaunda B.O,Branch Post Office,491223,,GUNDERDEHI,DURG,CHATTISGARH,DURG,RAIPUR,CHATTISGARH
Khursuni B.O,Branch Post Office,491225,,GUNDERDEHI,DURG,CHATTISGARH,DURG,RAIPUR,CHATTISGARH
Kuthrel B.O,Branch Post Office,491221,,GUNDERDEHI,DURG,CHATTISGARH,DURG,RAIPUR,CHATTISGARH
Machandur B.O,Branch Post Office,491221,,GUNDERDEHI,DURG,CHATTISGARH,DURG,RAIPUR,CHATTISGARH
Mahud B.O,Branch Post Office,491222,,GUNDERDEHI,DURG,CHATTISGARH,DURG,RAIPUR,CHATTISGARH
Marra B.O,Branch Post Office,491221,,GUNDERDEHI,DURG,CHATTISGARH,DURG,RAIPUR,CHATTISGARH
Matwari B.O,Branch Post Office,491221,,GUNDERDEHI,DURG,CHATTISGARH,DURG,RAIPUR,CHATTISGARH
Mohara B.O,Branch Post Office,491222,,GUNDERDEHI,DURG,CHATTISGARH,DURG,RAIPUR,CHATTISGARH
Nikum B.O,Branch Post Office,491221,,GUNDERDEHI,DURG,CHATTISGARH,DURG,RAIPUR,CHATTISGARH
Nipani Tipani B.O,Branch Post Office,491223,,GUNDERDEHI,DURG,CHATTISGARH,DURG,RAIPUR,CHATTISGARH
Pairi B.O,Branch Post Office,491222,,GUNDERDEHI,DURG,CHATTISGARH,DURG,RAIPUR,CHATTISGARH
Palari B.O,Branch Post Office,491222,,GUNDERDEHI,DURG,CHATTISGARH,DURG,RAIPUR,CHATTISGARH
Parsada B.O,Branch Post Office,491222,,GUNDERDEHI,DURG,CHATTISGARH,DURG,RAIPUR,CHATTISGARH
Pauha B.O,Branch Post Office,491221,,GUNDERDEHI,DURG,CHATTISGARH,DURG,RAIPUR,CHATTISGARH
Rahud B.O,Branch Post Office,491223,,GUNDERDEHI,DURG,CHATTISGARH,DURG,RAIPUR,CHATTISGARH
Rajauli B.O,Branch Post Office,491222,,GUNDERDEHI,DURG,CHATTISGARH,DURG,RAIPUR,CHATTISGARH
Ranchirai B.O,Branch Post Office,491223,,GUNDERDEHI,DURG,CHATTISGARH,DURG,RAIPUR,CHATTISGARH
Ranitarai B.O,Branch Post Office,491223,,GUNDERDEHI,DURG,CHATTISGARH,DURG,RAIPUR,CHATTISGARH
Risama B.O,Branch Post Office,491221,,GUNDERDEHI,DURG,CHATTISGARH,DURG,RAIPUR,CHATTISGARH
Sikosa S.O,Sub Post Office,491222,0788-2618522,GUNDERDEHI,DURG,CHATTISGARH,DURG,RAIPUR,CHATTISGARH
Sirri B.O,Branch Post Office,491221,,GUNDERDEHI,DURG,CHATTISGARH,DURG,RAIPUR,CHATTISGARH
Suregaon B.O,Branch Post Office,491225,,GUNDERDEHI,DURG,CHATTISGARH,DURG,RAIPUR,CHATTISGARH
Surpa B.O,Branch Post Office,491223,,GUNDERDEHI,DURG,CHATTISGARH,DURG,RAIPUR,CHATTISGARH
Tamora B.O,Branch Post Office,491221,,GUNDERDEHI,DURG,CHATTISGARH,DURG,RAIPUR,CHATTISGARH
Tavera B.O,Branch Post Office,491223,,GUNDERDEHI,DURG,CHATTISGARH,DURG,RAIPUR,CHATTISGARH
Tirga B.O,Branch Post Office,491225,,GUNDERDEHI,DURG,CHATTISGARH,DURG,RAIPUR,CHATTISGARH
Vinayakpur B.O,Branch Post Office,491221,,GUNDERDEHI,DURG,CHATTISGARH,DURG,RAIPUR,CHATTISGARH
Balod Gahan B.O,Branch Post Office,491227,,GURUR,DURG,CHATTISGARH,DURG,RAIPUR,CHATTISGARH
Barhi B.O,Branch Post Office,491227,,GURUR,DURG,CHATTISGARH,DURG,RAIPUR,CHATTISGARH
Basin B.O,Branch Post Office,491227,,GURUR,DURG,CHATTISGARH,DURG,RAIPUR,CHATTISGARH
Charwahi B.O,Branch Post Office,491227,,GURUR,DURG,CHATTISGARH,DURG,RAIPUR,CHATTISGARH
Chitod B.O,Branch Post Office,491227,,GURUR,DURG,CHATTISGARH,DURG,RAIPUR,CHATTISGARH
Darra B.O,Branch Post Office,491227,,GURUR,DURG,CHATTISGARH,DURG,RAIPUR,CHATTISGARH
Dhaneli B.O,Branch Post Office,491227,,GURUR,DURG,CHATTISGARH,DURG,RAIPUR,CHATTISGARH
Fagundah B.O,Branch Post Office,491227,,GURUR,DURG,CHATTISGARH,DURG,RAIPUR,CHATTISGARH
Gurur S.O,Sub Post Office,491227,07749-265430,GURUR,DURG,CHATTISGARH,DURG,RAIPUR,CHATTISGARH
Jamgaon B B.O,Branch Post Office,491227,,GURUR,DURG,CHATTISGARH,DURG,RAIPUR,CHATTISGARH
Kaneri B.O,Branch Post Office,491227,,GURUR,DURG,CHATTISGARH,DURG,RAIPUR,CHATTISGARH
Kanwar B.O,Branch Post Office,491227,,GURUR,DURG,CHATTISGARH,DURG,RAIPUR,CHATTISGARH
Karhi Bhadar B.O,Branch Post Office,491227,,GURUR,DURG,CHATTISGARH,DURG,RAIPUR,CHATTISGARH
Khundini B.O,Branch Post Office,491227,,GURUR,DURG,CHATTISGARH,DURG,RAIPUR,CHATTISGARH
Limora B.O,Branch Post Office,491227,,GURUR,DURG,CHATTISGARH,DURG,RAIPUR,CHATTISGARH
Mokha B.O,Branch Post Office,491227,,GURUR,DURG,CHATTISGARH,DURG,RAIPUR,CHATTISGARH
Naragaon B.O,Branch Post Office,491227,,GURUR,DURG,CHATTISGARH,DURG,RAIPUR,CHATTISGARH
Nipani B.O,Branch Post Office,491227,,GURUR,DURG,CHATTISGARH,DURG,RAIPUR,CHATTISGARH
Shantipur B.O,Branch Post Office,491227,,GURUR,DURG,CHATTISGARH,DURG,RAIPUR,CHATTISGARH
Sonai Dongri B.O,Branch Post Office,491227,,GURUR,DURG,CHATTISGARH,DURG,RAIPUR,CHATTISGARH
Sorar B.O,Branch Post Office,491227,,GURUR,DURG,CHATTISGARH,DURG,RAIPUR,CHATTISGARH
Tarri B.O,Branch Post Office,491227,,GURUR,DURG,CHATTISGARH,DURG,RAIPUR,CHATTISGARH
Badnara B.O,Branch Post Office,491340,,NANDGHAT,DURG,CHATTISGARH,DURG,RAIPUR,CHATTISGARH
Ghursena B.O,Branch Post Office,491340,,NANDGHAT,DURG,CHATTISGARH,DURG,RAIPUR,CHATTISGARH
Kheda B.O,Branch Post Office,491340,,NANDGHAT,DURG,CHATTISGARH,DURG,RAIPUR,CHATTISGARH
Kunwa B.O,Branch Post Office,491340,,NANDGHAT,DURG,CHATTISGARH,DURG,RAIPUR,CHATTISGARH
Maro B.O,Branch Post Office,491340,,NANDGHAT,DURG,CHATTISGARH,DURG,RAIPUR,CHATTISGARH
Mau B.O,Branch Post Office,491340,,NANDGHAT,DURG,CHATTISGARH,DURG,RAIPUR,CHATTISGARH
Nagdha B.O,Branch Post Office,491340,,NANDGHAT,DURG,CHATTISGARH,DURG,RAIPUR,CHATTISGARH
Nandghat S.O,Sub Post Office,491340,,NANDGHAT,DURG,CHATTISGARH,DURG,RAIPUR,CHATTISGARH
Narayanpur B.O,Branch Post Office,491340,,NANDGHAT,DURG,CHATTISGARH,DURG,RAIPUR,CHATTISGARH
Putpura B.O,Branch Post Office,491340,,NANDGHAT,DURG,CHATTISGARH,DURG,RAIPUR,CHATTISGARH
Sambalpur B.O,Branch Post Office,491340,,NANDGHAT,DURG,CHATTISGARH,DURG,RAIPUR,CHATTISGARH
Temri B.O,Branch Post Office,491340,,NANDGHAT,DURG,CHATTISGARH,DURG,RAIPUR,CHATTISGARH
Nawagarh S.O,Sub Post Office,491337,07824-265544,NAWAGARH,DURG,CHATTISGARH,DURG,RAIPUR,CHATTISGARH
Andhiarkhor B.O,Branch Post Office,491337,,NAWGARH,DURG,CHATTISGARH,DURG,RAIPUR,CHATTISGARH
Chirha B.O,Branch Post Office,491337,,NAWGARH,DURG,CHATTISGARH,DURG,RAIPUR,CHATTISGARH
Gadamore B.O,Branch Post Office,491337,,NAWGARH,DURG,CHATTISGARH,DURG,RAIPUR,CHATTISGARH
Ghoghra B.O,Branch Post Office,491337,,NAWGARH,DURG,CHATTISGARH,DURG,RAIPUR,CHATTISGARH
Hardi B.O,Branch Post Office,491337,,NAWGARH,DURG,CHATTISGARH,DURG,RAIPUR,CHATTISGARH
Kanwarkapa B.O,Branch Post Office,491337,,NAWGARH,DURG,CHATTISGARH,DURG,RAIPUR,CHATTISGARH
Kunwa B.O,Branch Post Office,491337,,NAWGARH,DURG,CHATTISGARH,DURG,RAIPUR,CHATTISGARH
Murta B.O,Branch Post Office,491337,,NAWGARH,DURG,CHATTISGARH,DURG,RAIPUR,CHATTISGARH
Nandal B.O,Branch Post Office,491337,,NAWGARH,DURG,CHATTISGARH,DURG,RAIPUR,CHATTISGARH
Pratappur B.O,Branch Post Office,491337,,NAWGARH,DURG,CHATTISGARH,DURG,RAIPUR,CHATTISGARH
Patan S.O,Sub Post Office,491111,07826-273644,PATAH,DURG,CHATTISGARH,DURG,RAIPUR,CHATTISGARH
Batang B.O,Branch Post Office,491111,,PATAN,DURG,CHATTISGARH,DURG,RAIPUR,CHATTISGARH
Bathena B.O,Branch Post Office,491111,,PATAN,DURG,CHATTISGARH,DURG,RAIPUR,CHATTISGARH
Bhansuli B.O,Branch Post Office,491111,,PATAN,DURG,CHATTISGARH,DURG,RAIPUR,CHATTISGARH
Borid B.O,Branch Post Office,491111,,PATAN,DURG,CHATTISGARH,DURG,RAIPUR,CHATTISGARH
Darbarmokhli B.O,Branch Post Office,491111,,PATAN,DURG,CHATTISGARH,DURG,RAIPUR,CHATTISGARH
Devada B.O,Branch Post Office,491111,,PATAN,DURG,CHATTISGARH,DURG,RAIPUR,CHATTISGARH
Dundera B.O,Branch Post Office,491107,,PATAN,DURG,CHATTISGARH,DURG,RAIPUR,CHATTISGARH
Fekari B.O,Branch Post Office,491107,,PATAN,DURG,CHATTISGARH,DURG,RAIPUR,CHATTISGARH
Gujra B.O,Branch Post Office,491111,,PATAN,DURG,CHATTISGARH,DURG,RAIPUR,CHATTISGARH
Jamgaon B.O,Branch Post Office,491111,,PATAN,DURG,CHATTISGARH,DURG,RAIPUR,CHATTISGARH
Kapasda B.O,Branch Post Office,490042,,PATAN,DURG,CHATTISGARH,DURG,RAIPUR,CHATTISGARH
Kesra B.O,Branch Post Office,491111,,PATAN,DURG,CHATTISGARH,DURG,RAIPUR,CHATTISGARH
Khamaria B.O,Branch Post Office,491111,,PATAN,DURG,CHATTISGARH,DURG,RAIPUR,CHATTISGARH
Khopli B.O,Branch Post Office,491107,,PATAN,DURG,CHATTISGARH,DURG,RAIPUR,CHATTISGARH
Kumhari S.O,Sub Post Office,490042,07821-247345,PATAN,DURG,CHATTISGARH,DURG,RAIPUR,CHATTISGARH
Limtara B.O,Branch Post Office,490042,,PATAN,DURG,CHATTISGARH,DURG,RAIPUR,CHATTISGARH
Mahudajhit B.O,Branch Post Office,491111,,PATAN,DURG,CHATTISGARH,DURG,RAIPUR,CHATTISGARH
Newai B.O,Branch Post Office,491107,,PATAN,DURG,CHATTISGARH,DURG,RAIPUR,CHATTISGARH
Oteband B.O,Branch Post Office,490042,,PATAN,DURG,CHATTISGARH,DURG,RAIPUR,CHATTISGARH
Pahanda B.O,Branch Post Office,490042,,PATAN,DURG,CHATTISGARH,DURG,RAIPUR,CHATTISGARH
Pahandor B.O,Branch Post Office,491107,,PATAN,DURG,CHATTISGARH,DURG,RAIPUR,CHATTISGARH
Patora B.O,Branch Post Office,491107,,PATAN,DURG,CHATTISGARH,DURG,RAIPUR,CHATTISGARH
Pauwara B.O,Branch Post Office,491107,,PATAN,DURG,CHATTISGARH,DURG,RAIPUR,CHATTISGARH
Purai B.O,Branch Post Office,491107,,PATAN,DURG,CHATTISGARH,DURG,RAIPUR,CHATTISGARH
Sankra B.O,Branch Post Office,491111,,PATAN,DURG,CHATTISGARH,DURG,RAIPUR,CHATTISGARH
Santra B.O,Branch Post Office,491111,,PATAN,DURG,CHATTISGARH,DURG,RAIPUR,CHATTISGARH
Selud B.O,Branch Post Office,491107,,PATAN,DURG,CHATTISGARH,DURG,RAIPUR,CHATTISGARH
Tarra B.O,Branch Post Office,491111,,PATAN,DURG,CHATTISGARH,DURG,RAIPUR,CHATTISGARH
Teligundra B.O,Branch Post Office,491111,,PATAN,DURG,CHATTISGARH,DURG,RAIPUR,CHATTISGARH
Utai Pedal B.O,Branch Post Office,491107,,PATAN,DURG,CHATTISGARH,DURG,RAIPUR,CHATTISGARH
Utai S.O,Sub Post Office,491107,0788-2673803,PATAN,DURG,CHATTISGARH,DURG,RAIPUR,CHATTISGARH
Bargada B.O,Branch Post Office,491993,,SAJA,DURG,CHATTISGARH,DURG,RAIPUR,CHATTISGARH
Beltara B.O,Branch Post Office,491993,,SAJA,DURG,CHATTISGARH,DURG,RAIPUR,CHATTISGARH
Bortara B.O,Branch Post Office,491993,,SAJA,DURG,CHATTISGARH,DURG,RAIPUR,CHATTISGARH
Chilfi B.O,Branch Post Office,491993,,SAJA,DURG,CHATTISGARH,DURG,RAIPUR,CHATTISGARH
Deorbija B.O,Branch Post Office,491993,,SAJA,DURG,CHATTISGARH,DURG,RAIPUR,CHATTISGARH
Deurgaon B.O,Branch Post Office,491993,,SAJA,DURG,CHATTISGARH,DURG,RAIPUR,CHATTISGARH
Hatranka B.O,Branch Post Office,491338,,SAJA,DURG,CHATTISGARH,DURG,RAIPUR,CHATTISGARH
Kestaa B.O,Branch Post Office,491993,,SAJA,DURG,CHATTISGARH,DURG,RAIPUR,CHATTISGARH
Khamaria S.O,Sub Post Office,491338,07824-263544,SAJA,DURG,CHATTISGARH,DURG,RAIPUR,CHATTISGARH
Mohbhatta B.O,Branch Post Office,491993,,SAJA,DURG,CHATTISGARH,DURG,RAIPUR,CHATTISGARH
Mohgaon B.O,Branch Post Office,491993,,SAJA,DURG,CHATTISGARH,DURG,RAIPUR,CHATTISGARH
Parasbod B.O,Branch Post Office,491993,,SAJA,DURG,CHATTISGARH,DURG,RAIPUR,CHATTISGARH
Saja S.O,Sub Post Office,491993,07825-629244,SAJA,DURG,CHATTISGARH,DURG,RAIPUR,CHATTISGARH
Saldha B.O,Branch Post Office,491993,,SAJA,DURG,CHATTISGARH,DURG,RAIPUR,CHATTISGARH
Tipni B.O,Branch Post Office,491338,,SAJA,DURG,CHATTISGARH,DURG,RAIPUR,CHATTISGARH
Sonthi B.O,Branch Post Office,495559,,.,JANJGIR-CHAMPA,CHATTISGARH,BILASPUR,RAIPUR,CHATTISGARH
Bandora B.O,Branch Post Office,495695,,ADBHAR,JANJGIR-CHAMPA,CHATTISGARH,BILASPUR,RAIPUR,CHATTISGARH
Charoda B.O,Branch Post Office,495695,,ADBHAR,JANJGIR-CHAMPA,CHATTISGARH,BILASPUR,RAIPUR,CHATTISGARH
Faguram B.O,Branch Post Office,495695,,ADBHAR,JANJGIR-CHAMPA,CHATTISGARH,BILASPUR,RAIPUR,CHATTISGARH
Kanwali B.O,Branch Post Office,495695,,ADBHAR,JANJGIR-CHAMPA,CHATTISGARH,BILASPUR,RAIPUR,CHATTISGARH
Kirari B.O,Branch Post Office,495695,,ADBHAR,JANJGIR-CHAMPA,CHATTISGARH,BILASPUR,RAIPUR,CHATTISGARH
Kusmul B.O,Branch Post Office,495695,,ADBHAR,JANJGIR-CHAMPA,CHATTISGARH,BILASPUR,RAIPUR,CHATTISGARH
Singhitarai B.O,Branch Post Office,495695,,ADBHAR,JANJGIR-CHAMPA,CHATTISGARH,BILASPUR,RAIPUR,CHATTISGARH
Tundri B.O,Branch Post Office,495695,,ADBHAR,JANJGIR-CHAMPA,CHATTISGARH,BILASPUR,RAIPUR,CHATTISGARH
Sapia B.O,Branch Post Office,495695,,ADBHAR',JANJGIR-CHAMPA,CHATTISGARH,BILASPUR,RAIPUR,CHATTISGARH
Arjuni B.O,Branch Post Office,495552,,AKALTARA,JANJGIR-CHAMPA,CHATTISGARH,BILASPUR,RAIPUR,CHATTISGARH
Bargawan B.O,Branch Post Office,495552,,AKALTARA,JANJGIR-CHAMPA,CHATTISGARH,BILASPUR,RAIPUR,CHATTISGARH
Birkoni B.O,Branch Post Office,495552,,AKALTARA,JANJGIR-CHAMPA,CHATTISGARH,BILASPUR,RAIPUR,CHATTISGARH
Changori B.O,Branch Post Office,495552,,AKALTARA,JANJGIR-CHAMPA,CHATTISGARH,BILASPUR,RAIPUR,CHATTISGARH
Kapan B.O,Branch Post Office,495001,,AKALTARA,JANJGIR-CHAMPA,CHATTISGARH,BILASPUR,RAIPUR,CHATTISGARH
Katnai B.O,Branch Post Office,495552,,AKALTARA,JANJGIR-CHAMPA,CHATTISGARH,BILASPUR,RAIPUR,CHATTISGARH
Kotmisonar B.O,Branch Post Office,495552,,AKALTARA,JANJGIR-CHAMPA,CHATTISGARH,BILASPUR,RAIPUR,CHATTISGARH
Pandania B.O,Branch Post Office,495552,,AKALTARA,JANJGIR-CHAMPA,CHATTISGARH,BILASPUR,RAIPUR,CHATTISGARH
Pondidalha B.O,Branch Post Office,495552,,AKALTARA,JANJGIR-CHAMPA,CHATTISGARH,BILASPUR,RAIPUR,CHATTISGARH
Sankar B.O,Branch Post Office,495552,,AKALTARA,JANJGIR-CHAMPA,CHATTISGARH,BILASPUR,RAIPUR,CHATTISGARH
Bachhaud B.O,Branch Post Office,495559,,BALODA,JANJGIR-CHAMPA,CHATTISGARH,BILASPUR,RAIPUR,CHATTISGARH
Baloda S.O,Sub Post Office,495559,07817-251221,BALODA,JANJGIR-CHAMPA,CHATTISGARH,BILASPUR,RAIPUR,CHATTISGARH
Budganan B.O,Branch Post Office,495559,,BALODA,JANJGIR-CHAMPA,CHATTISGARH,BILASPUR,RAIPUR,CHATTISGARH
Dhania B.O,Branch Post Office,495559,,BALODA,JANJGIR-CHAMPA,CHATTISGARH,BILASPUR,RAIPUR,CHATTISGARH
Dongri B.O,Branch Post Office,495559,,BALODA,JANJGIR-CHAMPA,CHATTISGARH,BILASPUR,RAIPUR,CHATTISGARH
Jawalpur B.O,Branch Post Office,495559,,BALODA,JANJGIR-CHAMPA,CHATTISGARH,BILASPUR,RAIPUR,CHATTISGARH
Khamaria B.O,Branch Post Office,495559,,BALODA,JANJGIR-CHAMPA,CHATTISGARH,BILASPUR,RAIPUR,CHATTISGARH
Khisora B.O,Branch Post Office,495559,,BALODA,JANJGIR-CHAMPA,CHATTISGARH,BILASPUR,RAIPUR,CHATTISGARH
Mahuda B.O,Branch Post Office,495559,,BALODA,JANJGIR-CHAMPA,CHATTISGARH,BILASPUR,RAIPUR,CHATTISGARH
Nirtu B.O,Branch Post Office,495559,,BALODA,JANJGIR-CHAMPA,CHATTISGARH,BILASPUR,RAIPUR,CHATTISGARH
Ponch B.O,Branch Post Office,495559,,BALODA,JANJGIR-CHAMPA,CHATTISGARH,BILASPUR,RAIPUR,CHATTISGARH
Rasota B.O,Branch Post Office,495559,,BALODA,JANJGIR-CHAMPA,CHATTISGARH,BILASPUR,RAIPUR,CHATTISGARH
Basti Baradwar B.O,Branch Post Office,495687,,BARADWAR,JANJGIR-CHAMPA,CHATTISGARH,BILASPUR,RAIPUR,CHATTISGARH
Darang B.O,Branch Post Office,495687,,BARADWAR,JANJGIR-CHAMPA,CHATTISGARH,BILASPUR,RAIPUR,CHATTISGARH
Dumarpara B.O,Branch Post Office,495687,,BARADWAR,JANJGIR-CHAMPA,CHATTISGARH,BILASPUR,RAIPUR,CHATTISGARH
Jarwe B.O,Branch Post Office,495687,,BARADWAR,JANJGIR-CHAMPA,CHATTISGARH,BILASPUR,RAIPUR,CHATTISGARH
Jharna B.O,Branch Post Office,495687,,BARADWAR,JANJGIR-CHAMPA,CHATTISGARH,BILASPUR,RAIPUR,CHATTISGARH
Kirari B.O,Branch Post Office,495687,,BARADWAR,JANJGIR-CHAMPA,CHATTISGARH,BILASPUR,RAIPUR,CHATTISGARH
Muktaraja B.O,Branch Post Office,495687,,BARADWAR,JANJGIR-CHAMPA,CHATTISGARH,BILASPUR,RAIPUR,CHATTISGARH
Nagarda B.O,Branch Post Office,495687,,BARADWAR,JANJGIR-CHAMPA,CHATTISGARH,BILASPUR,RAIPUR,CHATTISGARH
Reda B.O,Branch Post Office,495687,,BARADWAR,JANJGIR-CHAMPA,CHATTISGARH,BILASPUR,RAIPUR,CHATTISGARH
Sakreli B.O,Branch Post Office,495687,,BARADWAR,JANJGIR-CHAMPA,CHATTISGARH,BILASPUR,RAIPUR,CHATTISGARH
Saragaon B.O,Branch Post Office,495687,,BARADWAR,JANJGIR-CHAMPA,CHATTISGARH,BILASPUR,RAIPUR,CHATTISGARH
Sarhar B.O,Branch Post Office,495687,,BARADWAR,JANJGIR-CHAMPA,CHATTISGARH,BILASPUR,RAIPUR,CHATTISGARH
Bamhni Bazar S.O,Sub Post Office,495660,07819-276230,CHAMPA,JANJGIR-CHAMPA,CHATTISGARH,BILASPUR,RAIPUR,CHATTISGARH
Basantpur B.O,Branch Post Office,495671,,CHAMPA,JANJGIR-CHAMPA,CHATTISGARH,BILASPUR,RAIPUR,CHATTISGARH
Birgahni B.O,Branch Post Office,495671,,CHAMPA,JANJGIR-CHAMPA,CHATTISGARH,BILASPUR,RAIPUR,CHATTISGARH
Birra S.O,Sub Post Office,495661,07819-271350,CHAMPA,JANJGIR-CHAMPA,CHATTISGARH,BILASPUR,RAIPUR,CHATTISGARH
Champa R.S. S.O,Sub Post Office,495671,07819-245195,CHAMPA,JANJGIR-CHAMPA,CHATTISGARH,BILASPUR,RAIPUR,CHATTISGARH
Champa S.O,Sub Post Office,495671,07819-245963,CHAMPA,JANJGIR-CHAMPA,CHATTISGARH,BILASPUR,RAIPUR,CHATTISGARH
Chicholi B.O,Branch Post Office,495671,,CHAMPA,JANJGIR-CHAMPA,CHATTISGARH,BILASPUR,RAIPUR,CHATTISGARH
Faraswani B.O,Branch Post Office,495671,,CHAMPA,JANJGIR-CHAMPA,CHATTISGARH,BILASPUR,RAIPUR,CHATTISGARH
Gaud B.O,Branch Post Office,495671,,CHAMPA,JANJGIR-CHAMPA,CHATTISGARH,BILASPUR,RAIPUR,CHATTISGARH
Hathnewra B.O,Branch Post Office,495671,,CHAMPA,JANJGIR-CHAMPA,CHATTISGARH,BILASPUR,RAIPUR,CHATTISGARH
Karainara B.O,Branch Post Office,495671,,CHAMPA,JANJGIR-CHAMPA,CHATTISGARH,BILASPUR,RAIPUR,CHATTISGARH
Katrenagar B.O,Branch Post Office,495671,,CHAMPA,JANJGIR-CHAMPA,CHATTISGARH,BILASPUR,RAIPUR,CHATTISGARH
Kosmanda B.O,Branch Post Office,495671,,CHAMPA,JANJGIR-CHAMPA,CHATTISGARH,BILASPUR,RAIPUR,CHATTISGARH
Kothari B.O,Branch Post Office,495671,,CHAMPA,JANJGIR-CHAMPA,CHATTISGARH,BILASPUR,RAIPUR,CHATTISGARH
Kurda B.O,Branch Post Office,495671,,CHAMPA,JANJGIR-CHAMPA,CHATTISGARH,BILASPUR,RAIPUR,CHATTISGARH
Mahuda B.O,Branch Post Office,495671,,CHAMPA,JANJGIR-CHAMPA,CHATTISGARH,BILASPUR,RAIPUR,CHATTISGARH
Pathiapali B.O,Branch Post Office,495671,,CHAMPA,JANJGIR-CHAMPA,CHATTISGARH,BILASPUR,RAIPUR,CHATTISGARH
Pisaud B.O,Branch Post Office,495671,,CHAMPA,JANJGIR-CHAMPA,CHATTISGARH,BILASPUR,RAIPUR,CHATTISGARH
Pithampur B.O,Branch Post Office,495671,,CHAMPA,JANJGIR-CHAMPA,CHATTISGARH,BILASPUR,RAIPUR,CHATTISGARH
Seoni B.O,Branch Post Office,495671,,CHAMPA,JANJGIR-CHAMPA,CHATTISGARH,BILASPUR,RAIPUR,CHATTISGARH
Sohagpur B.O,Branch Post Office,495671,,CHAMPA,JANJGIR-CHAMPA,CHATTISGARH,BILASPUR,RAIPUR,CHATTISGARH
Sukhrikala B.O,Branch Post Office,495671,,CHAMPA,JANJGIR-CHAMPA,CHATTISGARH,BILASPUR,RAIPUR,CHATTISGARH
Umreli B.O,Branch Post Office,495671,,CHAMPA,JANJGIR-CHAMPA,CHATTISGARH,BILASPUR,RAIPUR,CHATTISGARH
Akoljamora B.O,Branch Post Office,495692,,CHANDRAPUR,JANJGIR-CHAMPA,CHATTISGARH,BILASPUR,RAIPUR,CHATTISGARH
Amaldiha B.O,Branch Post Office,495692,,CHANDRAPUR,JANJGIR-CHAMPA,CHATTISGARH,BILASPUR,RAIPUR,CHATTISGARH
Baghod B.O,Branch Post Office,495692,,CHANDRAPUR,JANJGIR-CHAMPA,CHATTISGARH,BILASPUR,RAIPUR,CHATTISGARH
Balpur B.O,Branch Post Office,495692,,CHANDRAPUR,JANJGIR-CHAMPA,CHATTISGARH,BILASPUR,RAIPUR,CHATTISGARH
Barapipar B.O,Branch Post Office,495692,,CHANDRAPUR,JANJGIR-CHAMPA,CHATTISGARH,BILASPUR,RAIPUR,CHATTISGARH
Dhurkot B.O,Branch Post Office,495692,,CHANDRAPUR,JANJGIR-CHAMPA,CHATTISGARH,BILASPUR,RAIPUR,CHATTISGARH
Girgira B.O,Branch Post Office,495692,,CHANDRAPUR,JANJGIR-CHAMPA,CHATTISGARH,BILASPUR,RAIPUR,CHATTISGARH
Gopalpur B.O,Branch Post Office,495692,,CHANDRAPUR,JANJGIR-CHAMPA,CHATTISGARH,BILASPUR,RAIPUR,CHATTISGARH
Jawali B.O,Branch Post Office,495692,,CHANDRAPUR,JANJGIR-CHAMPA,CHATTISGARH,BILASPUR,RAIPUR,CHATTISGARH
Kirari B.O,Branch Post Office,495692,,CHANDRAPUR,JANJGIR-CHAMPA,CHATTISGARH,BILASPUR,RAIPUR,CHATTISGARH
Kotmi B.O,Branch Post Office,495692,,CHANDRAPUR,JANJGIR-CHAMPA,CHATTISGARH,BILASPUR,RAIPUR,CHATTISGARH
Latesara B.O,Branch Post Office,495692,,CHANDRAPUR,JANJGIR-CHAMPA,CHATTISGARH,BILASPUR,RAIPUR,CHATTISGARH
Madwa B.O,Branch Post Office,495692,,CHANDRAPUR,JANJGIR-CHAMPA,CHATTISGARH,BILASPUR,RAIPUR,CHATTISGARH
Pendarwa B.O,Branch Post Office,495692,,CHANDRAPUR,JANJGIR-CHAMPA,CHATTISGARH,BILASPUR,RAIPUR,CHATTISGARH
Reda B.O,Branch Post Office,495692,,CHANDRAPUR,JANJGIR-CHAMPA,CHATTISGARH,BILASPUR,RAIPUR,CHATTISGARH
Salhe B.O,Branch Post Office,495692,,CHANDRAPUR,JANJGIR-CHAMPA,CHATTISGARH,BILASPUR,RAIPUR,CHATTISGARH
Sapos B.O,Branch Post Office,495692,,CHANDRAPUR,JANJGIR-CHAMPA,CHATTISGARH,BILASPUR,RAIPUR,CHATTISGARH
Chandrapur S.O,Sub Post Office,495692,07758-264730,DABHRA,JANJGIR-CHAMPA,CHATTISGARH,BILASPUR,RAIPUR,CHATTISGARH
Chhotekatekoni B.O,Branch Post Office,495688,,DABHRA,JANJGIR-CHAMPA,CHATTISGARH,BILASPUR,RAIPUR,CHATTISGARH
Churaghata B.O,Branch Post Office,495688,,DABHRA,JANJGIR-CHAMPA,CHATTISGARH,BILASPUR,RAIPUR,CHATTISGARH
Churtela B.O,Branch Post Office,495688,,DABHRA,JANJGIR-CHAMPA,CHATTISGARH,BILASPUR,RAIPUR,CHATTISGARH
Dabhra S.O,Sub Post Office,495688,07758-273230,DABHRA,JANJGIR-CHAMPA,CHATTISGARH,BILASPUR,RAIPUR,CHATTISGARH
Deorghata B.O,Branch Post Office,495688,,DABHRA,JANJGIR-CHAMPA,CHATTISGARH,BILASPUR,RAIPUR,CHATTISGARH
Faraswani B.O,Branch Post Office,495688,,DABHRA,JANJGIR-CHAMPA,CHATTISGARH,BILASPUR,RAIPUR,CHATTISGARH
Kansa B.O,Branch Post Office,495688,,DABHRA,JANJGIR-CHAMPA,CHATTISGARH,BILASPUR,RAIPUR,CHATTISGARH
Kawaljhar B.O,Branch Post Office,495688,,DABHRA,JANJGIR-CHAMPA,CHATTISGARH,BILASPUR,RAIPUR,CHATTISGARH
Khondhar B.O,Branch Post Office,495688,,DABHRA,JANJGIR-CHAMPA,CHATTISGARH,BILASPUR,RAIPUR,CHATTISGARH
Sakreli B.O,Branch Post Office,495688,,DABHRA,JANJGIR-CHAMPA,CHATTISGARH,BILASPUR,RAIPUR,CHATTISGARH
Saraskela B.O,Branch Post Office,495688,,DABHRA,JANJGIR-CHAMPA,CHATTISGARH,BILASPUR,RAIPUR,CHATTISGARH
Sukhapali B.O,Branch Post Office,495688,,DABHRA,JANJGIR-CHAMPA,CHATTISGARH,BILASPUR,RAIPUR,CHATTISGARH
Sukhda B.O,Branch Post Office,495688,,DABHRA,JANJGIR-CHAMPA,CHATTISGARH,BILASPUR,RAIPUR,CHATTISGARH
Amora B.O,Branch Post Office,495663,,GOPALNAGAR,JANJGIR-CHAMPA,CHATTISGARH,BILASPUR,RAIPUR,CHATTISGARH
Konar B.O,Branch Post Office,495663,,GOPALNAGAR,JANJGIR-CHAMPA,CHATTISGARH,BILASPUR,RAIPUR,CHATTISGARH
Kosa B.O,Branch Post Office,495663,,GOPALNAGAR,JANJGIR-CHAMPA,CHATTISGARH,BILASPUR,RAIPUR,CHATTISGARH
Mulmula B.O,Branch Post Office,495663,,GOPALNAGAR,JANJGIR-CHAMPA,CHATTISGARH,BILASPUR,RAIPUR,CHATTISGARH
Akaltara S.O,Sub Post Office,495552,07817-252250,JANJGIR,JANJGIR-CHAMPA,CHATTISGARH,BILASPUR,RAIPUR,CHATTISGARH
Akaltari B.O,Branch Post Office,495668,,JANJGIR,JANJGIR-CHAMPA,CHATTISGARH,BILASPUR,RAIPUR,CHATTISGARH
Amoda B.O,Branch Post Office,495668,,JANJGIR,JANJGIR-CHAMPA,CHATTISGARH,BILASPUR,RAIPUR,CHATTISGARH
Amora B.O,Branch Post Office,495668,,JANJGIR,JANJGIR-CHAMPA,CHATTISGARH,BILASPUR,RAIPUR,CHATTISGARH
Banari B.O,Branch Post Office,495668,,JANJGIR,JANJGIR-CHAMPA,CHATTISGARH,BILASPUR,RAIPUR,CHATTISGARH
Bhainstara B.O,Branch Post Office,495668,,JANJGIR,JANJGIR-CHAMPA,CHATTISGARH,BILASPUR,RAIPUR,CHATTISGARH
Bodsara B.O,Branch Post Office,495668,,JANJGIR,JANJGIR-CHAMPA,CHATTISGARH,BILASPUR,RAIPUR,CHATTISGARH
Cci Akaltara S.O,Sub Post Office,495549,07817-252250,JANJGIR,JANJGIR-CHAMPA,CHATTISGARH,BILASPUR,RAIPUR,CHATTISGARH
Dhaneli B.O,Branch Post Office,495668,,JANJGIR,JANJGIR-CHAMPA,CHATTISGARH,BILASPUR,RAIPUR,CHATTISGARH
Dharasiv B.O,Branch Post Office,495668,,JANJGIR,JANJGIR-CHAMPA,CHATTISGARH,BILASPUR,RAIPUR,CHATTISGARH
Dhurkot B.O,Branch Post Office,495668,,JANJGIR,JANJGIR-CHAMPA,CHATTISGARH,BILASPUR,RAIPUR,CHATTISGARH
Hardi (S) B.O,Branch Post Office,495668,,JANJGIR,JANJGIR-CHAMPA,CHATTISGARH,BILASPUR,RAIPUR,CHATTISGARH
Jaijaipur S.O,Sub Post Office,495690,07757-263659,JANJGIR,JANJGIR-CHAMPA,CHATTISGARH,BILASPUR,RAIPUR,CHATTISGARH
Janjgir S.O,Sub Post Office,495668,07817-223817,JANJGIR,JANJGIR-CHAMPA,CHATTISGARH,BILASPUR,RAIPUR,CHATTISGARH
Jarwe B.O,Branch Post Office,495668,,JANJGIR,JANJGIR-CHAMPA,CHATTISGARH,BILASPUR,RAIPUR,CHATTISGARH
Khaija B.O,Branch Post Office,495668,,JANJGIR,JANJGIR-CHAMPA,CHATTISGARH,BILASPUR,RAIPUR,CHATTISGARH
Khokhra B.O,Branch Post Office,495668,,JANJGIR,JANJGIR-CHAMPA,CHATTISGARH,BILASPUR,RAIPUR,CHATTISGARH
Khokhsa B.O,Branch Post Office,495668,,JANJGIR,JANJGIR-CHAMPA,CHATTISGARH,BILASPUR,RAIPUR,CHATTISGARH
Kuthur B.O,Branch Post Office,495668,,JANJGIR,JANJGIR-CHAMPA,CHATTISGARH,BILASPUR,RAIPUR,CHATTISGARH
Kutra B.O,Branch Post Office,495668,,JANJGIR,JANJGIR-CHAMPA,CHATTISGARH,BILASPUR,RAIPUR,CHATTISGARH
Mahant B.O,Branch Post Office,495668,,JANJGIR,JANJGIR-CHAMPA,CHATTISGARH,BILASPUR,RAIPUR,CHATTISGARH
Munund B.O,Branch Post Office,495668,,JANJGIR,JANJGIR-CHAMPA,CHATTISGARH,BILASPUR,RAIPUR,CHATTISGARH
Naila R.S. S.O,Sub Post Office,495668,07817-222264,JANJGIR,JANJGIR-CHAMPA,CHATTISGARH,BILASPUR,RAIPUR,CHATTISGARH
Nariyara S.O,Sub Post Office,495553,07817-253635,JANJGIR,JANJGIR-CHAMPA,CHATTISGARH,BILASPUR,RAIPUR,CHATTISGARH
Paharia B.O,Branch Post Office,495668,,JANJGIR,JANJGIR-CHAMPA,CHATTISGARH,BILASPUR,RAIPUR,CHATTISGARH
Pendri B.O,Branch Post Office,495668,,JANJGIR,JANJGIR-CHAMPA,CHATTISGARH,BILASPUR,RAIPUR,CHATTISGARH
Sarkhon B.O,Branch Post Office,495668,,JANJGIR,JANJGIR-CHAMPA,CHATTISGARH,BILASPUR,RAIPUR,CHATTISGARH
Semra B.O,Branch Post Office,495668,,JANJGIR,JANJGIR-CHAMPA,CHATTISGARH,BILASPUR,RAIPUR,CHATTISGARH
Seoni B.O,Branch Post Office,495668,,JANJGIR,JANJGIR-CHAMPA,CHATTISGARH,BILASPUR,RAIPUR,CHATTISGARH
Siud B.O,Branch Post Office,495668,,JANJGIR,JANJGIR-CHAMPA,CHATTISGARH,BILASPUR,RAIPUR,CHATTISGARH
Sukli B.O,Branch Post Office,495668,,JANJGIR,JANJGIR-CHAMPA,CHATTISGARH,BILASPUR,RAIPUR,CHATTISGARH
Taga B.O,Branch Post Office,495668,,JANJGIR,JANJGIR-CHAMPA,CHATTISGARH,BILASPUR,RAIPUR,CHATTISGARH
Tilai B.O,Branch Post Office,495668,,JANJGIR,JANJGIR-CHAMPA,CHATTISGARH,BILASPUR,RAIPUR,CHATTISGARH
Bilari B.O,Branch Post Office,495556,,KHAROD,JANJGIR-CHAMPA,CHATTISGARH,BILASPUR,RAIPUR,CHATTISGARH
Borda B.O,Branch Post Office,495556,,KHAROD,JANJGIR-CHAMPA,CHATTISGARH,BILASPUR,RAIPUR,CHATTISGARH
Borda B.O,Branch Post Office,495556,,KHAROD,JANJGIR-CHAMPA,CHATTISGARH,BILASPUR,RAIPUR,CHATTISGARH
Bundela B.O,Branch Post Office,495556,,KHAROD,JANJGIR-CHAMPA,CHATTISGARH,BILASPUR,RAIPUR,CHATTISGARH
Dhardei B.O,Branch Post Office,495556,,KHAROD,JANJGIR-CHAMPA,CHATTISGARH,BILASPUR,RAIPUR,CHATTISGARH
Godhna B.O,Branch Post Office,495556,,KHAROD,JANJGIR-CHAMPA,CHATTISGARH,BILASPUR,RAIPUR,CHATTISGARH
Kachanda B.O,Branch Post Office,495556,,KHAROD,JANJGIR-CHAMPA,CHATTISGARH,BILASPUR,RAIPUR,CHATTISGARH
Khisora B.O,Branch Post Office,495556,,KHAROD,JANJGIR-CHAMPA,CHATTISGARH,BILASPUR,RAIPUR,CHATTISGARH
Khorsi B.O,Branch Post Office,495556,,KHAROD,JANJGIR-CHAMPA,CHATTISGARH,BILASPUR,RAIPUR,CHATTISGARH
Loharsi B.O,Branch Post Office,495556,,KHAROD,JANJGIR-CHAMPA,CHATTISGARH,BILASPUR,RAIPUR,CHATTISGARH
Rahod B.O,Branch Post Office,495556,,KHAROD,JANJGIR-CHAMPA,CHATTISGARH,BILASPUR,RAIPUR,CHATTISGARH
Salkhan B.O,Branch Post Office,495556,,KHAROD,JANJGIR-CHAMPA,CHATTISGARH,BILASPUR,RAIPUR,CHATTISGARH
Tanod B.O,Branch Post Office,495556,,KHAROD,JANJGIR-CHAMPA,CHATTISGARH,BILASPUR,RAIPUR,CHATTISGARH
Tiwaripara B.O,Branch Post Office,495556,,KHAROD,JANJGIR-CHAMPA,CHATTISGARH,BILASPUR,RAIPUR,CHATTISGARH
Adbhar S.O,Sub Post Office,495695,07757-279206,MALKHARODA,JANJGIR-CHAMPA,CHATTISGARH,BILASPUR,RAIPUR,CHATTISGARH
Basin B.O,Branch Post Office,495691,,MALKHARODA,JANJGIR-CHAMPA,CHATTISGARH,BILASPUR,RAIPUR,CHATTISGARH
Malkharoda S.O,Sub Post Office,495691,07758-272426,MALKHARODA,JANJGIR-CHAMPA,CHATTISGARH,BILASPUR,RAIPUR,CHATTISGARH
Pandadah B.O,Branch Post Office,491881,,KHAIRAGARH RAJ,RAJNANDGAON,CHATTISGARH,DURG,RAIPUR,CHATTISGARH
Piparia B.O,Branch Post Office,491881,,KHAIRAGARH RAJ,RAJNANDGAON,CHATTISGARH,DURG,RAIPUR,CHATTISGARH
Singarghat B.O,Branch Post Office,491881,,KHAIRAGARH RAJ,RAJNANDGAON,CHATTISGARH,DURG,RAIPUR,CHATTISGARH
Aundhi B.O,Branch Post Office,491229,,MANPUR,RAJNANDGAON,CHATTISGARH,DURG,RAIPUR,CHATTISGARH
Bharritola B.O,Branch Post Office,491229,,MANPUR,RAJNANDGAON,CHATTISGARH,DURG,RAIPUR,CHATTISGARH
Bhawsha B.O,Branch Post Office,491229,,MANPUR,RAJNANDGAON,CHATTISGARH,DURG,RAIPUR,CHATTISGARH
Dhokla B.O,Branch Post Office,491229,,MANPUR,RAJNANDGAON,CHATTISGARH,DURG,RAIPUR,CHATTISGARH
Dighwadi B.O,Branch Post Office,491229,,MANPUR,RAJNANDGAON,CHATTISGARH,DURG,RAIPUR,CHATTISGARH
Ghotia B.O,Branch Post Office,491229,,MANPUR,RAJNANDGAON,CHATTISGARH,DURG,RAIPUR,CHATTISGARH
Kandadi B.O,Branch Post Office,491229,,MANPUR,RAJNANDGAON,CHATTISGARH,DURG,RAIPUR,CHATTISGARH
Khadgaon B.O,Branch Post Office,491229,,MANPUR,RAJNANDGAON,CHATTISGARH,DURG,RAIPUR,CHATTISGARH
Kumhari B.O,Branch Post Office,491229,,MANPUR,RAJNANDGAON,CHATTISGARH,DURG,RAIPUR,CHATTISGARH
Manpur S.O,Sub Post Office,491229,07746-222498,MANPUR,RAJNANDGAON,CHATTISGARH,DURG,RAIPUR,CHATTISGARH
Nawagaon B.O,Branch Post Office,491229,,MANPUR,RAJNANDGAON,CHATTISGARH,DURG,RAIPUR,CHATTISGARH
Nedgaon B.O,Branch Post Office,491229,,MANPUR,RAJNANDGAON,CHATTISGARH,DURG,RAIPUR,CHATTISGARH
Sarkheda B.O,Branch Post Office,491229,,MANPUR,RAJNANDGAON,CHATTISGARH,DURG,RAIPUR,CHATTISGARH
Seoni B.O,Branch Post Office,491229,,MANPUR,RAJNANDGAON,CHATTISGARH,DURG,RAIPUR,CHATTISGARH
Sitagaon B.O,Branch Post Office,491229,,MANPUR,RAJNANDGAON,CHATTISGARH,DURG,RAIPUR,CHATTISGARH
Teregaon B.O,Branch Post Office,491229,,MANPUR,RAJNANDGAON,CHATTISGARH,DURG,RAIPUR,CHATTISGARH
Tohe B.O,Branch Post Office,491229,,MANPUR,RAJNANDGAON,CHATTISGARH,DURG,RAIPUR,CHATTISGARH
Alkanhar B.O,Branch Post Office,491666,,MOHLA,RAJNANDGAON,CHATTISGARH,DURG,RAIPUR,CHATTISGARH
Dumartola B.O,Branch Post Office,491666,,MOHLA,RAJNANDGAON,CHATTISGARH,DURG,RAIPUR,CHATTISGARH
Gotatola B.O,Branch Post Office,491666,,MOHLA,RAJNANDGAON,CHATTISGARH,DURG,RAIPUR,CHATTISGARH
Kakaipar B.O,Branch Post Office,491666,,MOHLA,RAJNANDGAON,CHATTISGARH,DURG,RAIPUR,CHATTISGARH
Kandadi B.O,Branch Post Office,491666,,MOHLA,RAJNANDGAON,CHATTISGARH,DURG,RAIPUR,CHATTISGARH
Kande B.O,Branch Post Office,491666,,MOHLA,RAJNANDGAON,CHATTISGARH,DURG,RAIPUR,CHATTISGARH
Korramtola B.O,Branch Post Office,491666,,MOHLA,RAJNANDGAON,CHATTISGARH,DURG,RAIPUR,CHATTISGARH
Kumhali B.O,Branch Post Office,491666,,MOHLA,RAJNANDGAON,CHATTISGARH,DURG,RAIPUR,CHATTISGARH
Mohla S.O,Sub Post Office,491666,07747-232281,MOHLA,RAJNANDGAON,CHATTISGARH,DURG,RAIPUR,CHATTISGARH
Mukadah B.O,Branch Post Office,491666,,MOHLA,RAJNANDGAON,CHATTISGARH,DURG,RAIPUR,CHATTISGARH
Panbaras B.O,Branch Post Office,491666,,MOHLA,RAJNANDGAON,CHATTISGARH,DURG,RAIPUR,CHATTISGARH
Rengakathera B.O,Branch Post Office,491666,,MOHLA,RAJNANDGAON,CHATTISGARH,DURG,RAIPUR,CHATTISGARH
Somatola B.O,Branch Post Office,491666,,MOHLA,RAJNANDGAON,CHATTISGARH,DURG,RAIPUR,CHATTISGARH
Arjuni B.O,Branch Post Office,491441,,RAJNANDGAON,RAJNANDGAON,CHATTISGARH,DURG,RAIPUR,CHATTISGARH
Baghera B.O,Branch Post Office,491441,,RAJNANDGAON,RAJNANDGAON,CHATTISGARH,DURG,RAIPUR,CHATTISGARH
Bajrangpur Nawagaon B.O,Branch Post Office,491441,,RAJNANDGAON,RAJNANDGAON,CHATTISGARH,DURG,RAIPUR,CHATTISGARH
Bakal B.O,Branch Post Office,491441,,RAJNANDGAON,RAJNANDGAON,CHATTISGARH,DURG,RAIPUR,CHATTISGARH
Bazar Rajnadngaon S.O,Sub Post Office,491441,07744-221602,RAJNANDGAON,RAJNANDGAON,CHATTISGARH,DURG,RAIPUR,CHATTISGARH
Bhainstara B.O,Branch Post Office,491444,,RAJNANDGAON,RAJNANDGAON,CHATTISGARH,DURG,RAIPUR,CHATTISGARH
Bharregaon B.O,Branch Post Office,491441,,RAJNANDGAON,RAJNANDGAON,CHATTISGARH,DURG,RAIPUR,CHATTISGARH
Bhedikala B.O,Branch Post Office,491441,,RAJNANDGAON,RAJNANDGAON,CHATTISGARH,DURG,RAIPUR,CHATTISGARH
Bijetala B.O,Branch Post Office,491444,,RAJNANDGAON,RAJNANDGAON,CHATTISGARH,DURG,RAIPUR,CHATTISGARH
Bori B.O,Branch Post Office,491441,,RAJNANDGAON,RAJNANDGAON,CHATTISGARH,DURG,RAIPUR,CHATTISGARH
Dhangaon B.O,Branch Post Office,491441,,RAJNANDGAON,RAJNANDGAON,CHATTISGARH,DURG,RAIPUR,CHATTISGARH
Dilapahari B.O,Branch Post Office,491441,,RAJNANDGAON,RAJNANDGAON,CHATTISGARH,DURG,RAIPUR,CHATTISGARH
Dumardihkhurd B.O,Branch Post Office,491441,,RAJNANDGAON,RAJNANDGAON,CHATTISGARH,DURG,RAIPUR,CHATTISGARH
G G Chowk Rajnandgaon S.O,Sub Post Office,491441,,RAJNANDGAON,RAJNANDGAON,CHATTISGARH,DURG,RAIPUR,CHATTISGARH
Gataparkala B.O,Branch Post Office,491444,,RAJNANDGAON,RAJNANDGAON,CHATTISGARH,DURG,RAIPUR,CHATTISGARH
Ghumka S.O,Sub Post Office,491444,,RAJNANDGAON,RAJNANDGAON,CHATTISGARH,DURG,RAIPUR,CHATTISGARH
Jangalpur B.O,Branch Post Office,491441,,RAJNANDGAON,RAJNANDGAON,CHATTISGARH,DURG,RAIPUR,CHATTISGARH
Kanharpuri B.O,Branch Post Office,491441,,RAJNANDGAON,RAJNANDGAON,CHATTISGARH,DURG,RAIPUR,CHATTISGARH
Karamtaa B.O,Branch Post Office,491441,,RAJNANDGAON,RAJNANDGAON,CHATTISGARH,DURG,RAIPUR,CHATTISGARH
Khaprikhurd B.O,Branch Post Office,491441,,RAJNANDGAON,RAJNANDGAON,CHATTISGARH,DURG,RAIPUR,CHATTISGARH
Lakholi B.O,Branch Post Office,491441,,RAJNANDGAON,RAJNANDGAON,CHATTISGARH,DURG,RAIPUR,CHATTISGARH
Mahrumkala B.O,Branch Post Office,491444,,RAJNANDGAON,RAJNANDGAON,CHATTISGARH,DURG,RAIPUR,CHATTISGARH
Mangata B.O,Branch Post Office,491441,,RAJNANDGAON,RAJNANDGAON,CHATTISGARH,DURG,RAIPUR,CHATTISGARH
Mohara B.O,Branch Post Office,491441,,RAJNANDGAON,RAJNANDGAON,CHATTISGARH,DURG,RAIPUR,CHATTISGARH
Nagaldah B.O,Branch Post Office,491444,,RAJNANDGAON,RAJNANDGAON,CHATTISGARH,DURG,RAIPUR,CHATTISGARH
Padumtaa B.O,Branch Post Office,491441,,RAJNANDGAON,RAJNANDGAON,CHATTISGARH,DURG,RAIPUR,CHATTISGARH
Paneka B.O,Branch Post Office,491441,,RAJNANDGAON,RAJNANDGAON,CHATTISGARH,DURG,RAIPUR,CHATTISGARH
Patewa B.O,Branch Post Office,491444,,RAJNANDGAON,RAJNANDGAON,CHATTISGARH,DURG,RAIPUR,CHATTISGARH
Pendri B.O,Branch Post Office,491441,,RAJNANDGAON,RAJNANDGAON,CHATTISGARH,DURG,RAIPUR,CHATTISGARH
Rajnandgaon H.O,Head Post Office,491441,07744-224016,RAJNANDGAON,RAJNANDGAON,CHATTISGARH,DURG,RAIPUR,CHATTISGARH
Rajnandgaon Kutchery S.O,Sub Post Office,491441,07744-229853,RAJNANDGAON,RAJNANDGAON,CHATTISGARH,DURG,RAIPUR,CHATTISGARH
Rajnandgaon Stadium S.O,Sub Post Office,491441,07744-281250,RAJNANDGAON,RAJNANDGAON,CHATTISGARH,DURG,RAIPUR,CHATTISGARH
Rengakathera B.O,Branch Post Office,491441,,RAJNANDGAON,RAJNANDGAON,CHATTISGARH,DURG,RAIPUR,CHATTISGARH
Saloni B.O,Branch Post Office,491444,,RAJNANDGAON,RAJNANDGAON,CHATTISGARH,DURG,RAIPUR,CHATTISGARH
Singarpur B.O,Branch Post Office,491444,,RAJNANDGAON,RAJNANDGAON,CHATTISGARH,DURG,RAIPUR,CHATTISGARH
Singhola B.O,Branch Post Office,491441,,RAJNANDGAON,RAJNANDGAON,CHATTISGARH,DURG,RAIPUR,CHATTISGARH
Somni B.O,Branch Post Office,491441,,RAJNANDGAON,RAJNANDGAON,CHATTISGARH,DURG,RAIPUR,CHATTISGARH
Surgi B.O,Branch Post Office,491441,,RAJNANDGAON,RAJNANDGAON,CHATTISGARH,DURG,RAIPUR,CHATTISGARH
Tedesara B.O,Branch Post Office,491441,,RAJNANDGAON,RAJNANDGAON,CHATTISGARH,DURG,RAIPUR,CHATTISGARH
Tumdibod B.O,Branch Post Office,491441,,RAJNANDGAON,RAJNANDGAON,CHATTISGARH,DURG,RAIPUR,CHATTISGARH
Uparwah B.O,Branch Post Office,491444,,RAJNANDGAON,RAJNANDGAON,CHATTISGARH,DURG,RAIPUR,CHATTISGARH
Ramanujganj S.O,Sub Post Office,497220,07779-276531,-,SURGUJA,CHATTISGARH,RAIGARH,RAIPUR,CHATTISGARH
Baneya B.O,Branch Post Office,497114,, SURGUJA,SURGUJA,CHATTISGARH,RAIGARH,RAIPUR,CHATTISGARH
Barion B.O,Branch Post Office,497001,,"A,MBIKAPUR",SURGUJA,CHATTISGARH,RAIGARH,RAIPUR,CHATTISGARH
Sakalo B.O,Branch Post Office,497001,,"A,MBIKAPUR",SURGUJA,CHATTISGARH,RAIGARH,RAIPUR,CHATTISGARH
Ajabnagar B.O,Branch Post Office,497001,,AMBIKAPUR,SURGUJA,CHATTISGARH,RAIGARH,RAIPUR,CHATTISGARH
Ambikapur Nyalaya S.O,Sub Post Office,497001,07774-222366,AMBIKAPUR,SURGUJA,CHATTISGARH,RAIGARH,RAIPUR,CHATTISGARH
Ambikapur Town S.O,Sub Post Office,497001,07774-222364,AMBIKAPUR,SURGUJA,CHATTISGARH,RAIGARH,RAIPUR,CHATTISGARH
Arabalrampur B.O,Branch Post Office,497001,,AMBIKAPUR,SURGUJA,CHATTISGARH,RAIGARH,RAIPUR,CHATTISGARH
Baghima B.O,Branch Post Office,497001,,AMBIKAPUR,SURGUJA,CHATTISGARH,RAIGARH,RAIPUR,CHATTISGARH
Bardar B.O,Branch Post Office,497119,,AMBIKAPUR,SURGUJA,CHATTISGARH,RAIGARH,RAIPUR,CHATTISGARH
Bargwan B.O,Branch Post Office,497001,,AMBIKAPUR,SURGUJA,CHATTISGARH,RAIGARH,RAIPUR,CHATTISGARH
Baskepi B.O,Branch Post Office,497119,,AMBIKAPUR,SURGUJA,CHATTISGARH,RAIGARH,RAIPUR,CHATTISGARH
Bhithi B.O,Branch Post Office,497001,,AMBIKAPUR,SURGUJA,CHATTISGARH,RAIGARH,RAIPUR,CHATTISGARH
Chando B.O,Branch Post Office,497119,,AMBIKAPUR,SURGUJA,CHATTISGARH,RAIGARH,RAIPUR,CHATTISGARH
Darima B.O,Branch Post Office,497001,,AMBIKAPUR,SURGUJA,CHATTISGARH,RAIGARH,RAIPUR,CHATTISGARH
Dhandhapur B.O,Branch Post Office,497001,,AMBIKAPUR,SURGUJA,CHATTISGARH,RAIGARH,RAIPUR,CHATTISGARH
Fundul Dihari S.O,Sub Post Office,497001,07774-230149,AMBIKAPUR,SURGUJA,CHATTISGARH,RAIGARH,RAIPUR,CHATTISGARH
Kakna B.O,Branch Post Office,497001,,AMBIKAPUR,SURGUJA,CHATTISGARH,RAIGARH,RAIPUR,CHATTISGARH
Kalyanpur B.O,Branch Post Office,497001,,AMBIKAPUR,SURGUJA,CHATTISGARH,RAIGARH,RAIPUR,CHATTISGARH
Karjee B.O,Branch Post Office,497001,,AMBIKAPUR,SURGUJA,CHATTISGARH,RAIGARH,RAIPUR,CHATTISGARH
Karwan B.O,Branch Post Office,497001,,AMBIKAPUR,SURGUJA,CHATTISGARH,RAIGARH,RAIPUR,CHATTISGARH
Kundikala B.O,Branch Post Office,497001,,AMBIKAPUR,SURGUJA,CHATTISGARH,RAIGARH,RAIPUR,CHATTISGARH
Latori B.O,Branch Post Office,497001,,AMBIKAPUR,SURGUJA,CHATTISGARH,RAIGARH,RAIPUR,CHATTISGARH
Maharajganj B.O,Branch Post Office,497119,,AMBIKAPUR,SURGUJA,CHATTISGARH,RAIGARH,RAIPUR,CHATTISGARH
Nandamali B.O,Branch Post Office,497001,,AMBIKAPUR,SURGUJA,CHATTISGARH,RAIGARH,RAIPUR,CHATTISGARH
Nawanagar B.O,Branch Post Office,497001,,AMBIKAPUR,SURGUJA,CHATTISGARH,RAIGARH,RAIPUR,CHATTISGARH
Parsa B.O,Branch Post Office,497001,,AMBIKAPUR,SURGUJA,CHATTISGARH,RAIGARH,RAIPUR,CHATTISGARH
Pratapgarh S.O,Sub Post Office,497114,07834-285521,AMBIKAPUR,SURGUJA,CHATTISGARH,RAIGARH,RAIPUR,CHATTISGARH
Raghavpuri B.O,Branch Post Office,497001,,AMBIKAPUR,SURGUJA,CHATTISGARH,RAIGARH,RAIPUR,CHATTISGARH
Rajpur (SIJ) S.O,Sub Post Office,497118,07832-272500,AMBIKAPUR,SURGUJA,CHATTISGARH,RAIGARH,RAIPUR,CHATTISGARH
Sakhari B.O,Branch Post Office,497001,,AMBIKAPUR,SURGUJA,CHATTISGARH,RAIGARH,RAIPUR,CHATTISGARH
Sakholi B.O,Branch Post Office,497001,,AMBIKAPUR,SURGUJA,CHATTISGARH,RAIGARH,RAIPUR,CHATTISGARH
Sendur B.O,Branch Post Office,497119,,AMBIKAPUR,SURGUJA,CHATTISGARH,RAIGARH,RAIPUR,CHATTISGARH
Shahpur B.O,Branch Post Office,497119,,AMBIKAPUR,SURGUJA,CHATTISGARH,RAIGARH,RAIPUR,CHATTISGARH
Silphili B.O,Branch Post Office,497001,,AMBIKAPUR,SURGUJA,CHATTISGARH,RAIGARH,RAIPUR,CHATTISGARH
Songara B.O,Branch Post Office,497001,,AMBIKAPUR,SURGUJA,CHATTISGARH,RAIGARH,RAIPUR,CHATTISGARH
Ambikapur H.O,Head Post Office,497001,07774-220952,AMBIKAPUR HO,SURGUJA,CHATTISGARH,RAIGARH,RAIPUR,CHATTISGARH
Balrampur S.O,Sub Post Office,497119,07831-273962,BALRAMPUR,SURGUJA,CHATTISGARH,RAIGARH,RAIPUR,CHATTISGARH
Bhulsikala B.O,Branch Post Office,497224,,KUSMI,SURGUJA,CHATTISGARH,RAIGARH,RAIPUR,CHATTISGARH
Dumarkhola B.O,Branch Post Office,497224,,KUSMI,SURGUJA,CHATTISGARH,RAIGARH,RAIPUR,CHATTISGARH
Gajadharpur B.O,Branch Post Office,497224,,KUSMI,SURGUJA,CHATTISGARH,RAIGARH,RAIPUR,CHATTISGARH
Jamirapath B.O,Branch Post Office,497224,,KUSMI,SURGUJA,CHATTISGARH,RAIGARH,RAIPUR,CHATTISGARH
Jawaharnagar B.O,Branch Post Office,497224,,KUSMI,SURGUJA,CHATTISGARH,RAIGARH,RAIPUR,CHATTISGARH
Karoundha B.O,Branch Post Office,497224,,KUSMI,SURGUJA,CHATTISGARH,RAIGARH,RAIPUR,CHATTISGARH
Katima B.O,Branch Post Office,497224,,KUSMI,SURGUJA,CHATTISGARH,RAIGARH,RAIPUR,CHATTISGARH
Kusmi S.O,Sub Post Office,497224,07778-274433,KUSMI,SURGUJA,CHATTISGARH,RAIGARH,RAIPUR,CHATTISGARH
Larima B.O,Branch Post Office,497224,,KUSMI,SURGUJA,CHATTISGARH,RAIGARH,RAIPUR,CHATTISGARH
Madguri B.O,Branch Post Office,497224,,KUSMI,SURGUJA,CHATTISGARH,RAIGARH,RAIPUR,CHATTISGARH
Rehda B.O,Branch Post Office,497224,,KUSMI,SURGUJA,CHATTISGARH,RAIGARH,RAIPUR,CHATTISGARH
Sabag B.O,Branch Post Office,497224,,KUSMI,SURGUJA,CHATTISGARH,RAIGARH,RAIPUR,CHATTISGARH
Samri B.O,Branch Post Office,497224,,KUSMI,SURGUJA,CHATTISGARH,RAIGARH,RAIPUR,CHATTISGARH
Umko B.O,Branch Post Office,497224,,KUSMI,SURGUJA,CHATTISGARH,RAIGARH,RAIPUR,CHATTISGARH
Arooti B.O,Branch Post Office,497116,,LAKHANPUR,SURGUJA,CHATTISGARH,RAIGARH,RAIPUR,CHATTISGARH
Dandgaon B.O,Branch Post Office,497116,,LAKHANPUR,SURGUJA,CHATTISGARH,RAIGARH,RAIPUR,CHATTISGARH
Jamdih B.O,Branch Post Office,497116,,LAKHANPUR,SURGUJA,CHATTISGARH,RAIGARH,RAIPUR,CHATTISGARH
Jamgala B.O,Branch Post Office,497116,,LAKHANPUR,SURGUJA,CHATTISGARH,RAIGARH,RAIPUR,CHATTISGARH
Kedma B.O,Branch Post Office,497116,,LAKHANPUR,SURGUJA,CHATTISGARH,RAIGARH,RAIPUR,CHATTISGARH
Khamhariya B.O,Branch Post Office,497116,,LAKHANPUR,SURGUJA,CHATTISGARH,RAIGARH,RAIPUR,CHATTISGARH
Kunni B.O,Branch Post Office,497116,,LAKHANPUR,SURGUJA,CHATTISGARH,RAIGARH,RAIPUR,CHATTISGARH
Lahpatra B.O,Branch Post Office,497116,,LAKHANPUR,SURGUJA,CHATTISGARH,RAIGARH,RAIPUR,CHATTISGARH
Lakhanpur S.O,Sub Post Office,497116,07774-261436,LAKHANPUR,SURGUJA,CHATTISGARH,RAIGARH,RAIPUR,CHATTISGARH
Laxmangarh B.O,Branch Post Office,497116,,LAKHANPUR,SURGUJA,CHATTISGARH,RAIGARH,RAIPUR,CHATTISGARH
Mahagai B.O,Branch Post Office,497116,,LAKHANPUR,SURGUJA,CHATTISGARH,RAIGARH,RAIPUR,CHATTISGARH
Salka B.O,Branch Post Office,497116,,LAKHANPUR,SURGUJA,CHATTISGARH,RAIGARH,RAIPUR,CHATTISGARH
Sayar B.O,Branch Post Office,497116,,LAKHANPUR,SURGUJA,CHATTISGARH,RAIGARH,RAIPUR,CHATTISGARH
Tara B.O,Branch Post Office,497116,,LAKHANPUR,SURGUJA,CHATTISGARH,RAIGARH,RAIPUR,CHATTISGARH
Turna B.O,Branch Post Office,497116,,LAKHANPUR,SURGUJA,CHATTISGARH,RAIGARH,RAIPUR,CHATTISGARH
Udaipur B.O,Branch Post Office,497116,,LAKHANPUR,SURGUJA,CHATTISGARH,RAIGARH,RAIPUR,CHATTISGARH
Balangi B.O,Branch Post Office,497225,,PRATAPPUR,SURGUJA,CHATTISGARH,RAIGARH,RAIPUR,CHATTISGARH
Basantpur B.O,Branch Post Office,497225,,PRATAPPUR,SURGUJA,CHATTISGARH,RAIGARH,RAIPUR,CHATTISGARH
Biharpur B.O,Branch Post Office,497225,,PRATAPPUR,SURGUJA,CHATTISGARH,RAIGARH,RAIPUR,CHATTISGARH
Birendranagar B.O,Branch Post Office,497225,,PRATAPPUR,SURGUJA,CHATTISGARH,RAIGARH,RAIPUR,CHATTISGARH
Janakpur B.O,Branch Post Office,497225,,PRATAPPUR,SURGUJA,CHATTISGARH,RAIGARH,RAIPUR,CHATTISGARH
Karamdiha B.O,Branch Post Office,497225,,PRATAPPUR,SURGUJA,CHATTISGARH,RAIGARH,RAIPUR,CHATTISGARH
Khod B.O,Branch Post Office,497225,,PRATAPPUR,SURGUJA,CHATTISGARH,RAIGARH,RAIPUR,CHATTISGARH
Mahewa B.O,Branch Post Office,497225,,PRATAPPUR,SURGUJA,CHATTISGARH,RAIGARH,RAIPUR,CHATTISGARH
Moharsop B.O,Branch Post Office,497225,,PRATAPPUR,SURGUJA,CHATTISGARH,RAIGARH,RAIPUR,CHATTISGARH
Nagoi B.O,Branch Post Office,497225,,PRATAPPUR,SURGUJA,CHATTISGARH,RAIGARH,RAIPUR,CHATTISGARH
Pasupatipur B.O,Branch Post Office,497225,,PRATAPPUR,SURGUJA,CHATTISGARH,RAIGARH,RAIPUR,CHATTISGARH
Pendri B.O,Branch Post Office,497225,,PRATAPPUR,SURGUJA,CHATTISGARH,RAIGARH,RAIPUR,CHATTISGARH
Pratappur S.O,Sub Post Office,497223,07777-271230,PRATAPPUR,SURGUJA,CHATTISGARH,RAIGARH,RAIPUR,CHATTISGARH
Raghunathnagar B.O,Branch Post Office,497225,,PRATAPPUR,SURGUJA,CHATTISGARH,RAIGARH,RAIPUR,CHATTISGARH
Salwahi B.O,Branch Post Office,497225,,PRATAPPUR,SURGUJA,CHATTISGARH,RAIGARH,RAIPUR,CHATTISGARH
Sulsuli B.O,Branch Post Office,497225,,PRATAPPUR,SURGUJA,CHATTISGARH,RAIGARH,RAIPUR,CHATTISGARH
Wadrafnagar S.O,Sub Post Office,497225,07772-277501,PRATAPPUR,SURGUJA,CHATTISGARH,RAIGARH,RAIPUR,CHATTISGARH
Gudru B.O,Branch Post Office,497225,,PRATPPUR,SURGUJA,CHATTISGARH,RAIGARH,RAIPUR,CHATTISGARH
Babouli B.O,Branch Post Office,497101,,SITAPUR,SURGUJA,CHATTISGARH,RAIGARH,RAIPUR,CHATTISGARH
Bargidih B.O,Branch Post Office,497101,,SITAPUR,SURGUJA,CHATTISGARH,RAIGARH,RAIPUR,CHATTISGARH
Bataikela B.O,Branch Post Office,497111,,SITAPUR,SURGUJA,CHATTISGARH,RAIGARH,RAIPUR,CHATTISGARH
Batouli S.O,Sub Post Office,497101,07834-269449,SITAPUR,SURGUJA,CHATTISGARH,RAIGARH,RAIPUR,CHATTISGARH
Bhusu B.O,Branch Post Office,497111,,SITAPUR,SURGUJA,CHATTISGARH,RAIGARH,RAIPUR,CHATTISGARH
Chiranga B.O,Branch Post Office,497101,,SITAPUR,SURGUJA,CHATTISGARH,RAIGARH,RAIPUR,CHATTISGARH
Deogarh B.O,Branch Post Office,497111,,SITAPUR,SURGUJA,CHATTISGARH,RAIGARH,RAIPUR,CHATTISGARH
Dhodhagaon B.O,Branch Post Office,497111,,SITAPUR,SURGUJA,CHATTISGARH,RAIGARH,RAIPUR,CHATTISGARH
Dhourpur B.O,Branch Post Office,497101,,SITAPUR,SURGUJA,CHATTISGARH,RAIGARH,RAIPUR,CHATTISGARH
Dumardiha B.O,Branch Post Office,497101,,SITAPUR,SURGUJA,CHATTISGARH,RAIGARH,RAIPUR,CHATTISGARH
Girhuildih B.O,Branch Post Office,497111,,SITAPUR,SURGUJA,CHATTISGARH,RAIGARH,RAIPUR,CHATTISGARH
Jajga B.O,Branch Post Office,497111,,SITAPUR,SURGUJA,CHATTISGARH,RAIGARH,RAIPUR,CHATTISGARH
Kamleshwarpur B.O,Branch Post Office,497111,,SITAPUR,SURGUJA,CHATTISGARH,RAIGARH,RAIPUR,CHATTISGARH
Katkalo B.O,Branch Post Office,497111,,SITAPUR,SURGUJA,CHATTISGARH,RAIGARH,RAIPUR,CHATTISGARH
Khadadorna B.O,Branch Post Office,497111,,SITAPUR,SURGUJA,CHATTISGARH,RAIGARH,RAIPUR,CHATTISGARH
Kot B.O,Branch Post Office,497111,,SITAPUR,SURGUJA,CHATTISGARH,RAIGARH,RAIPUR,CHATTISGARH
Lamgaon B.O,Branch Post Office,497101,,SITAPUR,SURGUJA,CHATTISGARH,RAIGARH,RAIPUR,CHATTISGARH
Lundra B.O,Branch Post Office,497101,,SITAPUR,SURGUJA,CHATTISGARH,RAIGARH,RAIPUR,CHATTISGARH
Narbadapur B.O,Branch Post Office,497111,,SITAPUR,SURGUJA,CHATTISGARH,RAIGARH,RAIPUR,CHATTISGARH
Patora B.O,Branch Post Office,497101,,SITAPUR,SURGUJA,CHATTISGARH,RAIGARH,RAIPUR,CHATTISGARH
Petla B.O,Branch Post Office,497111,,SITAPUR,SURGUJA,CHATTISGARH,RAIGARH,RAIPUR,CHATTISGARH
Poksari B.O,Branch Post Office,497101,,SITAPUR,SURGUJA,CHATTISGARH,RAIGARH,RAIPUR,CHATTISGARH
Raghunathpur B.O,Branch Post Office,497101,,SITAPUR,SURGUJA,CHATTISGARH,RAIGARH,RAIPUR,CHATTISGARH
Sarga B.O,Branch Post Office,497111,,SITAPUR,SURGUJA,CHATTISGARH,RAIGARH,RAIPUR,CHATTISGARH
Sedam B.O,Branch Post Office,497101,,SITAPUR,SURGUJA,CHATTISGARH,RAIGARH,RAIPUR,CHATTISGARH
Sitapur S.O,Sub Post Office,497111,07834-275632,SITAPUR,SURGUJA,CHATTISGARH,RAIGARH,RAIPUR,CHATTISGARH
Sur B.O,Branch Post Office,497111,,SITAPUR,SURGUJA,CHATTISGARH,RAIGARH,RAIPUR,CHATTISGARH
Udari B.O,Branch Post Office,497101,,SITAPUR,SURGUJA,CHATTISGARH,RAIGARH,RAIPUR,CHATTISGARH
Urdara B.O,Branch Post Office,497101,,SITAPUR,SURGUJA,CHATTISGARH,RAIGARH,RAIPUR,CHATTISGARH
Baijnathpur B.O,Branch Post Office,497231,,SURAJPUR,SURGUJA,CHATTISGARH,RAIGARH,RAIPUR,CHATTISGARH
Banja B.O,Branch Post Office,497231,,SURAJPUR,SURGUJA,CHATTISGARH,RAIGARH,RAIPUR,CHATTISGARH
Basdei B.O,Branch Post Office,497231,,SURAJPUR,SURGUJA,CHATTISGARH,RAIGARH,RAIPUR,CHATTISGARH
Batra B.O,Branch Post Office,497226,,SURAJPUR,SURGUJA,CHATTISGARH,RAIGARH,RAIPUR,CHATTISGARH
Bhaiyathan S.O,Sub Post Office,497231,07775-233036,SURAJPUR,SURGUJA,CHATTISGARH,RAIGARH,RAIPUR,CHATTISGARH
Bhatgaon Colly S.O,Sub Post Office,497235,07775-268223,SURAJPUR,SURGUJA,CHATTISGARH,RAIGARH,RAIPUR,CHATTISGARH
Bhuneshwarpur B.O,Branch Post Office,497333,,SURAJPUR,SURGUJA,CHATTISGARH,RAIGARH,RAIPUR,CHATTISGARH
Bishrampur S.O,Sub Post Office,497226,07775-265611,SURAJPUR,SURGUJA,CHATTISGARH,RAIGARH,RAIPUR,CHATTISGARH
Chandramedha B.O,Branch Post Office,497235,,SURAJPUR,SURGUJA,CHATTISGARH,RAIGARH,RAIPUR,CHATTISGARH
Chungudi B.O,Branch Post Office,497235,,SURAJPUR,SURGUJA,CHATTISGARH,RAIGARH,RAIPUR,CHATTISGARH
Darripara B.O,Branch Post Office,497231,,SURAJPUR,SURGUJA,CHATTISGARH,RAIGARH,RAIPUR,CHATTISGARH
Dawna B.O,Branch Post Office,497235,,SURAJPUR,SURGUJA,CHATTISGARH,RAIGARH,RAIPUR,CHATTISGARH
Dedri B.O,Branch Post Office,497229,,SURAJPUR,SURGUJA,CHATTISGARH,RAIGARH,RAIPUR,CHATTISGARH
Deonagar B.O,Branch Post Office,497333,,SURAJPUR,SURGUJA,CHATTISGARH,RAIGARH,RAIPUR,CHATTISGARH
Ganeshpur B.O,Branch Post Office,497333,,SURAJPUR,SURGUJA,CHATTISGARH,RAIGARH,RAIPUR,CHATTISGARH
Gangikot B.O,Branch Post Office,497226,,SURAJPUR,SURGUJA,CHATTISGARH,RAIGARH,RAIPUR,CHATTISGARH
Jainagar B.O,Branch Post Office,497226,,SURAJPUR,SURGUJA,CHATTISGARH,RAIGARH,RAIPUR,CHATTISGARH
Jarhi B.O,Branch Post Office,497235,,SURAJPUR,SURGUJA,CHATTISGARH,RAIGARH,RAIPUR,CHATTISGARH
Kanchanpur B.O,Branch Post Office,497333,,SURAJPUR,SURGUJA,CHATTISGARH,RAIGARH,RAIPUR,CHATTISGARH
Kandrai B.O,Branch Post Office,497226,,SURAJPUR,SURGUJA,CHATTISGARH,RAIGARH,RAIPUR,CHATTISGARH
Karanji B.O,Branch Post Office,497226,,SURAJPUR,SURGUJA,CHATTISGARH,RAIGARH,RAIPUR,CHATTISGARH
Ketka B.O,Branch Post Office,497229,,SURAJPUR,SURGUJA,CHATTISGARH,RAIGARH,RAIPUR,CHATTISGARH
Krishnangar B.O,Branch Post Office,497229,,SURAJPUR,SURGUJA,CHATTISGARH,RAIGARH,RAIPUR,CHATTISGARH
Kumda Colly B.O,Branch Post Office,497226,,SURAJPUR,SURGUJA,CHATTISGARH,RAIGARH,RAIPUR,CHATTISGARH
Lanjit B.O,Branch Post Office,497231,,SURAJPUR,SURGUJA,CHATTISGARH,RAIGARH,RAIPUR,CHATTISGARH
Madanpur B.O,Branch Post Office,497333,,SURAJPUR,SURGUJA,CHATTISGARH,RAIGARH,RAIPUR,CHATTISGARH
Nawapurakalan B.O,Branch Post Office,497333,,SURAJPUR,SURGUJA,CHATTISGARH,RAIGARH,RAIPUR,CHATTISGARH
Orgi B.O,Branch Post Office,497231,,SURAJPUR,SURGUJA,CHATTISGARH,RAIGARH,RAIPUR,CHATTISGARH
Parshurampur B.O,Branch Post Office,497333,,SURAJPUR,SURGUJA,CHATTISGARH,RAIGARH,RAIPUR,CHATTISGARH
Patnakot B.O,Branch Post Office,497229,,SURAJPUR,SURGUJA,CHATTISGARH,RAIGARH,RAIPUR,CHATTISGARH
Patrapali B.O,Branch Post Office,497333,,SURAJPUR,SURGUJA,CHATTISGARH,RAIGARH,RAIPUR,CHATTISGARH
Premnagar B.O,Branch Post Office,497333,,SURAJPUR,SURGUJA,CHATTISGARH,RAIGARH,RAIPUR,CHATTISGARH
Ramanujnagar S.O,Sub Post Office,497333,07775-233756,SURAJPUR,SURGUJA,CHATTISGARH,RAIGARH,RAIPUR,CHATTISGARH
Ramnagar B.O,Branch Post Office,497226,,SURAJPUR,SURGUJA,CHATTISGARH,RAIGARH,RAIPUR,CHATTISGARH
Salhi B.O,Branch Post Office,497229,,SURAJPUR,SURGUJA,CHATTISGARH,RAIGARH,RAIPUR,CHATTISGARH
Salka B.O,Branch Post Office,497235,,SURAJPUR,SURGUJA,CHATTISGARH,RAIGARH,RAIPUR,CHATTISGARH
Sirsi B.O,Branch Post Office,497231,,SURAJPUR,SURGUJA,CHATTISGARH,RAIGARH,RAIPUR,CHATTISGARH
Surajpur S.O,Sub Post Office,497229,07775-266322,SURAJPUR,SURGUJA,CHATTISGARH,RAIGARH,RAIPUR,CHATTISGARH
Tiwragudi B.O,Branch Post Office,497333,,SURAJPUR,SURGUJA,CHATTISGARH,RAIGARH,RAIPUR,CHATTISGARH
Umeshwarpur B.O,Branch Post Office,497333,,SURAJPUR,SURGUJA,CHATTISGARH,RAIGARH,RAIPUR,CHATTISGARH
Annapara B.O,Branch Post Office,497220,,SURGUJA,SURGUJA,CHATTISGARH,RAIGARH,RAIPUR,CHATTISGARH
Aragarhi Camp B.O,Branch Post Office,497220,,SURGUJA,SURGUJA,CHATTISGARH,RAIGARH,RAIPUR,CHATTISGARH
Bakalo B.O,Branch Post Office,497333,,SURGUJA,SURGUJA,CHATTISGARH,RAIGARH,RAIPUR,CHATTISGARH
Bartikala B.O,Branch Post Office,497223,,SURGUJA,SURGUJA,CHATTISGARH,RAIGARH,RAIPUR,CHATTISGARH
Bhedia B.O,Branch Post Office,497223,,SURGUJA,SURGUJA,CHATTISGARH,RAIGARH,RAIPUR,CHATTISGARH
Bhendri B.O,Branch Post Office,497223,,SURGUJA,SURGUJA,CHATTISGARH,RAIGARH,RAIPUR,CHATTISGARH
Chaki B.O,Branch Post Office,497220,,SURGUJA,SURGUJA,CHATTISGARH,RAIGARH,RAIPUR,CHATTISGARH
Chalgahikhas B.O,Branch Post Office,497223,,SURGUJA,SURGUJA,CHATTISGARH,RAIGARH,RAIPUR,CHATTISGARH
Chandora B.O,Branch Post Office,497223,,SURGUJA,SURGUJA,CHATTISGARH,RAIGARH,RAIPUR,CHATTISGARH
Chandranagar B.O,Branch Post Office,497220,,SURGUJA,SURGUJA,CHATTISGARH,RAIGARH,RAIPUR,CHATTISGARH
Chhattarpur B.O,Branch Post Office,497220,,SURGUJA,SURGUJA,CHATTISGARH,RAIGARH,RAIPUR,CHATTISGARH
Chiniya B.O,Branch Post Office,497220,,SURGUJA,SURGUJA,CHATTISGARH,RAIGARH,RAIPUR,CHATTISGARH
Dawra B.O,Branch Post Office,497118,,SURGUJA,SURGUJA,CHATTISGARH,RAIGARH,RAIPUR,CHATTISGARH
Dharampur B.O,Branch Post Office,497223,,SURGUJA,SURGUJA,CHATTISGARH,RAIGARH,RAIPUR,CHATTISGARH
Dipadih B.O,Branch Post Office,497118,,SURGUJA,SURGUJA,CHATTISGARH,RAIGARH,RAIPUR,CHATTISGARH
Dolangi B.O,Branch Post Office,497220,,SURGUJA,SURGUJA,CHATTISGARH,RAIGARH,RAIPUR,CHATTISGARH
Durgapur B.O,Branch Post Office,497118,,SURGUJA,SURGUJA,CHATTISGARH,RAIGARH,RAIPUR,CHATTISGARH
Ganjar B.O,Branch Post Office,497220,,SURGUJA,SURGUJA,CHATTISGARH,RAIGARH,RAIPUR,CHATTISGARH
Ghughari B.O,Branch Post Office,497118,,SURGUJA,SURGUJA,CHATTISGARH,RAIGARH,RAIPUR,CHATTISGARH
Gopalpur B.O,Branch Post Office,497118,,SURGUJA,SURGUJA,CHATTISGARH,RAIGARH,RAIPUR,CHATTISGARH
Govindpur B.O,Branch Post Office,497223,,SURGUJA,SURGUJA,CHATTISGARH,RAIGARH,RAIPUR,CHATTISGARH
Guturma B.O,Branch Post Office,497114,,SURGUJA,SURGUJA,CHATTISGARH,RAIGARH,RAIPUR,CHATTISGARH
Jajawal B.O,Branch Post Office,497223,,SURGUJA,SURGUJA,CHATTISGARH,RAIGARH,RAIPUR,CHATTISGARH
Jamkani B.O,Branch Post Office,497114,,SURGUJA,SURGUJA,CHATTISGARH,RAIGARH,RAIPUR,CHATTISGARH
Jhalaria B.O,Branch Post Office,497118,,SURGUJA,SURGUJA,CHATTISGARH,RAIGARH,RAIPUR,CHATTISGARH
Jhingo B.O,Branch Post Office,497118,,SURGUJA,SURGUJA,CHATTISGARH,RAIGARH,RAIPUR,CHATTISGARH
Jigdi B.O,Branch Post Office,497118,,SURGUJA,SURGUJA,CHATTISGARH,RAIGARH,RAIPUR,CHATTISGARH
Kamari B.O,Branch Post Office,497118,,SURGUJA,SURGUJA,CHATTISGARH,RAIGARH,RAIPUR,CHATTISGARH
Karra B.O,Branch Post Office,497118,,SURGUJA,SURGUJA,CHATTISGARH,RAIGARH,RAIPUR,CHATTISGARH
Karsi B.O,Branch Post Office,497223,,SURGUJA,SURGUJA,CHATTISGARH,RAIGARH,RAIPUR,CHATTISGARH
Ketka B.O,Branch Post Office,497223,,SURGUJA,SURGUJA,CHATTISGARH,RAIGARH,RAIPUR,CHATTISGARH
Kewra B.O,Branch Post Office,497223,,SURGUJA,SURGUJA,CHATTISGARH,RAIGARH,RAIPUR,CHATTISGARH
Khadgaon B.O,Branch Post Office,497223,,SURGUJA,SURGUJA,CHATTISGARH,RAIGARH,RAIPUR,CHATTISGARH
Koteya B.O,Branch Post Office,497223,,SURGUJA,SURGUJA,CHATTISGARH,RAIGARH,RAIPUR,CHATTISGARH
Kotli B.O,Branch Post Office,497118,,SURGUJA,SURGUJA,CHATTISGARH,RAIGARH,RAIPUR,CHATTISGARH
Krishnanagar B.O,Branch Post Office,497220,,SURGUJA,SURGUJA,CHATTISGARH,RAIGARH,RAIPUR,CHATTISGARH
Lodha B.O,Branch Post Office,497220,,SURGUJA,SURGUJA,CHATTISGARH,RAIGARH,RAIPUR,CHATTISGARH
Lolki B.O,Branch Post Office,497223,,SURGUJA,SURGUJA,CHATTISGARH,RAIGARH,RAIPUR,CHATTISGARH
Lurgikala B.O,Branch Post Office,497118,,SURGUJA,SURGUJA,CHATTISGARH,RAIGARH,RAIPUR,CHATTISGARH
Manoharpur B.O,Branch Post Office,497118,,SURGUJA,SURGUJA,CHATTISGARH,RAIGARH,RAIPUR,CHATTISGARH
Masga B.O,Branch Post Office,497223,,SURGUJA,SURGUJA,CHATTISGARH,RAIGARH,RAIPUR,CHATTISGARH
Mitgai B.O,Branch Post Office,497220,,SURGUJA,SURGUJA,CHATTISGARH,RAIGARH,RAIPUR,CHATTISGARH
Narsinghpur B.O,Branch Post Office,497118,,SURGUJA,SURGUJA,CHATTISGARH,RAIGARH,RAIPUR,CHATTISGARH
Padhi B.O,Branch Post Office,497118,,SURGUJA,SURGUJA,CHATTISGARH,RAIGARH,RAIPUR,CHATTISGARH
Parsagudi B.O,Branch Post Office,497118,,SURGUJA,SURGUJA,CHATTISGARH,RAIGARH,RAIPUR,CHATTISGARH
Peni B.O,Branch Post Office,497114,,SURGUJA,SURGUJA,CHATTISGARH,RAIGARH,RAIPUR,CHATTISGARH
Ramchandranagar B.O,Branch Post Office,497220,,SURGUJA,SURGUJA,CHATTISGARH,RAIGARH,RAIPUR,CHATTISGARH
Ramkola B.O,Branch Post Office,497223,,SURGUJA,SURGUJA,CHATTISGARH,RAIGARH,RAIPUR,CHATTISGARH
Ranhat B.O,Branch Post Office,497223,,SURGUJA,SURGUJA,CHATTISGARH,RAIGARH,RAIPUR,CHATTISGARH
Rewti B.O,Branch Post Office,497223,,SURGUJA,SURGUJA,CHATTISGARH,RAIGARH,RAIPUR,CHATTISGARH
Sankargarh B.O,Branch Post Office,497118,,SURGUJA,SURGUJA,CHATTISGARH,RAIGARH,RAIPUR,CHATTISGARH
Semarkalan B.O,Branch Post Office,497223,,SURGUJA,SURGUJA,CHATTISGARH,RAIGARH,RAIPUR,CHATTISGARH
Sewari B.O,Branch Post Office,497118,,SURGUJA,SURGUJA,CHATTISGARH,RAIGARH,RAIPUR,CHATTISGARH
Sihar B.O,Branch Post Office,497118,,SURGUJA,SURGUJA,CHATTISGARH,RAIGARH,RAIPUR,CHATTISGARH
Sonawal B.O,Branch Post Office,497220,,SURGUJA,SURGUJA,CHATTISGARH,RAIGARH,RAIPUR,CHATTISGARH
Tatapani B.O,Branch Post Office,497220,,SURGUJA,SURGUJA,CHATTISGARH,RAIGARH,RAIPUR,CHATTISGARH
Ulkia B.O,Branch Post Office,497114,,SURGUJA,SURGUJA,CHATTISGARH,RAIGARH,RAIPUR,CHATTISGARH
Vijaynagar B.O,Branch Post Office,497220,,SURGUJA,SURGUJA,CHATTISGARH,RAIGARH,RAIPUR,CHATTISGARH
