OFFICE NAME,OFFICE STATUS,PINCODE,TELEPHONE NO.,TALUK,DISTRICT,STATE/U.T.,POSTAL DIVISION,POSTAL REGION,POSTAL CIRCLE
                                                                                                            ,,                                          (THE INFORMATION IS SORTED DISTRICT AND TALUK WISE),,,,,,,
,,,,,,,,,
Hauz Qazi S.O,Sub Post Office,110006,011-23278976,DELHI,CENTRAL DELHI,DELHI,NEW DELHI CENTRAL,DELHI,DELHI
Jama Masjid S.O,Sub Post Office,110006,011-23278981,DELHI,CENTRAL DELHI,DELHI,NEW DELHI CENTRAL,DELHI,DELHI
A.G.C.R. S.O,Sub Post Office,110002,011-23702285,NEW DELHI,CENTRAL DELHI,DELHI,NEW DELHI CENTRAL,DELHI,DELHI
A.K.Market S.O,Sub Post Office,110055,011-23588870,NEW DELHI,CENTRAL DELHI,DELHI,NEW DELHI CENTRAL,DELHI,DELHI
Ajmeri Gate Extn. S.O,Sub Post Office,110002,011-23230869,NEW DELHI,CENTRAL DELHI,DELHI,NEW DELHI CENTRAL,DELHI,DELHI
Anand Parbat Indl. Area S.O,Sub Post Office,110005,011-25729297,NEW DELHI,CENTRAL DELHI,DELHI,NEW DELHI CENTRAL,DELHI,DELHI
Anand Parbat S.O,Sub Post Office,110005,011-28763724,NEW DELHI,CENTRAL DELHI,DELHI,NEW DELHI CENTRAL,DELHI,DELHI
Bank Street S.O,Sub Post Office,110005,011-28751331,NEW DELHI,CENTRAL DELHI,DELHI,NEW DELHI CENTRAL,DELHI,DELHI
Baroda House S.O,Sub Post Office,110001,011-23388895,NEW DELHI,CENTRAL DELHI,DELHI,NEW DELHI CENTRAL,DELHI,DELHI
Bengali Market S.O,Sub Post Office,110001,011-23715746,NEW DELHI,CENTRAL DELHI,DELHI,NEW DELHI CENTRAL,DELHI,DELHI
Bhagat Singh Market S.O,Sub Post Office,110001,011-23364908,NEW DELHI,CENTRAL DELHI,DELHI,NEW DELHI CENTRAL,DELHI,DELHI
Connaught Place S.O,Sub Post Office,110001,011-23324214,NEW DELHI,CENTRAL DELHI,DELHI,NEW DELHI CENTRAL,DELHI,DELHI
Constitution House S.O,Sub Post Office,110001,011-23385596,NEW DELHI,CENTRAL DELHI,DELHI,NEW DELHI CENTRAL,DELHI,DELHI
Dada Ghosh Bhawan S.O,Sub Post Office,110008,011-25708621,NEW DELHI,CENTRAL DELHI,DELHI,NEW DELHI CENTRAL,DELHI,DELHI
Darya Ganj S.O,Sub Post Office,110002,011-23270881,NEW DELHI,CENTRAL DELHI,DELHI,NEW DELHI CENTRAL,DELHI,DELHI
Delhi High Court S.O,Sub Post Office,110003,011-23388728,NEW DELHI,CENTRAL DELHI,DELHI,NEW DELHI CENTRAL,DELHI,DELHI
Desh Bandhu Gupta Road S.O,Sub Post Office,110005,011-28723522,NEW DELHI,CENTRAL DELHI,DELHI,NEW DELHI CENTRAL,DELHI,DELHI
Election Commission S.O,Sub Post Office,110001,011-23718166,NEW DELHI,CENTRAL DELHI,DELHI,NEW DELHI CENTRAL,DELHI,DELHI
Gandhi Smarak Nidhi S.O,Sub Post Office,110002,011-23312369,NEW DELHI,CENTRAL DELHI,DELHI,NEW DELHI CENTRAL,DELHI,DELHI
Guru Gobind Singh Marg S.O,Sub Post Office,110005,011-28713522,NEW DELHI,CENTRAL DELHI,DELHI,NEW DELHI CENTRAL,DELHI,DELHI
Gym Khana Club S.O,Sub Post Office,110011,011-23016041,NEW DELHI,CENTRAL DELHI,DELHI,NEW DELHI CENTRAL,DELHI,DELHI
I.A.R.I. S.O,Sub Post Office,110012,011-25841007,NEW DELHI,CENTRAL DELHI,DELHI,NEW DELHI CENTRAL,DELHI,DELHI
I.P.Estate S.O,Sub Post Office,110002,011-23370279,NEW DELHI,CENTRAL DELHI,DELHI,NEW DELHI CENTRAL,DELHI,DELHI
Inderpuri S.O,Sub Post Office,110012,011-25833606,NEW DELHI,CENTRAL DELHI,DELHI,NEW DELHI CENTRAL,DELHI,DELHI
Indraprastha H.O,Head Post Office,110002,011-23234611,NEW DELHI,CENTRAL DELHI,DELHI,NEW DELHI CENTRAL,DELHI,DELHI
Janpath S.O,Sub Post Office,110001,011-23350528,NEW DELHI,CENTRAL DELHI,DELHI,NEW DELHI CENTRAL,DELHI,DELHI
Karol Bagh S.O,Sub Post Office,110005,011-28752040,NEW DELHI,CENTRAL DELHI,DELHI,NEW DELHI CENTRAL,DELHI,DELHI
Krishi Bhawan S.O,Sub Post Office,110001,011-23385584,NEW DELHI,CENTRAL DELHI,DELHI,NEW DELHI CENTRAL,DELHI,DELHI
Lady Harding Medical College S.O,Sub Post Office,110001,011-23745547,NEW DELHI,CENTRAL DELHI,DELHI,NEW DELHI CENTRAL,DELHI,DELHI
Master Prithvi Nath Marg S.O,Sub Post Office,110005,011-23524128,NEW DELHI,CENTRAL DELHI,DELHI,NEW DELHI CENTRAL,DELHI,DELHI
Minto Road S.O,Sub Post Office,110002,011-23235048,NEW DELHI,CENTRAL DELHI,DELHI,NEW DELHI CENTRAL,DELHI,DELHI
Multani Dhanda S.O,Sub Post Office,110055,011-23615857,NEW DELHI,CENTRAL DELHI,DELHI,NEW DELHI CENTRAL,DELHI,DELHI
National Physical Laboratory S.O,Sub Post Office,110012,011-25841150,NEW DELHI,CENTRAL DELHI,DELHI,NEW DELHI CENTRAL,DELHI,DELHI
Nirman Bhawan S.O,Sub Post Office,110011,011-23062016,NEW DELHI,CENTRAL DELHI,DELHI,NEW DELHI CENTRAL,DELHI,DELHI
North Avenue S.O,Sub Post Office,110001,011-23094239,NEW DELHI,CENTRAL DELHI,DELHI,NEW DELHI CENTRAL,DELHI,DELHI
Pahar Ganj S.O,Sub Post Office,110055,011-23582573,NEW DELHI,CENTRAL DELHI,DELHI,NEW DELHI CENTRAL,DELHI,DELHI
Pandara Road S.O,Sub Post Office,110003,011-23387407,NEW DELHI,CENTRAL DELHI,DELHI,NEW DELHI CENTRAL,DELHI,DELHI
Parliament House S.O,Sub Post Office,110001,011-23017346,NEW DELHI,CENTRAL DELHI,DELHI,NEW DELHI CENTRAL,DELHI,DELHI
Patel Nagar East S.O,Sub Post Office,110008,011-25784721,NEW DELHI,CENTRAL DELHI,DELHI,NEW DELHI CENTRAL,DELHI,DELHI
Patel Nagar S.O,Sub Post Office,110008,011-25886804,NEW DELHI,CENTRAL DELHI,DELHI,NEW DELHI CENTRAL,DELHI,DELHI
Patel Nagar South S.O,Sub Post Office,110008,011-25840848,NEW DELHI,CENTRAL DELHI,DELHI,NEW DELHI CENTRAL,DELHI,DELHI
Patel Nagar West S.O,Sub Post Office,110008,011-25888386,NEW DELHI,CENTRAL DELHI,DELHI,NEW DELHI CENTRAL,DELHI,DELHI
Patiala House S.O,Sub Post Office,110001,011-23385547,NEW DELHI,CENTRAL DELHI,DELHI,NEW DELHI CENTRAL,DELHI,DELHI
Pragati Maidan S.O,Sub Post Office,110001,011-23371549,NEW DELHI,CENTRAL DELHI,DELHI,NEW DELHI CENTRAL,DELHI,DELHI
Rail Bhawan S.O,Sub Post Office,110001,011-23385565,NEW DELHI,CENTRAL DELHI,DELHI,NEW DELHI CENTRAL,DELHI,DELHI
Rajender Nagar S.O,Sub Post Office,110060,011-28741804,NEW DELHI,CENTRAL DELHI,DELHI,NEW DELHI CENTRAL,DELHI,DELHI
Rajghat Power House S.O,Sub Post Office,110002,011-23312369,NEW DELHI,CENTRAL DELHI,DELHI,NEW DELHI CENTRAL,DELHI,DELHI
Rashtrapati Bhawan S.O,Sub Post Office,110004,011-23012991,NEW DELHI,CENTRAL DELHI,DELHI,NEW DELHI CENTRAL,DELHI,DELHI
Sansad Marg H.O,Head Post Office,110001,011-23096070,NEW DELHI,CENTRAL DELHI,DELHI,NEW DELHI CENTRAL,DELHI,DELHI
Sansadiya Soudh S.O,Sub Post Office,110001,011-23014121,NEW DELHI,CENTRAL DELHI,DELHI,NEW DELHI CENTRAL,DELHI,DELHI
Sat Nagar S.O,Sub Post Office,110005,011-25728878,NEW DELHI,CENTRAL DELHI,DELHI,NEW DELHI CENTRAL,DELHI,DELHI
Secretariat North S.O,Sub Post Office,110001,011-23092160,NEW DELHI,CENTRAL DELHI,DELHI,NEW DELHI CENTRAL,DELHI,DELHI
Shastri Bhawan S.O,Sub Post Office,110001,011-23385582,NEW DELHI,CENTRAL DELHI,DELHI,NEW DELHI CENTRAL,DELHI,DELHI
South Avenue S.O,Sub Post Office,110011,011-23016041,NEW DELHI,CENTRAL DELHI,DELHI,NEW DELHI CENTRAL,DELHI,DELHI
Supreme Court S.O,Sub Post Office,110001,011-23389015,NEW DELHI,CENTRAL DELHI,DELHI,NEW DELHI CENTRAL,DELHI,DELHI
Swami Ram Tirth Nagar S.O,Sub Post Office,110055,011-23522097,NEW DELHI,CENTRAL DELHI,DELHI,NEW DELHI CENTRAL,DELHI,DELHI
Udyog Bhawan S.O,Sub Post Office,110011,011-23062092,NEW DELHI,CENTRAL DELHI,DELHI,NEW DELHI CENTRAL,DELHI,DELHI
Union Public Service Commissio S.O,Sub Post Office,110069,011-23385123,NEW DELHI,CENTRAL DELHI,DELHI,NEW DELHI CENTRAL,DELHI,DELHI
Babarpur S.O,Sub Post Office,110032,011-22829634,.,EAST DELHI,DELHI,DELHI EAST,DELHI,DELHI
Brahampuri S.O,Sub Post Office,110053,011-22564937,.,EAST DELHI,DELHI,DELHI EAST,DELHI,DELHI
Anand Vihar S.O,Sub Post Office,110092,011-22157472,DELHI EAST,EAST DELHI,DELHI,DELHI EAST,DELHI,DELHI
Azad Nagar S.O,Sub Post Office,110051,011-22093521,DELHI EAST,EAST DELHI,DELHI,DELHI EAST,DELHI,DELHI
Chilla B.O,Branch Post Office,110091,,DELHI EAST,EAST DELHI,DELHI,DELHI EAST,DELHI,DELHI
Distt. Court (KKD) S.O,Sub Post Office,110032,011-22306086,DELHI EAST,EAST DELHI,DELHI,DELHI EAST,DELHI,DELHI
Gandhi Nagar Bazar S.O,Sub Post Office,110031,011-22083305,DELHI EAST,EAST DELHI,DELHI,DELHI EAST,DELHI,DELHI
Gandhi Nagar S.O,Sub Post Office,110031,011-22077435,DELHI EAST,EAST DELHI,DELHI,DELHI EAST,DELHI,DELHI
Geeta Colony S.O,Sub Post Office,110031,011-22541451,DELHI EAST,EAST DELHI,DELHI,DELHI EAST,DELHI,DELHI
Ghazipur B.O,Branch Post Office,110096,,DELHI EAST,EAST DELHI,DELHI,DELHI EAST,DELHI,DELHI
Govind Pura S.O,Sub Post Office,110051,011-22541654,DELHI EAST,EAST DELHI,DELHI,DELHI EAST,DELHI,DELHI
Himmatpuri S.O,Sub Post Office,110091,011-22782284,DELHI EAST,EAST DELHI,DELHI,DELHI EAST,DELHI,DELHI
Kailash Nagar S.O,Sub Post Office,110031,011-22071557,DELHI EAST,EAST DELHI,DELHI,DELHI EAST,DELHI,DELHI
Kalyanpuri S.O,Sub Post Office,110091,011-22770349,DELHI EAST,EAST DELHI,DELHI,DELHI EAST,DELHI,DELHI
Kalyanvas S.O,Sub Post Office,110091,011-22788972,DELHI EAST,EAST DELHI,DELHI,DELHI EAST,DELHI,DELHI
Krishna Nagar H.O,Head Post Office,110051,011-22373250,DELHI EAST,EAST DELHI,DELHI,DELHI EAST,DELHI,DELHI
Laxmi Nagar S.O,Sub Post Office,110092,011-22541641,DELHI EAST,EAST DELHI,DELHI,DELHI EAST,DELHI,DELHI
Mandawali Fazalpur S.O,Sub Post Office,110092,011-22476529,DELHI EAST,EAST DELHI,DELHI,DELHI EAST,DELHI,DELHI
Mayur Vihar Ph-I S.O,Sub Post Office,110091,011-22713926,DELHI EAST,EAST DELHI,DELHI,DELHI EAST,DELHI,DELHI
Mayur Vihar Ph-III S.O,Sub Post Office,110096,011-22614042,DELHI EAST,EAST DELHI,DELHI,DELHI EAST,DELHI,DELHI
Nirman Vihar S.O,Sub Post Office,110092,011-22054430,DELHI EAST,EAST DELHI,DELHI,DELHI EAST,DELHI,DELHI
Patparganj S.O,Sub Post Office,110091,011-22751866,DELHI EAST,EAST DELHI,DELHI,DELHI EAST,DELHI,DELHI
Raghubar Pura S.O,Sub Post Office,110031,011-22081628,DELHI EAST,EAST DELHI,DELHI,DELHI EAST,DELHI,DELHI
Rajgarh Colony S.O,Sub Post Office,110031,011-22541361,DELHI EAST,EAST DELHI,DELHI,DELHI EAST,DELHI,DELHI
Ram Nagar S.O,Sub Post Office,110051,011-22541373,DELHI EAST,EAST DELHI,DELHI,DELHI EAST,DELHI,DELHI
Shakarpur S.O,Sub Post Office,110092,011-22050155,DELHI EAST,EAST DELHI,DELHI,DELHI EAST,DELHI,DELHI
Shastri Nagar S.O,Sub Post Office,110031,011-22541561,DELHI EAST,EAST DELHI,DELHI,DELHI EAST,DELHI,DELHI
Surajmal Vihar S.O,Sub Post Office,110092,011-22156539,DELHI EAST,EAST DELHI,DELHI,DELHI EAST,DELHI,DELHI
Trilok Puri S.O,Sub Post Office,110091,011-22771645,DELHI EAST,EAST DELHI,DELHI,DELHI EAST,DELHI,DELHI
V.K. Nagar S.O,Sub Post Office,110095,011-22153919,DELHI EAST,EAST DELHI,DELHI,DELHI EAST,DELHI,DELHI
Vasundhra Enclave S.O,Sub Post Office,110096,011-22771203,DELHI EAST,EAST DELHI,DELHI,DELHI EAST,DELHI,DELHI
Vishwas Nagar S.O,Sub Post Office,110032,011-22381505,DELHI EAST,EAST DELHI,DELHI,DELHI EAST,DELHI,DELHI
Vivek Vihar S.O,Sub Post Office,110095,011-22151164,DELHI EAST,EAST DELHI,DELHI,DELHI EAST,DELHI,DELHI
Yozna Vihar S.O,Sub Post Office,110092,011-22163842,DELHI EAST,EAST DELHI,DELHI,DELHI EAST,DELHI,DELHI
Balbir Nagar S.O,Sub Post Office,110032,011-22320223,DELHI NORTH EAST,EAST DELHI,DELHI,DELHI EAST,DELHI,DELHI
Bhajan Pura S.O,Sub Post Office,110053,011-22562781,DELHI NORTH EAST,EAST DELHI,DELHI,DELHI EAST,DELHI,DELHI
Bhola Nath Nagar S.O,Sub Post Office,110032,011-22307447,DELHI NORTH EAST,EAST DELHI,DELHI,DELHI EAST,DELHI,DELHI
Dayalpur B.O,Branch Post Office,110094,,DELHI NORTH EAST,EAST DELHI,DELHI,DELHI EAST,DELHI,DELHI
Dilshad Garden S.O,Sub Post Office,110095,011-22583440,DELHI NORTH EAST,EAST DELHI,DELHI,DELHI EAST,DELHI,DELHI
G.T.B. Hospital S.O,Sub Post Office,110095,011-22125079,DELHI NORTH EAST,EAST DELHI,DELHI,DELHI EAST,DELHI,DELHI
Ghonda B.O,Branch Post Office,110053,,DELHI NORTH EAST,EAST DELHI,DELHI,DELHI EAST,DELHI,DELHI
Gokal Puri S.O,Sub Post Office,110094,011-22564727,DELHI NORTH EAST,EAST DELHI,DELHI,DELHI EAST,DELHI,DELHI
Goverdhan Bihari Colony S.O,Sub Post Office,110032,011-22304127,DELHI NORTH EAST,EAST DELHI,DELHI,DELHI EAST,DELHI,DELHI
Jafrabad S.O,Sub Post Office,110053,011-22866828,DELHI NORTH EAST,EAST DELHI,DELHI,DELHI EAST,DELHI,DELHI
Jagjit Nagar S.O,Sub Post Office,110053,011-22942641,DELHI NORTH EAST,EAST DELHI,DELHI,DELHI EAST,DELHI,DELHI
Jhilmil H.O,Head Post Office,110095,011-22129379,DELHI NORTH EAST,EAST DELHI,DELHI,DELHI EAST,DELHI,DELHI
Jhilmil Tahirpur B.O,Branch Post Office,110095,,DELHI NORTH EAST,EAST DELHI,DELHI,DELHI EAST,DELHI,DELHI
Johripur B.O,Branch Post Office,110094,,DELHI NORTH EAST,EAST DELHI,DELHI,DELHI EAST,DELHI,DELHI
Karawal Nagar S.O,Sub Post Office,110094,011-22933784,DELHI NORTH EAST,EAST DELHI,DELHI,DELHI EAST,DELHI,DELHI
Khazuri Khas B.O,Branch Post Office,110094,,DELHI NORTH EAST,EAST DELHI,DELHI,DELHI EAST,DELHI,DELHI
Loni Road Housing Complex S.O,Sub Post Office,110093,011-22818108,DELHI NORTH EAST,EAST DELHI,DELHI,DELHI EAST,DELHI,DELHI
Loni Road S.O,Sub Post Office,110032,011-22580417,DELHI NORTH EAST,EAST DELHI,DELHI,DELHI EAST,DELHI,DELHI
Man Sarovar Park S.O,Sub Post Office,110032,011-22581141,DELHI NORTH EAST,EAST DELHI,DELHI,DELHI EAST,DELHI,DELHI
Mandoli Saboli B.O,Branch Post Office,110093,,DELHI NORTH EAST,EAST DELHI,DELHI,DELHI EAST,DELHI,DELHI
Maujpur S.O,Sub Post Office,110053,011-22560272,DELHI NORTH EAST,EAST DELHI,DELHI,DELHI EAST,DELHI,DELHI
"Nand Nagri ""A"" S.O",Sub Post Office,110093,011-22127822,DELHI NORTH EAST,EAST DELHI,DELHI,DELHI EAST,DELHI,DELHI
"Nand Nagri ""C"" S.O",Sub Post Office,110093,011-22581550,DELHI NORTH EAST,EAST DELHI,DELHI,DELHI EAST,DELHI,DELHI
New Seemapuri S.O,Sub Post Office,110095,011-22355364,DELHI NORTH EAST,EAST DELHI,DELHI,DELHI EAST,DELHI,DELHI
New Usmanpur B.O,Branch Post Office,110053,,DELHI NORTH EAST,EAST DELHI,DELHI,DELHI EAST,DELHI,DELHI
Old Seemapuri S.O,Sub Post Office,110095,011-22355825,DELHI NORTH EAST,EAST DELHI,DELHI,DELHI EAST,DELHI,DELHI
Rohtash Nagar S.O,Sub Post Office,110032,011-22821395,DELHI NORTH EAST,EAST DELHI,DELHI,DELHI EAST,DELHI,DELHI
Sabhapur B.O,Branch Post Office,110094,,DELHI NORTH EAST,EAST DELHI,DELHI,DELHI EAST,DELHI,DELHI
Seelampur S.O,Sub Post Office,110053,011-22825889,DELHI NORTH EAST,EAST DELHI,DELHI,DELHI EAST,DELHI,DELHI
Shahdara Mandi S.O,Sub Post Office,110032,011-22382207,DELHI NORTH EAST,EAST DELHI,DELHI,DELHI EAST,DELHI,DELHI
Shahdara S.O,Sub Post Office,110032,011-22324693,DELHI NORTH EAST,EAST DELHI,DELHI,DELHI EAST,DELHI,DELHI
Shivaji Park S.O,Sub Post Office,110032,011-22320339,DELHI NORTH EAST,EAST DELHI,DELHI,DELHI EAST,DELHI,DELHI
Sonia Vihar S.O,Sub Post Office,110094,011-22962345,DELHI NORTH EAST,EAST DELHI,DELHI,DELHI EAST,DELHI,DELHI
Telewara S.O,Sub Post Office,110032,011-22391641,DELHI NORTH EAST,EAST DELHI,DELHI,DELHI EAST,DELHI,DELHI
Yamuna Vihar S.O,Sub Post Office,110053,011-22913801,DELHI NORTH EAST,EAST DELHI,DELHI,DELHI EAST,DELHI,DELHI
F F C Okhla S.O,Sub Post Office,110020,011-26844738,NEW DELHI,NEW DELHI,DELHI,NEW DELHI SOUTH,DELHI,DELHI
New Delhi G.P.O. ,Head Post Office,110001,011-23743602,New Delhi,NEW DELHI,DELHI,New Delhi GPO,DELHI,DELHI
New Delhi H.O,Head Post Office,110001,011-23743602,NEW DELHI,NEW DELHI,DELHI,NEW DELHI CENTRAL,DELHI,DELHI
Baratooti S.O,Sub Post Office,110006,011-23613352,.,NORTH DELHI,DELHI,DELHI NORTH,DELHI,DELHI
Jawahar Nagar S.O,Sub Post Office,110007,,.,NORTH DELHI,DELHI,DELHI NORTH,DELHI,DELHI
Rana Pratap Bagh S.O,Sub Post Office,110007,011-27110607,.,NORTH DELHI,DELHI,DELHI NORTH,DELHI,DELHI
Birla Lines S.O,Sub Post Office,110007,011-23828677,DELHI,NORTH DELHI,DELHI,DELHI NORTH,DELHI,DELHI
Burari S.O,Sub Post Office,110084,011-27611023,DELHI,NORTH DELHI,DELHI,DELHI NORTH,DELHI,DELHI
C.C.I. S.O,Sub Post Office,110007,011-27662624,DELHI,NORTH DELHI,DELHI,DELHI NORTH,DELHI,DELHI
Chandni Chowk S.O,Sub Post Office,110006,011-23957594,DELHI,NORTH DELHI,DELHI,DELHI NORTH,DELHI,DELHI
Chawri Bazar S.O,Sub Post Office,110006,011-23918940,DELHI,NORTH DELHI,DELHI,DELHI NORTH,DELHI,DELHI
Civil Lines S.O,Sub Post Office,110054,011-23810061,DELHI,NORTH DELHI,DELHI,DELHI NORTH,DELHI,DELHI
Dareeba S.O,Sub Post Office,110006,011-23270871,DELHI,NORTH DELHI,DELHI,DELHI NORTH,DELHI,DELHI
Delhi G.P.O. ,Head Post Office,110006,011-23869771,Delhi,NORTH DELHI,DELHI,Delhi GPO,DELHI,DELHI
Delhi Sadar Bazar S.O,Sub Post Office,110006,011-23541409,DELHI,NORTH DELHI,DELHI,DELHI NORTH,DELHI,DELHI
Delhi University S.O,Sub Post Office,110007,,DELHI,NORTH DELHI,DELHI,DELHI NORTH,DELHI,DELHI
Distt Courts S.O,Sub Post Office,110054,,DELHI,NORTH DELHI,DELHI,DELHI NORTH,DELHI,DELHI
Gulabi Bagh S.O,Sub Post Office,110007,011-23653912,DELHI,NORTH DELHI,DELHI,DELHI NORTH,DELHI,DELHI
Jagatpur B.O,Branch Post Office,110084,,DELHI,NORTH DELHI,DELHI,DELHI NORTH,DELHI,DELHI
Jharoda Majraa B.O,Branch Post Office,110084,,DELHI,NORTH DELHI,DELHI,DELHI NORTH,DELHI,DELHI
Kamla Nagar S.O,Sub Post Office,110007,011-23844644,DELHI,NORTH DELHI,DELHI,DELHI NORTH,DELHI,DELHI
Malka Ganj S.O,Sub Post Office,110007,,DELHI,NORTH DELHI,DELHI,DELHI NORTH,DELHI,DELHI
Padam Nagar S.O,Sub Post Office,110007,011-23690441,DELHI,NORTH DELHI,DELHI,DELHI NORTH,DELHI,DELHI
Patrachar Vidyalay S.O,Sub Post Office,110054,011-23817372,DELHI,NORTH DELHI,DELHI,DELHI NORTH,DELHI,DELHI
R.C.A.O. S.O,Sub Post Office,110007,011-23695447,DELHI,NORTH DELHI,DELHI,DELHI NORTH,DELHI,DELHI
R K Puram (Main) S.O,Sub Post Office,110066,011-26103039,.,SOUTH WEST DELHI,DELHI,NEW DELHI SOUTH WEST,DELHI,DELHI
R K Puram Sect-1 S.O,Sub Post Office,110022,011-26192635,.,SOUTH WEST DELHI,DELHI,NEW DELHI SOUTH WEST,DELHI,DELHI
R K Puram Sect-12 S.O,Sub Post Office,110022,011-26173959,.,SOUTH WEST DELHI,DELHI,NEW DELHI SOUTH WEST,DELHI,DELHI
R K Puram Sect-3 S.O,Sub Post Office,110022,011-26192017,.,SOUTH WEST DELHI,DELHI,NEW DELHI SOUTH WEST,DELHI,DELHI
R K Puram Sect-4 S.O,Sub Post Office,110022,011-26174247,.,SOUTH WEST DELHI,DELHI,NEW DELHI SOUTH WEST,DELHI,DELHI
R K Puram Sect-5 S.O,Sub Post Office,110022,011-26176237,.,SOUTH WEST DELHI,DELHI,NEW DELHI SOUTH WEST,DELHI,DELHI
R K Puram Sect7 S.O,Sub Post Office,110022,011-26193343,.,SOUTH WEST DELHI,DELHI,NEW DELHI SOUTH WEST,DELHI,DELHI
R K Puram Sect-8 S.O,Sub Post Office,110022,011-26192624,.,SOUTH WEST DELHI,DELHI,NEW DELHI SOUTH WEST,DELHI,DELHI
R K Puram West S.O,Sub Post Office,110066,011-26101969,.,SOUTH WEST DELHI,DELHI,NEW DELHI SOUTH WEST,DELHI,DELHI
R R Hospital S.O,Sub Post Office,110010,011-25695807,.,SOUTH WEST DELHI,DELHI,NEW DELHI SOUTH WEST,DELHI,DELHI
S J Enclave S.O,Sub Post Office,110029,011-26103201,.,SOUTH WEST DELHI,DELHI,NEW DELHI SOUTH WEST,DELHI,DELHI
S P School S.O,Sub Post Office,110074,,.,SOUTH WEST DELHI,DELHI,NEW DELHI SOUTH WEST,DELHI,DELHI
South Delhi Campus S.O,Sub Post Office,110021,011-24113559,.,SOUTH WEST DELHI,DELHI,NEW DELHI SOUTH WEST,DELHI,DELHI
Station Road S.O,Sub Post Office,110010,011-25692896,.,SOUTH WEST DELHI,DELHI,NEW DELHI SOUTH WEST,DELHI,DELHI
Subroto Park S.O,Sub Post Office,110010,011-25693353,.,SOUTH WEST DELHI,DELHI,NEW DELHI SOUTH WEST,DELHI,DELHI
Sultanpur S.O,Sub Post Office,110030,,.,SOUTH WEST DELHI,DELHI,NEW DELHI SOUTH WEST,DELHI,DELHI
T B Hospital S.O,Sub Post Office,110030,011-26966945,.,SOUTH WEST DELHI,DELHI,NEW DELHI SOUTH WEST,DELHI,DELHI
Technology Bhawan S.O,Sub Post Office,110016,011-26561088,.,SOUTH WEST DELHI,DELHI,NEW DELHI SOUTH WEST,DELHI,DELHI
Vasant Kunj Pkt-A S.O,Sub Post Office,110070,011-26124991,.,SOUTH WEST DELHI,DELHI,NEW DELHI SOUTH WEST,DELHI,DELHI
Vasant Kunj S.O,Sub Post Office,110070,011-26132017,.,SOUTH WEST DELHI,DELHI,NEW DELHI SOUTH WEST,DELHI,DELHI
Vasant Vihar-1 S.O,Sub Post Office,110057,011-26143406,.,SOUTH WEST DELHI,DELHI,NEW DELHI SOUTH WEST,DELHI,DELHI
Vasant Vihar-2 S.O,Sub Post Office,110057,011-26152722,.,SOUTH WEST DELHI,DELHI,NEW DELHI SOUTH WEST,DELHI,DELHI
Signal Enclave S.O,Sub Post Office,110010,011-25693330,/,SOUTH WEST DELHI,DELHI,NEW DELHI SOUTH WEST,DELHI,DELHI
Sarojini Nagar H.O,Head Post Office,110023,011-24670081,DELHI,SOUTH WEST DELHI,DELHI,NEW DELHI SOUTH WEST,DELHI,DELHI
Amberhai B.O,Branch Post Office,110075,,NEW DELHI,SOUTH WEST DELHI,DELHI,NEW DELHI WEST,DELHI,DELHI
Badhosarai B.O,Branch Post Office,110028,,NEW DELHI,SOUTH WEST DELHI,DELHI,NEW DELHI WEST,DELHI,DELHI
Badusarai B.O,Branch Post Office,110071,,NEW DELHI,SOUTH WEST DELHI,DELHI,NEW DELHI WEST,DELHI,DELHI
Bagrola B.O,Branch Post Office,110077,,NEW DELHI,SOUTH WEST DELHI,DELHI,NEW DELHI WEST,DELHI,DELHI
Baprola B.O,Branch Post Office,110028,,NEW DELHI,SOUTH WEST DELHI,DELHI,NEW DELHI WEST,DELHI,DELHI
Barthal B.O,Branch Post Office,110077,,NEW DELHI,SOUTH WEST DELHI,DELHI,NEW DELHI WEST,DELHI,DELHI
Chhawla S.O,Sub Post Office,110071,011-25316571,NEW DELHI,SOUTH WEST DELHI,DELHI,NEW DELHI WEST,DELHI,DELHI
CRPF Jharoda Kalan S.O,Sub Post Office,110072,011-25315424,NEW DELHI,SOUTH WEST DELHI,DELHI,NEW DELHI WEST,DELHI,DELHI
D C Goyla B.O,Branch Post Office,110028,,NEW DELHI,SOUTH WEST DELHI,DELHI,NEW DELHI WEST,DELHI,DELHI
D C Nangli Sakravati B.O,Branch Post Office,110028,,NEW DELHI,SOUTH WEST DELHI,DELHI,NEW DELHI WEST,DELHI,DELHI
Dabri B.O,Branch Post Office,110028,,NEW DELHI,SOUTH WEST DELHI,DELHI,NEW DELHI WEST,DELHI,DELHI
Daulatpur B.O,Branch Post Office,110028,,NEW DELHI,SOUTH WEST DELHI,DELHI,NEW DELHI WEST,DELHI,DELHI
Dhulsiras B.O,Branch Post Office,110077,,NEW DELHI,SOUTH WEST DELHI,DELHI,NEW DELHI WEST,DELHI,DELHI
Dichaoal Kalan B.O,Branch Post Office,110028,,NEW DELHI,SOUTH WEST DELHI,DELHI,NEW DELHI WEST,DELHI,DELHI
Dindarpur B.O,Branch Post Office,110028,,NEW DELHI,SOUTH WEST DELHI,DELHI,NEW DELHI WEST,DELHI,DELHI
Dulsiras B.O,Branch Post Office,110028,,NEW DELHI,SOUTH WEST DELHI,DELHI,NEW DELHI WEST,DELHI,DELHI
Dwarka Sec-6 S.O,Sub Post Office,110075,011-25082423,NEW DELHI,SOUTH WEST DELHI,DELHI,NEW DELHI WEST,DELHI,DELHI
Galib Pur B.O,Branch Post Office,110028,,NEW DELHI,SOUTH WEST DELHI,DELHI,NEW DELHI WEST,DELHI,DELHI
Ghuman Hera B.O,Branch Post Office,110028,,NEW DELHI,SOUTH WEST DELHI,DELHI,NEW DELHI WEST,DELHI,DELHI
Indira Park B.O,Branch Post Office,110028,,NEW DELHI,SOUTH WEST DELHI,DELHI,NEW DELHI WEST,DELHI,DELHI
Indira Park S.O,Sub Post Office,110045,,NEW DELHI,SOUTH WEST DELHI,DELHI,NEW DELHI WEST,DELHI,DELHI
Issapur B.O,Branch Post Office,110028,,NEW DELHI,SOUTH WEST DELHI,DELHI,NEW DELHI WEST,DELHI,DELHI
Issapur S.O,Sub Post Office,110073,,NEW DELHI,SOUTH WEST DELHI,DELHI,NEW DELHI WEST,DELHI,DELHI
Jafarpur B.O,Branch Post Office,110028,,NEW DELHI,SOUTH WEST DELHI,DELHI,NEW DELHI WEST,DELHI,DELHI
Jharoda Kalan B.O,Branch Post Office,110028,,NEW DELHI,SOUTH WEST DELHI,DELHI,NEW DELHI WEST,DELHI,DELHI
Jhatikara B.O,Branch Post Office,110028,,NEW DELHI,SOUTH WEST DELHI,DELHI,NEW DELHI WEST,DELHI,DELHI
Kair B.O,Branch Post Office,110028,,NEW DELHI,SOUTH WEST DELHI,DELHI,NEW DELHI WEST,DELHI,DELHI
Kair S.O,Sub Post Office,110043,,NEW DELHI,SOUTH WEST DELHI,DELHI,NEW DELHI WEST,DELHI,DELHI
Kakrola B.O,Branch Post Office,110078,,NEW DELHI,SOUTH WEST DELHI,DELHI,NEW DELHI WEST,DELHI,DELHI
Kangan Heri B.O,Branch Post Office,110028,,NEW DELHI,SOUTH WEST DELHI,DELHI,NEW DELHI WEST,DELHI,DELHI
Khaira B.O,Branch Post Office,110028,,NEW DELHI,SOUTH WEST DELHI,DELHI,NEW DELHI WEST,DELHI,DELHI
Khaira S.O,Sub Post Office,110043,,NEW DELHI,SOUTH WEST DELHI,DELHI,NEW DELHI WEST,DELHI,DELHI
Khera Dabur B.O,Branch Post Office,110028,,NEW DELHI,SOUTH WEST DELHI,DELHI,NEW DELHI WEST,DELHI,DELHI
Malik Pur B.O,Branch Post Office,110028,,NEW DELHI,SOUTH WEST DELHI,DELHI,NEW DELHI WEST,DELHI,DELHI
Malik Pur S.O,Sub Post Office,110073,,NEW DELHI,SOUTH WEST DELHI,DELHI,NEW DELHI WEST,DELHI,DELHI
Maya Puri S.O,Sub Post Office,110064,011-28114593,NEW DELHI,SOUTH WEST DELHI,DELHI,NEW DELHI WEST,DELHI,DELHI
Mitraon B.O,Branch Post Office,110028,,NEW DELHI,SOUTH WEST DELHI,DELHI,NEW DELHI WEST,DELHI,DELHI
Mundela Kalan B.O,Branch Post Office,110028,,NEW DELHI,SOUTH WEST DELHI,DELHI,NEW DELHI WEST,DELHI,DELHI
N.S.I.T. Dwarka S.O,Sub Post Office,110078,011-25099117,NEW DELHI,SOUTH WEST DELHI,DELHI,NEW DELHI WEST,DELHI,DELHI
Najafgarh S.O,Sub Post Office,110043,011-25016221,NEW DELHI,SOUTH WEST DELHI,DELHI,NEW DELHI WEST,DELHI,DELHI
Nangal Raya S.O,Sub Post Office,110046,011-28520760,NEW DELHI,SOUTH WEST DELHI,DELHI,NEW DELHI WEST,DELHI,DELHI
Naraina Industrial Estate H.O,Head Post Office,110028,011-25896286,NEW DELHI,SOUTH WEST DELHI,DELHI,NEW DELHI WEST,DELHI,DELHI
Naraina Village S.O,Sub Post Office,110028,011-25776371,NEW DELHI,SOUTH WEST DELHI,DELHI,NEW DELHI WEST,DELHI,DELHI
Nasirpur B.O,Branch Post Office,110028,,NEW DELHI,SOUTH WEST DELHI,DELHI,NEW DELHI WEST,DELHI,DELHI
Palam Village S.O,Sub Post Office,110045,011-25051003,NEW DELHI,SOUTH WEST DELHI,DELHI,NEW DELHI WEST,DELHI,DELHI
Pandwala Kalan B.O,Branch Post Office,110028,,NEW DELHI,SOUTH WEST DELHI,DELHI,NEW DELHI WEST,DELHI,DELHI
Papravat B.O,Branch Post Office,110028,,NEW DELHI,SOUTH WEST DELHI,DELHI,NEW DELHI WEST,DELHI,DELHI
Quazipur B.O,Branch Post Office,110028,,NEW DELHI,SOUTH WEST DELHI,DELHI,NEW DELHI WEST,DELHI,DELHI
Raj Nagar - II S.O,Sub Post Office,110077,011-25366443,NEW DELHI,SOUTH WEST DELHI,DELHI,NEW DELHI WEST,DELHI,DELHI
Raota B.O,Branch Post Office,110028,,NEW DELHI,SOUTH WEST DELHI,DELHI,NEW DELHI WEST,DELHI,DELHI
Raota S.O,Sub Post Office,110073,,NEW DELHI,SOUTH WEST DELHI,DELHI,NEW DELHI WEST,DELHI,DELHI
Rewla Khanpur B.O,Branch Post Office,110028,,NEW DELHI,SOUTH WEST DELHI,DELHI,NEW DELHI WEST,DELHI,DELHI
Sagarpur S.O,Sub Post Office,110046,011-25394686,NEW DELHI,SOUTH WEST DELHI,DELHI,NEW DELHI WEST,DELHI,DELHI
Shopping Centre Mayapuri S.O,Sub Post Office,110064,011-25134695,NEW DELHI,SOUTH WEST DELHI,DELHI,NEW DELHI WEST,DELHI,DELHI
Surehra B.O,Branch Post Office,110028,,NEW DELHI,SOUTH WEST DELHI,DELHI,NEW DELHI WEST,DELHI,DELHI
Tilangpur Kotla B.O,Branch Post Office,110028,,NEW DELHI,SOUTH WEST DELHI,DELHI,NEW DELHI WEST,DELHI,DELHI
Ujwa S.O,Sub Post Office,110073,011-25318155,NEW DELHI,SOUTH WEST DELHI,DELHI,NEW DELHI WEST,DELHI,DELHI
A-3 Janak Puri S.O,Sub Post Office,110058,011-25505835,NEW DELHI,WEST DELHI,DELHI,NEW DELHI WEST,DELHI,DELHI
Ashok Nagar S.O,Sub Post Office,110018,011-25145693,NEW DELHI,WEST DELHI,DELHI,NEW DELHI WEST,DELHI,DELHI
Ashoka Park Extn. S.O,Sub Post Office,110026,011-28311765,NEW DELHI,WEST DELHI,DELHI,NEW DELHI WEST,DELHI,DELHI
B-1 Janak Puri S.O,Sub Post Office,110058,011-25597216,NEW DELHI,WEST DELHI,DELHI,NEW DELHI WEST,DELHI,DELHI
Bakkarwala B.O,Branch Post Office,110015,,NEW DELHI,WEST DELHI,DELHI,NEW DELHI WEST,DELHI,DELHI
C-4 Janak Puri S.O,Sub Post Office,110058,011-25526247,NEW DELHI,WEST DELHI,DELHI,NEW DELHI WEST,DELHI,DELHI
Chand Nagar S.O,Sub Post Office,110018,011-25984896,NEW DELHI,WEST DELHI,DELHI,NEW DELHI WEST,DELHI,DELHI
Chaukhandi B.O,Branch Post Office,110015,,NEW DELHI,WEST DELHI,DELHI,NEW DELHI WEST,DELHI,DELHI
D. K. Mohan Garden S.O,Sub Post Office,110059,011-25351810,NEW DELHI,WEST DELHI,DELHI,NEW DELHI WEST,DELHI,DELHI
D.E.S.U. Colony S.O,Sub Post Office,110058,011-25553241,NEW DELHI,WEST DELHI,DELHI,NEW DELHI WEST,DELHI,DELHI
Delhi Industrial Area S.O,Sub Post Office,110015,011-25930899,NEW DELHI,WEST DELHI,DELHI,NEW DELHI WEST,DELHI,DELHI
ESI S.O,Sub Post Office,110015,011-25939323,NEW DELHI,WEST DELHI,DELHI,NEW DELHI WEST,DELHI,DELHI
Fateh Nagar S.O,Sub Post Office,110018,011-25148830,NEW DELHI,WEST DELHI,DELHI,NEW DELHI WEST,DELHI,DELHI
Hari Nagar BE Block S.O,Sub Post Office,110064,011-25126360,NEW DELHI,WEST DELHI,DELHI,NEW DELHI WEST,DELHI,DELHI
Hari Nagar Dadb Block S.O,Sub Post Office,110064,011-28122884,NEW DELHI,WEST DELHI,DELHI,NEW DELHI WEST,DELHI,DELHI
Hari Nagar S.O,Sub Post Office,110064,011-25128992,NEW DELHI,WEST DELHI,DELHI,NEW DELHI WEST,DELHI,DELHI
Hastal Village B.O,Branch Post Office,110015,,NEW DELHI,WEST DELHI,DELHI,NEW DELHI WEST,DELHI,DELHI
Hirankudna B.O,Branch Post Office,110015,,NEW DELHI,WEST DELHI,DELHI,NEW DELHI WEST,DELHI,DELHI
J-6 Rajouri Garden S.O,Sub Post Office,110027,011-25931193,NEW DELHI,WEST DELHI,DELHI,NEW DELHI WEST,DELHI,DELHI
Jail Road S.O,Sub Post Office,110058,011-25620515,NEW DELHI,WEST DELHI,DELHI,NEW DELHI WEST,DELHI,DELHI
Janta Market S.O,Sub Post Office,110027,011-25453799,NEW DELHI,WEST DELHI,DELHI,NEW DELHI WEST,DELHI,DELHI
Jawala Heri B.O,Branch Post Office,110063,,NEW DELHI,WEST DELHI,DELHI,NEW DELHI WEST,DELHI,DELHI
Jeevan Park B.O,Branch Post Office,110015,,NEW DELHI,WEST DELHI,DELHI,NEW DELHI WEST,DELHI,DELHI
Jeevan Park S.O,Sub Post Office,110059,,NEW DELHI,WEST DELHI,DELHI,NEW DELHI WEST,DELHI,DELHI
Jwala Puri S.O,Sub Post Office,110087,011-25253612,NEW DELHI,WEST DELHI,DELHI,NEW DELHI WEST,DELHI,DELHI
Jwalaheri B.O,Branch Post Office,110015,,NEW DELHI,WEST DELHI,DELHI,NEW DELHI WEST,DELHI,DELHI
Karam Pura S.O,Sub Post Office,110015,011-25462422,NEW DELHI,WEST DELHI,DELHI,NEW DELHI WEST,DELHI,DELHI
Khyala Phase -  I S.O,Sub Post Office,110018,011-25988386,NEW DELHI,WEST DELHI,DELHI,NEW DELHI WEST,DELHI,DELHI
Khyala Phase - II S.O,Sub Post Office,110018,011-28331473,NEW DELHI,WEST DELHI,DELHI,NEW DELHI WEST,DELHI,DELHI
L. M. Nagar Indl. Area S.O,Sub Post Office,110015,011-25165729,NEW DELHI,WEST DELHI,DELHI,NEW DELHI WEST,DELHI,DELHI
M.B.S. Nagar S.O,Sub Post Office,110018,011-28333481,NEW DELHI,WEST DELHI,DELHI,NEW DELHI WEST,DELHI,DELHI
Madipur Slum Quarter S.O,Sub Post Office,110063,011-25218366,NEW DELHI,WEST DELHI,DELHI,NEW DELHI WEST,DELHI,DELHI
Madipur Village S.O,Sub Post Office,110063,011-25217006,NEW DELHI,WEST DELHI,DELHI,NEW DELHI WEST,DELHI,DELHI
Mahabir Nagar S.O,Sub Post Office,110018,011-25995669,NEW DELHI,WEST DELHI,DELHI,NEW DELHI WEST,DELHI,DELHI
Mansarover Garden S.O,Sub Post Office,110015,011-25911245,NEW DELHI,WEST DELHI,DELHI,NEW DELHI WEST,DELHI,DELHI
Matiala B.O,Branch Post Office,110015,,NEW DELHI,WEST DELHI,DELHI,NEW DELHI WEST,DELHI,DELHI
Matiala S.O,Sub Post Office,110059,,NEW DELHI,WEST DELHI,DELHI,NEW DELHI WEST,DELHI,DELHI
Mundka B.O,Branch Post Office,110041,,NEW DELHI,WEST DELHI,DELHI,NEW DELHI WEST,DELHI,DELHI
N.I.Area S.O,Sub Post Office,110015,011-25915672,NEW DELHI,WEST DELHI,DELHI,NEW DELHI WEST,DELHI,DELHI
Nangloi - II B.O,Branch Post Office,110015,,NEW DELHI,WEST DELHI,DELHI,NEW DELHI WEST,DELHI,DELHI
Nangloi - III S.O,Sub Post Office,110041,011-25483404,NEW DELHI,WEST DELHI,DELHI,NEW DELHI WEST,DELHI,DELHI
Nangloi S.O,Sub Post Office,110041,011-25943994,NEW DELHI,WEST DELHI,DELHI,NEW DELHI WEST,DELHI,DELHI
Nilothi B.O,Branch Post Office,110015,,NEW DELHI,WEST DELHI,DELHI,NEW DELHI WEST,DELHI,DELHI
Paschim Vihar B Block S.O,Sub Post Office,110063,011-25256522,NEW DELHI,WEST DELHI,DELHI,NEW DELHI WEST,DELHI,DELHI
Paschim Vihar S.O,Sub Post Office,110063,011-25260120,NEW DELHI,WEST DELHI,DELHI,NEW DELHI WEST,DELHI,DELHI
Peeragarhi B.O,Branch Post Office,110015,,NEW DELHI,WEST DELHI,DELHI,NEW DELHI WEST,DELHI,DELHI
Punjabi Bagh S.O,Sub Post Office,110026,011-28311506,NEW DELHI,WEST DELHI,DELHI,NEW DELHI WEST,DELHI,DELHI
Punjabi Bagh Sec - III S.O,Sub Post Office,110026,011-25226661,NEW DELHI,WEST DELHI,DELHI,NEW DELHI WEST,DELHI,DELHI
Rajouri Garden S.O,Sub Post Office,110027,011-25413476,NEW DELHI,WEST DELHI,DELHI,NEW DELHI WEST,DELHI,DELHI
Rajouri Market S.O,Sub Post Office,110027,011-25100881,NEW DELHI,WEST DELHI,DELHI,NEW DELHI WEST,DELHI,DELHI
Ramesh Nagar H.O,Head Post Office,110015,011-25193796,NEW DELHI,WEST DELHI,DELHI,NEW DELHI WEST,DELHI,DELHI
Ranhola B.O,Branch Post Office,110015,,NEW DELHI,WEST DELHI,DELHI,NEW DELHI WEST,DELHI,DELHI
Shivaji Park S.O,Sub Post Office,110026,011-25226626,NEW DELHI,WEST DELHI,DELHI,NEW DELHI WEST,DELHI,DELHI
Subhash Nagar S.O,Sub Post Office,110027,011-25146725,NEW DELHI,WEST DELHI,DELHI,NEW DELHI WEST,DELHI,DELHI
Subhash Nagar West S.O,Sub Post Office,110027,011-25136282,NEW DELHI,WEST DELHI,DELHI,NEW DELHI WEST,DELHI,DELHI
Sunder Vihar S.O,Sub Post Office,110087,011-25254434,NEW DELHI,WEST DELHI,DELHI,NEW DELHI WEST,DELHI,DELHI
Tikri Kalan B.O,Branch Post Office,110015,,NEW DELHI,WEST DELHI,DELHI,NEW DELHI WEST,DELHI,DELHI
Tilak Nagar East S.O,Sub Post Office,110018,011-25997370,NEW DELHI,WEST DELHI,DELHI,NEW DELHI WEST,DELHI,DELHI
Tilak Nagar S.O,Sub Post Office,110018,011-25990930,NEW DELHI,WEST DELHI,DELHI,NEW DELHI WEST,DELHI,DELHI
Uttam Nagar S.O,Sub Post Office,110059,011-28563854,NEW DELHI,WEST DELHI,DELHI,NEW DELHI WEST,DELHI,DELHI
Vikas Puri S.O,Sub Post Office,110018,011-28547882,NEW DELHI,WEST DELHI,DELHI,NEW DELHI WEST,DELHI,DELHI
Vishnu Garden S.O,Sub Post Office,110018,011-25986367,NEW DELHI,WEST DELHI,DELHI,NEW DELHI WEST,DELHI,DELHI
Zakhira S.O,Sub Post Office,110015,011-25178487,NEW DELHI,WEST DELHI,DELHI,NEW DELHI WEST,DELHI,DELHI
