OFFICE NAME,OFFICE STATUS,PINCODE,TELEPHONE NO.,TALUK,DISTRICT,STATE/U.T.,POSTAL DIVISION,POSTAL REGION,POSTAL CIRCLE
                                                                                                            ,,                                          (THE INFORMATION IS SORTED DISTRICT AND TALUK WISE),,,,,,,
,,,,,,,,,
Derasalimpur B.O,Branch Post Office,133201,,.,AMBALA,HARYANA,AMBALA,AMBALA  HQ,HARYANA
A.K. Line S.O,Sub Post Office,133001,0171-2645756,Ambala,AMBALA,HARYANA,AMBALA,AMBALA  HQ,HARYANA
Adhoya S.O,Sub Post Office,133205,0171-283090,Ambala,AMBALA,HARYANA,AMBALA,AMBALA  HQ,HARYANA
Adhoyi B.O,Branch Post Office,133205,,Ambala,AMBALA,HARYANA,AMBALA,AMBALA  HQ,HARYANA
Alipur Jahangir B.O,Branch Post Office,133202,,Ambala,AMBALA,HARYANA,AMBALA,AMBALA  HQ,HARYANA
Ambala City H.O,Head Post Office,134003,0171-2556746,Ambala,AMBALA,HARYANA,AMBALA,AMBALA  HQ,HARYANA
Ambala G.P.O. ,Head Post Office,133001,0171-2640952,Ambala,AMBALA,HARYANA,AMBALA,AMBALA  HQ,HARYANA
Auto  Industries S.O,Sub Post Office,135001,01732-250602,Ambala,AMBALA,HARYANA,AMBALA,AMBALA  HQ,HARYANA
Babyal S.O,Sub Post Office,133005,0171-2669597,Ambala,AMBALA,HARYANA,AMBALA,AMBALA  HQ,HARYANA
Baknaur B.O,Branch Post Office,134003,,Ambala,AMBALA,HARYANA,AMBALA,AMBALA  HQ,HARYANA
Ballana B.O,Branch Post Office,134003,,Ambala,AMBALA,HARYANA,AMBALA,AMBALA  HQ,HARYANA
Bara B.O,Branch Post Office,133004,,Ambala,AMBALA,HARYANA,AMBALA,AMBALA  HQ,HARYANA
Barara S.O,Sub Post Office,133201,01731-283022,Ambala,AMBALA,HARYANA,AMBALA,AMBALA  HQ,HARYANA
Baraula B.O,Branch Post Office,133004,,Ambala,AMBALA,HARYANA,AMBALA,AMBALA  HQ,HARYANA
Bhanokheri B.O,Branch Post Office,134003,,Ambala,AMBALA,HARYANA,AMBALA,AMBALA  HQ,HARYANA
Bhareli B.O,Branch Post Office,134118,,Ambala,AMBALA,HARYANA,AMBALA,AMBALA  HQ,HARYANA
Bhojkoti B.O,Branch Post Office,134205,,Ambala,AMBALA,HARYANA,AMBALA,AMBALA  HQ,HARYANA
Bihta S.O,Sub Post Office,133101,0171-2823702,Ambala,AMBALA,HARYANA,AMBALA,AMBALA  HQ,HARYANA
Boh S.O,Sub Post Office,133021,0171-123456,Ambala,AMBALA,HARYANA,AMBALA,AMBALA  HQ,HARYANA
Chaurmastpur B.O,Branch Post Office,134003,,Ambala,AMBALA,HARYANA,AMBALA,AMBALA  HQ,HARYANA
Chudiala B.O,Branch Post Office,133102,,Ambala,AMBALA,HARYANA,AMBALA,AMBALA  HQ,HARYANA
Commissioner Court S.O,Sub Post Office,133001,0171-2630496,Ambala,AMBALA,HARYANA,AMBALA,AMBALA  HQ,HARYANA
Danipur B.O,Branch Post Office,134003,,Ambala,AMBALA,HARYANA,AMBALA,AMBALA  HQ,HARYANA
Dhanana B.O,Branch Post Office,134201,,Ambala,AMBALA,HARYANA,AMBALA,AMBALA  HQ,HARYANA
Dhanaura B.O,Branch Post Office,133203,,Ambala,AMBALA,HARYANA,AMBALA,AMBALA  HQ,HARYANA
Dhankaur B.O,Branch Post Office,134003,,Ambala,AMBALA,HARYANA,AMBALA,AMBALA  HQ,HARYANA
Dhin S.O,Sub Post Office,133202,0171-276703,Ambala,AMBALA,HARYANA,AMBALA,AMBALA  HQ,HARYANA
Dhulkot B.O,Branch Post Office,134003,,Ambala,AMBALA,HARYANA,AMBALA,AMBALA  HQ,HARYANA
Dhurkara B.O,Branch Post Office,134003,,Ambala,AMBALA,HARYANA,AMBALA,AMBALA  HQ,HARYANA
Dinarpur B.O,Branch Post Office,133102,,Ambala,AMBALA,HARYANA,AMBALA,AMBALA  HQ,HARYANA
Dukheri B.O,Branch Post Office,133004,,Ambala,AMBALA,HARYANA,AMBALA,AMBALA  HQ,HARYANA
Duliani B.O,Branch Post Office,133202,,Ambala,AMBALA,HARYANA,AMBALA,AMBALA  HQ,HARYANA
Durana B.O,Branch Post Office,133004,,Ambala,AMBALA,HARYANA,AMBALA,AMBALA  HQ,HARYANA
Fatehgarh B.O,Branch Post Office,134201,,Ambala,AMBALA,HARYANA,AMBALA,AMBALA  HQ,HARYANA
Ghail B.O,Branch Post Office,134003,,Ambala,AMBALA,HARYANA,AMBALA,AMBALA  HQ,HARYANA
Gobind Nagar S.O,Sub Post Office,133001,0171-2651040,Ambala,AMBALA,HARYANA,AMBALA,AMBALA  HQ,HARYANA
Gokal Garh B.O,Branch Post Office,133203,,Ambala,AMBALA,HARYANA,AMBALA,AMBALA  HQ,HARYANA
Hargolal S.O,Sub Post Office,133001,0171-2630195,Ambala,AMBALA,HARYANA,AMBALA,AMBALA  HQ,HARYANA
Holi B.O,Branch Post Office,133201,,Ambala,AMBALA,HARYANA,AMBALA,AMBALA  HQ,HARYANA
I.A.F.Line S.O,Sub Post Office,133001,0171-2630945,Ambala,AMBALA,HARYANA,AMBALA,AMBALA  HQ,HARYANA
Ind-estate S.O,Sub Post Office,133006,0171-2699616,Ambala,AMBALA,HARYANA,AMBALA,AMBALA  HQ,HARYANA
Jalbera B.O,Branch Post Office,134003,,Ambala,AMBALA,HARYANA,AMBALA,AMBALA  HQ,HARYANA
Jansui B.O,Branch Post Office,134003,,Ambala,AMBALA,HARYANA,AMBALA,AMBALA  HQ,HARYANA
Kacha Bazar S.O,Sub Post Office,133001,0171-2618141,Ambala,AMBALA,HARYANA,AMBALA,AMBALA  HQ,HARYANA
Kakroo B.O,Branch Post Office,134003,,Ambala,AMBALA,HARYANA,AMBALA,AMBALA  HQ,HARYANA
Kalarehri B.O,Branch Post Office,133001,,Ambala,AMBALA,HARYANA,AMBALA,AMBALA  HQ,HARYANA
Kalpi B.O,Branch Post Office,133104,,Ambala,AMBALA,HARYANA,AMBALA,AMBALA  HQ,HARYANA
Kambassi B.O,Branch Post Office,133205,,Ambala,AMBALA,HARYANA,AMBALA,AMBALA  HQ,HARYANA
Kanwala B.O,Branch Post Office,134003,,Ambala,AMBALA,HARYANA,AMBALA,AMBALA  HQ,HARYANA
Kaserla Kalan B.O,Branch Post Office,133205,,Ambala,AMBALA,HARYANA,AMBALA,AMBALA  HQ,HARYANA
Kathgarh Chhappar B.O,Branch Post Office,134003,,Ambala,AMBALA,HARYANA,AMBALA,AMBALA  HQ,HARYANA
Keshopur Samalkha B.O,Branch Post Office,133101,,Ambala,AMBALA,HARYANA,AMBALA,AMBALA  HQ,HARYANA
Kesri S.O,Sub Post Office,133102,0171-2830720,Ambala,AMBALA,HARYANA,AMBALA,AMBALA  HQ,HARYANA
Khanpur B.O,Branch Post Office,133102,,Ambala,AMBALA,HARYANA,AMBALA,AMBALA  HQ,HARYANA
Khanpur Brahmana B.O,Branch Post Office,134201,,Ambala,AMBALA,HARYANA,AMBALA,AMBALA  HQ,HARYANA
Kharanwali B.O,Branch Post Office,133302,,Ambala,AMBALA,HARYANA,AMBALA,AMBALA  HQ,HARYANA
Kharga Canteen S.O,Sub Post Office,133001,0171-2632028,Ambala,AMBALA,HARYANA,AMBALA,AMBALA  HQ,HARYANA
Khatauli B.O,Branch Post Office,134118,,Ambala,AMBALA,HARYANA,AMBALA,AMBALA  HQ,HARYANA
Khudda Kalan B.O,Branch Post Office,133104,,Ambala,AMBALA,HARYANA,AMBALA,AMBALA  HQ,HARYANA
Kot B.O,Branch Post Office,134118,,Ambala,AMBALA,HARYANA,AMBALA,AMBALA  HQ,HARYANA
Kuldeep Nagar S.O,Sub Post Office,133004,0171-2611147,Ambala,AMBALA,HARYANA,AMBALA,AMBALA  HQ,HARYANA
Landa B.O,Branch Post Office,133102,,Ambala,AMBALA,HARYANA,AMBALA,AMBALA  HQ,HARYANA
Mahesh Nagar S.O,Sub Post Office,133001,0171-2662546,Ambala,AMBALA,HARYANA,AMBALA,AMBALA  HQ,HARYANA
Mandhana B.O,Branch Post Office,134205,,Ambala,AMBALA,HARYANA,AMBALA,AMBALA  HQ,HARYANA
Mandhaur B.O,Branch Post Office,134003,,Ambala,AMBALA,HARYANA,AMBALA,AMBALA  HQ,HARYANA
Manka Manki B.O,Branch Post Office,133202,,Ambala,AMBALA,HARYANA,AMBALA,AMBALA  HQ,HARYANA
Manu Majra B.O,Branch Post Office,133205,,Ambala,AMBALA,HARYANA,AMBALA,AMBALA  HQ,HARYANA
Mardon Sahib B.O,Branch Post Office,133004,,Ambala,AMBALA,HARYANA,AMBALA,AMBALA  HQ,HARYANA
Matheri Sekhan B.O,Branch Post Office,134003,,Ambala,AMBALA,HARYANA,AMBALA,AMBALA  HQ,HARYANA
Mehmoodpur B.O,Branch Post Office,133104,,Ambala,AMBALA,HARYANA,AMBALA,AMBALA  HQ,HARYANA
Mohra B.O,Branch Post Office,133004,,Ambala,AMBALA,HARYANA,AMBALA,AMBALA  HQ,HARYANA
Mullana S.O,Sub Post Office,133203,01731-275459,Ambala,AMBALA,HARYANA,AMBALA,AMBALA  HQ,HARYANA
Naggal B.O,Branch Post Office,134003,,Ambala,AMBALA,HARYANA,AMBALA,AMBALA  HQ,HARYANA
Nagla Jattan B.O,Branch Post Office,133102,,Ambala,AMBALA,HARYANA,AMBALA,AMBALA  HQ,HARYANA
Nahoni B.O,Branch Post Office,133104,,Ambala,AMBALA,HARYANA,AMBALA,AMBALA  HQ,HARYANA
Nasrauli B.O,Branch Post Office,134201,,Ambala,AMBALA,HARYANA,AMBALA,AMBALA  HQ,HARYANA
P&t Colony S.O,Sub Post Office,133001,0171-123456,Ambala,AMBALA,HARYANA,AMBALA,AMBALA  HQ,HARYANA
Palam Vihar S.O,Sub Post Office,133001,0171-2650145,Ambala,AMBALA,HARYANA,AMBALA,AMBALA  HQ,HARYANA
Pasiala B.O,Branch Post Office,133102,,Ambala,AMBALA,HARYANA,AMBALA,AMBALA  HQ,HARYANA
Patwi B.O,Branch Post Office,134201,,Ambala,AMBALA,HARYANA,AMBALA,AMBALA  HQ,HARYANA
Pilkhani B.O,Branch Post Office,133104,,Ambala,AMBALA,HARYANA,AMBALA,AMBALA  HQ,HARYANA
Punjabi Mohalla S.O,Sub Post Office,133001,0171-2632094,Ambala,AMBALA,HARYANA,AMBALA,AMBALA  HQ,HARYANA
Rail Vihar S.O,Sub Post Office,133001,171-12345678,Ambala,AMBALA,HARYANA,AMBALA,AMBALA  HQ,HARYANA
Rajo Kheri B.O,Branch Post Office,133201,,Ambala,AMBALA,HARYANA,AMBALA,AMBALA  HQ,HARYANA
Rajouli B.O,Branch Post Office,133201,,Ambala,AMBALA,HARYANA,AMBALA,AMBALA  HQ,HARYANA
Sadar Bazar S.O,Sub Post Office,133001,171-2630874,Ambala,AMBALA,HARYANA,AMBALA,AMBALA  HQ,HARYANA
Saha S.O,Sub Post Office,133104,171-2822229,Ambala,AMBALA,HARYANA,AMBALA,AMBALA  HQ,HARYANA
Samlerhi B.O,Branch Post Office,133104,,Ambala,AMBALA,HARYANA,AMBALA,AMBALA  HQ,HARYANA
Saran B.O,Branch Post Office,133202,,Ambala,AMBALA,HARYANA,AMBALA,AMBALA  HQ,HARYANA
Sarsehri B.O,Branch Post Office,133001,,Ambala,AMBALA,HARYANA,AMBALA,AMBALA  HQ,HARYANA
Saunta B.O,Branch Post Office,134003,,Ambala,AMBALA,HARYANA,AMBALA,AMBALA  HQ,HARYANA
Segti B.O,Branch Post Office,134003,,Ambala,AMBALA,HARYANA,AMBALA,AMBALA  HQ,HARYANA
Sewan Majra B.O,Branch Post Office,133205,,Ambala,AMBALA,HARYANA,AMBALA,AMBALA  HQ,HARYANA
Shah Pur B.O,Branch Post Office,133004,,Ambala,AMBALA,HARYANA,AMBALA,AMBALA  HQ,HARYANA
Sohana B.O,Branch Post Office,133203,,Ambala,AMBALA,HARYANA,AMBALA,AMBALA  HQ,HARYANA
Tandwal B.O,Branch Post Office,133201,,Ambala,AMBALA,HARYANA,AMBALA,AMBALA  HQ,HARYANA
Tandwal B.O,Branch Post Office,133201,,Ambala,AMBALA,HARYANA,AMBALA,AMBALA  HQ,HARYANA
Tepla B.O,Branch Post Office,133104,,Ambala,AMBALA,HARYANA,AMBALA,AMBALA  HQ,HARYANA
Thakar Pura B.O,Branch Post Office,133203,,Ambala,AMBALA,HARYANA,AMBALA,AMBALA  HQ,HARYANA
Tharwa B.O,Branch Post Office,133004,,Ambala,AMBALA,HARYANA,AMBALA,AMBALA  HQ,HARYANA
Thumber B.O,Branch Post Office,133205,,Ambala,AMBALA,HARYANA,AMBALA,AMBALA  HQ,HARYANA
Toda B.O,Branch Post Office,134201,,Ambala,AMBALA,HARYANA,AMBALA,AMBALA  HQ,HARYANA
Top Khana Bazar S.O,Sub Post Office,133001,171-2630592,Ambala,AMBALA,HARYANA,AMBALA,AMBALA  HQ,HARYANA
Udaipur B.O,Branch Post Office,134003,,Ambala,AMBALA,HARYANA,AMBALA,AMBALA  HQ,HARYANA
Ugala B.O,Branch Post Office,133205,,Ambala,AMBALA,HARYANA,AMBALA,AMBALA  HQ,HARYANA
Ambala  City Kucthery S.O,Sub Post Office,134003,0171-2530545,Ambala city,AMBALA,HARYANA,AMBALA,AMBALA  HQ,HARYANA
Bazar Basti Ram S.O,Sub Post Office,134003,0171-2557702,Ambala city,AMBALA,HARYANA,AMBALA,AMBALA  HQ,HARYANA
Jatwar S.O,Sub Post Office,134201,01734-276645,Ambala city,AMBALA,HARYANA,AMBALA,AMBALA  HQ,HARYANA
Morni S.O,Sub Post Office,134205,01733-250130,Ambala city,AMBALA,HARYANA,AMBALA,AMBALA  HQ,HARYANA
Naneola S.O,Sub Post Office,134012,0171-12345698,Ambala city,AMBALA,HARYANA,AMBALA,AMBALA  HQ,HARYANA
Naraingarh S.O,Sub Post Office,134203,01734-284010,Ambala city,AMBALA,HARYANA,AMBALA,AMBALA  HQ,HARYANA
Panjokhra Sahib S.O,Sub Post Office,134011,0171-123456,Ambala City,AMBALA,HARYANA,AMBALA,AMBALA  HQ,HARYANA
Shahzadpur S.O,Sub Post Office,134202,1734-277222,Ambala city,AMBALA,HARYANA,AMBALA,AMBALA  HQ,HARYANA
Anaj Mandi S.O,Sub Post Office,134003,0171-2518706,Ambala City HO,AMBALA,HARYANA,AMBALA,AMBALA  HQ,HARYANA
B.C.W. Suraj Pur S.O,Sub Post Office,133301,01733-262532,Ambala City HO,AMBALA,HARYANA,AMBALA,AMBALA  HQ,HARYANA
Baldev Nagar S.O,Sub Post Office,134007,0171-2540273,Ambala City HO,AMBALA,HARYANA,AMBALA,AMBALA  HQ,HARYANA
Civil Line S.O,Sub Post Office,134003,0171-123456,Ambala City HO,AMBALA,HARYANA,AMBALA,AMBALA  HQ,HARYANA
D.A.V.College S.O,Sub Post Office,134003,0171-2444246,Ambala City HO,AMBALA,HARYANA,AMBALA,AMBALA  HQ,HARYANA
Geeta Nagri S.O,Sub Post Office,134003,0171-2540203,Ambala City HO,AMBALA,HARYANA,AMBALA,AMBALA  HQ,HARYANA
Model Town Ambala City S.O,Sub Post Office,134003,0171-2520574,Ambala City HO,AMBALA,HARYANA,AMBALA,AMBALA  HQ,HARYANA
Motor Stand S.O,Sub Post Office,134003,0171-2510042,Ambala City HO,AMBALA,HARYANA,AMBALA,AMBALA  HQ,HARYANA
Patel Nagri S.O,Sub Post Office,134003,0171-11111111,Ambala City HO,AMBALA,HARYANA,AMBALA,AMBALA  HQ,HARYANA
Preet Nagar S.O,Sub Post Office,134003,0171-2553472,Ambala City HO,AMBALA,HARYANA,AMBALA,AMBALA  HQ,HARYANA
Prem Nagar S.O,Sub Post Office,134003,0171-2550639,Ambala City HO,AMBALA,HARYANA,AMBALA,AMBALA  HQ,HARYANA
Railway Road Ambala City S.O,Sub Post Office,134003,171-2511136,Ambala City HO,AMBALA,HARYANA,AMBALA,AMBALA  HQ,HARYANA
Subzi  Mandi S.O,Sub Post Office,134003,171-2446929,Ambala City HO,AMBALA,HARYANA,AMBALA,AMBALA  HQ,HARYANA
Thendog B.O,Branch Post Office,134205,,Panchkul;a,AMBALA,HARYANA,AMBALA,AMBALA  HQ,HARYANA
Akbarpur B.O,Branch Post Office,134203,,Panchkula,AMBALA,HARYANA,AMBALA,AMBALA  HQ,HARYANA
Ambli B.O,Branch Post Office,134203,,panchkula,AMBALA,HARYANA,AMBALA,AMBALA  HQ,HARYANA
Bhareri Kalan B.O,Branch Post Office,134203,,Panchkula,AMBALA,HARYANA,AMBALA,AMBALA  HQ,HARYANA
Gadhauli B.O,Branch Post Office,134203,,Panchkula,AMBALA,HARYANA,AMBALA,AMBALA  HQ,HARYANA
Ganesh Pur B.O,Branch Post Office,134202,,Panchkula,AMBALA,HARYANA,AMBALA,AMBALA  HQ,HARYANA
Garhi Kotaha B.O,Branch Post Office,134204,,Panchkula,AMBALA,HARYANA,AMBALA,AMBALA  HQ,HARYANA
Hamidpur B.O,Branch Post Office,134203,,Panchkula,AMBALA,HARYANA,AMBALA,AMBALA  HQ,HARYANA
Hangola B.O,Branch Post Office,134204,,Panchkula,AMBALA,HARYANA,AMBALA,AMBALA  HQ,HARYANA
Haripur B.O,Branch Post Office,134204,,Panchkula,AMBALA,HARYANA,AMBALA,AMBALA  HQ,HARYANA
Jeoli B.O,Branch Post Office,134203,,Panchkula,AMBALA,HARYANA,AMBALA,AMBALA  HQ,HARYANA
Kakkar Majra B.O,Branch Post Office,134202,,Panchkula,AMBALA,HARYANA,AMBALA,AMBALA  HQ,HARYANA
Kandiwala B.O,Branch Post Office,134204,,Panchkula,AMBALA,HARYANA,AMBALA,AMBALA  HQ,HARYANA
Karasan B.O,Branch Post Office,134202,,Panchkula,AMBALA,HARYANA,AMBALA,AMBALA  HQ,HARYANA
Kathe Majra B.O,Branch Post Office,134203,,Panchkula,AMBALA,HARYANA,AMBALA,AMBALA  HQ,HARYANA
Korwa Khurd B.O,Branch Post Office,134202,,Panchkula,AMBALA,HARYANA,AMBALA,AMBALA  HQ,HARYANA
Kurali B.O,Branch Post Office,134203,,Panchkula,AMBALA,HARYANA,AMBALA,AMBALA  HQ,HARYANA
Laha B.O,Branch Post Office,134203,,Panchkula,AMBALA,HARYANA,AMBALA,AMBALA  HQ,HARYANA
Lakhnaura B.O,Branch Post Office,134203,,Panchkula,AMBALA,HARYANA,AMBALA,AMBALA  HQ,HARYANA
Lalpur B.O,Branch Post Office,134203,,Panchkula,AMBALA,HARYANA,AMBALA,AMBALA  HQ,HARYANA
Manak  Tabra B.O,Branch Post Office,134204,,Panchkula,AMBALA,HARYANA,AMBALA,AMBALA  HQ,HARYANA
Panjlasa B.O,Branch Post Office,134203,,Panchkula,AMBALA,HARYANA,AMBALA,AMBALA  HQ,HARYANA
Patrehri B.O,Branch Post Office,134202,,Panchkula,AMBALA,HARYANA,AMBALA,AMBALA  HQ,HARYANA
Achina S.O,Sub Post Office,127307,,ACHINA,BHIWANI,HARYANA,BHIWANI,AMBALA  HQ,HARYANA
Badhara S.O,Sub Post Office,127308,,BADHARA,BHIWANI,HARYANA,BHIWANI,AMBALA  HQ,HARYANA
Baund S.O,Sub Post Office,127025,,BAUND,BHIWANI,HARYANA,BHIWANI,AMBALA  HQ,HARYANA
Barsi B.O,Branch Post Office,127032,,BAWANI KHERA,BHIWANI,HARYANA,BHIWANI,AMBALA  HQ,HARYANA
Bawani Khera S.O,Sub Post Office,127032,,BAWANI KHERA,BHIWANI,HARYANA,BHIWANI,AMBALA  HQ,HARYANA
Durjanpur B.O,Branch Post Office,127032,,BAWANI KHERA,BHIWANI,HARYANA,BHIWANI,AMBALA  HQ,HARYANA
Jamalpur S.O,Sub Post Office,127035,,BAWANI KHERA,BHIWANI,HARYANA,BHIWANI,AMBALA  HQ,HARYANA
Lohari Jatu B.O,Branch Post Office,127032,,BAWANI KHERA,BHIWANI,HARYANA,BHIWANI,AMBALA  HQ,HARYANA
Mandhana B.O,Branch Post Office,127032,,BAWANI KHERA,BHIWANI,HARYANA,BHIWANI,AMBALA  HQ,HARYANA
Milkpur B.O,Branch Post Office,127032,,BAWANI KHERA,BHIWANI,HARYANA,BHIWANI,AMBALA  HQ,HARYANA
Pur B.O,Branch Post Office,127032,,BAWANI KHERA,BHIWANI,HARYANA,BHIWANI,AMBALA  HQ,HARYANA
Siwara B.O,Branch Post Office,127032,,BAWANIKHERA,BHIWANI,HARYANA,BHIWANI,AMBALA  HQ,HARYANA
Badesera B.O,Branch Post Office,127031,,BHIWANI,BHIWANI,HARYANA,BHIWANI,AMBALA  HQ,HARYANA
Bajina B.O,Branch Post Office,127111,,BHIWANI,BHIWANI,HARYANA,BHIWANI,AMBALA  HQ,HARYANA
Baliali B.O,Branch Post Office,127032,,BHIWANI,BHIWANI,HARYANA,BHIWANI,AMBALA  HQ,HARYANA
Bamla B.O,Branch Post Office,127021,,BHIWANI,BHIWANI,HARYANA,BHIWANI,AMBALA  HQ,HARYANA
Bapora S.O,Sub Post Office,127111,,BHIWANI,BHIWANI,HARYANA,BHIWANI,AMBALA  HQ,HARYANA
Bhaini Kungar B.O,Branch Post Office,127041,,BHIWANI,BHIWANI,HARYANA,BHIWANI,AMBALA  HQ,HARYANA
Bhangarh B.O,Branch Post Office,127030,,BHIWANI,BHIWANI,HARYANA,BHIWANI,AMBALA  HQ,HARYANA
Bhariwas B.O,Branch Post Office,127043,,BHIWANI,BHIWANI,HARYANA,BHIWANI,AMBALA  HQ,HARYANA
Bhera B.O,Branch Post Office,127043,,BHIWANI,BHIWANI,HARYANA,BHIWANI,AMBALA  HQ,HARYANA
Bhiwani H.O,Head Post Office,127021,,BHIWANI,BHIWANI,HARYANA,BHIWANI,AMBALA  HQ,HARYANA
Bhurtana B.O,Branch Post Office,127035,,BHIWANI,BHIWANI,HARYANA,BHIWANI,AMBALA  HQ,HARYANA
Bhushan B.O,Branch Post Office,127043,,BHIWANI,BHIWANI,HARYANA,BHIWANI,AMBALA  HQ,HARYANA
Biran B.O,Branch Post Office,127111,,BHIWANI,BHIWANI,HARYANA,BHIWANI,AMBALA  HQ,HARYANA
Birla Colony Bhiwani S.O,Sub Post Office,127021,,BHIWANI,BHIWANI,HARYANA,BHIWANI,AMBALA  HQ,HARYANA
Bseh Bhiwani S.O,Sub Post Office,127020,,BHIWANI,BHIWANI,HARYANA,BHIWANI,AMBALA  HQ,HARYANA
Bus Stand Bhiwani S.O,Sub Post Office,127021,,BHIWANI,BHIWANI,HARYANA,BHIWANI,AMBALA  HQ,HARYANA
Chandawas B.O,Branch Post Office,127029,,BHIWANI,BHIWANI,HARYANA,BHIWANI,AMBALA  HQ,HARYANA
Chang S.O,Sub Post Office,127027,,BHIWANI,BHIWANI,HARYANA,BHIWANI,AMBALA  HQ,HARYANA
Chappar Rangran B.O,Branch Post Office,127040,,BHIWANI,BHIWANI,HARYANA,BHIWANI,AMBALA  HQ,HARYANA
Dadam B.O,Branch Post Office,127040,,BHIWANI,BHIWANI,HARYANA,BHIWANI,AMBALA  HQ,HARYANA
Dandama B.O,Branch Post Office,127030,,BHIWANI,BHIWANI,HARYANA,BHIWANI,AMBALA  HQ,HARYANA
Dang B.O,Branch Post Office,127111,,BHIWANI,BHIWANI,HARYANA,BHIWANI,AMBALA  HQ,HARYANA
Daryapur B.O,Branch Post Office,127040,,BHIWANI,BHIWANI,HARYANA,BHIWANI,AMBALA  HQ,HARYANA
Devrala B.O,Branch Post Office,127029,,BHIWANI,BHIWANI,HARYANA,BHIWANI,AMBALA  HQ,HARYANA
Devsar B.O,Branch Post Office,127021,,BHIWANI,BHIWANI,HARYANA,BHIWANI,AMBALA  HQ,HARYANA
Dhabdhani B.O,Branch Post Office,127030,,BHIWANI,BHIWANI,HARYANA,BHIWANI,AMBALA  HQ,HARYANA
Dhana Ladan Pur B.O,Branch Post Office,127021,,BHIWANI,BHIWANI,HARYANA,BHIWANI,AMBALA  HQ,HARYANA
Dhanana B.O,Branch Post Office,127031,,BHIWANI,BHIWANI,HARYANA,BHIWANI,AMBALA  HQ,HARYANA
Dhani Mahu B.O,Branch Post Office,127040,,BHIWANI,BHIWANI,HARYANA,BHIWANI,AMBALA  HQ,HARYANA
Dhareru B.O,Branch Post Office,127309,,BHIWANI,BHIWANI,HARYANA,BHIWANI,AMBALA  HQ,HARYANA
Dhirana B.O,Branch Post Office,127021,,BHIWANI,BHIWANI,HARYANA,BHIWANI,AMBALA  HQ,HARYANA
Dinod B.O,Branch Post Office,127111,,BHIWANI,BHIWANI,HARYANA,BHIWANI,AMBALA  HQ,HARYANA
Dulheri B.O,Branch Post Office,127040,,BHIWANI,BHIWANI,HARYANA,BHIWANI,AMBALA  HQ,HARYANA
Fatehgarh Haryana B.O,Branch Post Office,127309,,BHIWANI,BHIWANI,HARYANA,BHIWANI,AMBALA  HQ,HARYANA
Garanpura Kalan B.O,Branch Post Office,127040,,BHIWANI,BHIWANI,HARYANA,BHIWANI,AMBALA  HQ,HARYANA
Golagarh B.O,Branch Post Office,127030,,BHIWANI,BHIWANI,HARYANA,BHIWANI,AMBALA  HQ,HARYANA
Golpura B.O,Branch Post Office,127030,,BHIWANI,BHIWANI,HARYANA,BHIWANI,AMBALA  HQ,HARYANA
Gujrani B.O,Branch Post Office,127031,,BHIWANI,BHIWANI,HARYANA,BHIWANI,AMBALA  HQ,HARYANA
Halu Bajar Bhiwani S.O,Sub Post Office,127021,,BHIWANI,BHIWANI,HARYANA,BHIWANI,AMBALA  HQ,HARYANA
Haluwas B.O,Branch Post Office,127021,,BHIWANI,BHIWANI,HARYANA,BHIWANI,AMBALA  HQ,HARYANA
Hetampura B.O,Branch Post Office,127029,,BHIWANI,BHIWANI,HARYANA,BHIWANI,AMBALA  HQ,HARYANA
Isharwal B.O,Branch Post Office,127043,,BHIWANI,BHIWANI,HARYANA,BHIWANI,AMBALA  HQ,HARYANA
Jalan Hospital Bhiwani S.O,Sub Post Office,127021,,BHIWANI,BHIWANI,HARYANA,BHIWANI,AMBALA  HQ,HARYANA
Jatai B.O,Branch Post Office,127041,,BHIWANI,BHIWANI,HARYANA,BHIWANI,AMBALA  HQ,HARYANA
Jhully B.O,Branch Post Office,127043,,BHIWANI,BHIWANI,HARYANA,BHIWANI,AMBALA  HQ,HARYANA
Jui Khurd S.O,Sub Post Office,127030,,BHIWANI,BHIWANI,HARYANA,BHIWANI,AMBALA  HQ,HARYANA
Kaila B.O,Branch Post Office,127309,,BHIWANI,BHIWANI,HARYANA,BHIWANI,AMBALA  HQ,HARYANA
Kairu S.O,Sub Post Office,127029,,BHIWANI,BHIWANI,HARYANA,BHIWANI,AMBALA  HQ,HARYANA
Kalinga B.O,Branch Post Office,127114,,BHIWANI,BHIWANI,HARYANA,BHIWANI,AMBALA  HQ,HARYANA
Kaunt B.O,Branch Post Office,127021,,BHIWANI,BHIWANI,HARYANA,BHIWANI,AMBALA  HQ,HARYANA
Khanak B.O,Branch Post Office,127040,,BHIWANI,BHIWANI,HARYANA,BHIWANI,AMBALA  HQ,HARYANA
Kharak Kalan S.O,Sub Post Office,127114,,BHIWANI,BHIWANI,HARYANA,BHIWANI,AMBALA  HQ,HARYANA
Kharkari Makhwan B.O,Branch Post Office,127040,,BHIWANI,BHIWANI,HARYANA,BHIWANI,AMBALA  HQ,HARYANA
Kharkhari Sohan B.O,Branch Post Office,127040,,BHIWANI,BHIWANI,HARYANA,BHIWANI,AMBALA  HQ,HARYANA
Kirawar B.O,Branch Post Office,127035,,BHIWANI,BHIWANI,HARYANA,BHIWANI,AMBALA  HQ,HARYANA
Kitlana B.O,Branch Post Office,127309,,BHIWANI,BHIWANI,HARYANA,BHIWANI,AMBALA  HQ,HARYANA
Kohar B.O,Branch Post Office,127111,,BHIWANI,BHIWANI,HARYANA,BHIWANI,AMBALA  HQ,HARYANA
Kungar B.O,Branch Post Office,127041,,BHIWANI,BHIWANI,HARYANA,BHIWANI,AMBALA  HQ,HARYANA
Kusumbhi B.O,Branch Post Office,127021,,BHIWANI,BHIWANI,HARYANA,BHIWANI,AMBALA  HQ,HARYANA
Leghan B.O,Branch Post Office,127029,,BHIWANI,BHIWANI,HARYANA,BHIWANI,AMBALA  HQ,HARYANA
Lohani B.O,Branch Post Office,127021,,BHIWANI,BHIWANI,HARYANA,BHIWANI,AMBALA  HQ,HARYANA
Lohar Bazar S.O,Sub Post Office,127021,,BHIWANI,BHIWANI,HARYANA,BHIWANI,AMBALA  HQ,HARYANA
Mandhan B.O,Branch Post Office,127043,,BHIWANI,BHIWANI,HARYANA,BHIWANI,AMBALA  HQ,HARYANA
Mandholi Kalan B.O,Branch Post Office,127043,,BHIWANI,BHIWANI,HARYANA,BHIWANI,AMBALA  HQ,HARYANA
Mansarbass B.O,Branch Post Office,127029,,BHIWANI,BHIWANI,HARYANA,BHIWANI,AMBALA  HQ,HARYANA
Mini Sect Bhiwani S.O,Sub Post Office,127021,,BHIWANI,BHIWANI,HARYANA,BHIWANI,AMBALA  HQ,HARYANA
Mitathal B.O,Branch Post Office,127031,,BHIWANI,BHIWANI,HARYANA,BHIWANI,AMBALA  HQ,HARYANA
Neemriwali B.O,Branch Post Office,127309,,BHIWANI,BHIWANI,HARYANA,BHIWANI,AMBALA  HQ,HARYANA
Paluwas B.O,Branch Post Office,127021,,BHIWANI,BHIWANI,HARYANA,BHIWANI,AMBALA  HQ,HARYANA
Paposa B.O,Branch Post Office,127035,,BHIWANI,BHIWANI,HARYANA,BHIWANI,AMBALA  HQ,HARYANA
Pohkarwas B.O,Branch Post Office,127030,,BHIWANI,BHIWANI,HARYANA,BHIWANI,AMBALA  HQ,HARYANA
Premnagar B.O,Branch Post Office,127031,,BHIWANI,BHIWANI,HARYANA,BHIWANI,AMBALA  HQ,HARYANA
Rajgarh B.O,Branch Post Office,127021,,BHIWANI,BHIWANI,HARYANA,BHIWANI,AMBALA  HQ,HARYANA
Ratera B.O,Branch Post Office,127035,,BHIWANI,BHIWANI,HARYANA,BHIWANI,AMBALA  HQ,HARYANA
Rewari Khera B.O,Branch Post Office,127027,,BHIWANI,BHIWANI,HARYANA,BHIWANI,AMBALA  HQ,HARYANA
Riwasa B.O,Branch Post Office,127040,,BHIWANI,BHIWANI,HARYANA,BHIWANI,AMBALA  HQ,HARYANA
Rodhan S.O,Sub Post Office,127043,,BHIWANI,BHIWANI,HARYANA,BHIWANI,AMBALA  HQ,HARYANA
Rohnat B.O,Branch Post Office,127035,,BHIWANI,BHIWANI,HARYANA,BHIWANI,AMBALA  HQ,HARYANA
Roopgarh B.O,Branch Post Office,127021,,BHIWANI,BHIWANI,HARYANA,BHIWANI,AMBALA  HQ,HARYANA
Sagban B.O,Branch Post Office,127040,,BHIWANI,BHIWANI,HARYANA,BHIWANI,AMBALA  HQ,HARYANA
Sai B.O,Branch Post Office,127027,,BHIWANI,BHIWANI,HARYANA,BHIWANI,AMBALA  HQ,HARYANA
Sandawa B.O,Branch Post Office,127043,,BHIWANI,BHIWANI,HARYANA,BHIWANI,AMBALA  HQ,HARYANA
Sanga B.O,Branch Post Office,127309,,BHIWANI,BHIWANI,HARYANA,BHIWANI,AMBALA  HQ,HARYANA
Siwana B.O,Branch Post Office,127041,,BHIWANI,BHIWANI,HARYANA,BHIWANI,AMBALA  HQ,HARYANA
Sui B.O,Branch Post Office,127031,,BHIWANI,BHIWANI,HARYANA,BHIWANI,AMBALA  HQ,HARYANA
Sungarpur B.O,Branch Post Office,127029,,BHIWANI,BHIWANI,HARYANA,BHIWANI,AMBALA  HQ,HARYANA
Talu B.O,Branch Post Office,127041,,BHIWANI,BHIWANI,HARYANA,BHIWANI,AMBALA  HQ,HARYANA
Thilod B.O,Branch Post Office,127040,,BHIWANI,BHIWANI,HARYANA,BHIWANI,AMBALA  HQ,HARYANA
Tigrana S.O,Sub Post Office,127031,,BHIWANI,BHIWANI,HARYANA,BHIWANI,AMBALA  HQ,HARYANA
Tosham S.O,Sub Post Office,127040,,BHIWANI,BHIWANI,HARYANA,BHIWANI,AMBALA  HQ,HARYANA
Umarwas B.O,Branch Post Office,127030,,BHIWANI,BHIWANI,HARYANA,BHIWANI,AMBALA  HQ,HARYANA
Asalwas Marheta B.O,Branch Post Office,127030,,BIWANI,BHIWANI,HARYANA,BHIWANI,AMBALA  HQ,HARYANA
Nandgaon B.O,Branch Post Office,127021,,BIWANI,BHIWANI,HARYANA,BHIWANI,AMBALA  HQ,HARYANA
Aun B.O,Branch Post Office,127310,,CHARKHI DADRI,BHIWANI,HARYANA,BHIWANI,AMBALA  HQ,HARYANA
Badhawana B.O,Branch Post Office,127310,,CHARKHI DADRI,BHIWANI,HARYANA,BHIWANI,AMBALA  HQ,HARYANA
Birhi Kalan S.O,Sub Post Office,127026,,CHARKHI DADRI,BHIWANI,HARYANA,BHIWANI,AMBALA  HQ,HARYANA
Chandeni B.O,Branch Post Office,127310,,CHARKHI DADRI,BHIWANI,HARYANA,BHIWANI,AMBALA  HQ,HARYANA
Charkhi  Dadri Hsg-ii S.O,Sub Post Office,127306,,CHARKHI DADRI,BHIWANI,HARYANA,BHIWANI,AMBALA  HQ,HARYANA
Charkhi B.O,Branch Post Office,127306,,CHARKHI DADRI,BHIWANI,HARYANA,BHIWANI,AMBALA  HQ,HARYANA
Charkhi Dadri City S.O,Sub Post Office,127306,,CHARKHI DADRI,BHIWANI,HARYANA,BHIWANI,AMBALA  HQ,HARYANA
Dhadhi Adampur B.O,Branch Post Office,127310,,CHARKHI DADRI,BHIWANI,HARYANA,BHIWANI,AMBALA  HQ,HARYANA
Dhadhi Mandola B.O,Branch Post Office,127306,,CHARKHI DADRI,BHIWANI,HARYANA,BHIWANI,AMBALA  HQ,HARYANA
Dhani Phogat B.O,Branch Post Office,127306,,CHARKHI DADRI,BHIWANI,HARYANA,BHIWANI,AMBALA  HQ,HARYANA
Ghasola B.O,Branch Post Office,127306,,CHARKHI DADRI,BHIWANI,HARYANA,BHIWANI,AMBALA  HQ,HARYANA
Gudana Kalan B.O,Branch Post Office,127310,,CHARKHI DADRI,BHIWANI,HARYANA,BHIWANI,AMBALA  HQ,HARYANA
Imlota B.O,Branch Post Office,127306,,CHARKHI DADRI,BHIWANI,HARYANA,BHIWANI,AMBALA  HQ,HARYANA
Janta College Charkhi Dadri S.O,Sub Post Office,127306,,CHARKHI DADRI,BHIWANI,HARYANA,BHIWANI,AMBALA  HQ,HARYANA
Jawa B.O,Branch Post Office,127310,,CHARKHI DADRI,BHIWANI,HARYANA,BHIWANI,AMBALA  HQ,HARYANA
Jhojhu S.O,Sub Post Office,127310,,CHARKHI DADRI,BHIWANI,HARYANA,BHIWANI,AMBALA  HQ,HARYANA
Kalyana B.O,Branch Post Office,127306,,CHARKHI DADRI,BHIWANI,HARYANA,BHIWANI,AMBALA  HQ,HARYANA
Kheri Bura B.O,Branch Post Office,127306,,CHARKHI DADRI,BHIWANI,HARYANA,BHIWANI,AMBALA  HQ,HARYANA
Manheru S.O,Sub Post Office,127309,,CHARKHI DADRI,BHIWANI,HARYANA,BHIWANI,AMBALA  HQ,HARYANA
Mankawas B.O,Branch Post Office,127306,,CHARKHI DADRI,BHIWANI,HARYANA,BHIWANI,AMBALA  HQ,HARYANA
Misri B.O,Branch Post Office,127042,,CHARKHI DADRI,BHIWANI,HARYANA,BHIWANI,AMBALA  HQ,HARYANA
Naurangabass Jattan B.O,Branch Post Office,127310,,CHARKHI DADRI,BHIWANI,HARYANA,BHIWANI,AMBALA  HQ,HARYANA
Neemli B.O,Branch Post Office,127306,,CHARKHI DADRI,BHIWANI,HARYANA,BHIWANI,AMBALA  HQ,HARYANA
Paitawas Kalan B.O,Branch Post Office,127306,,CHARKHI DADRI,BHIWANI,HARYANA,BHIWANI,AMBALA  HQ,HARYANA
Palari B.O,Branch Post Office,127310,,CHARKHI DADRI,BHIWANI,HARYANA,BHIWANI,AMBALA  HQ,HARYANA
Pichopa Kalan B.O,Branch Post Office,127310,,CHARKHI DADRI,BHIWANI,HARYANA,BHIWANI,AMBALA  HQ,HARYANA
Rambass B.O,Branch Post Office,127310,,CHARKHI DADRI,BHIWANI,HARYANA,BHIWANI,AMBALA  HQ,HARYANA
Ranila S.O,Sub Post Office,127110,,CHARKHI DADRI,BHIWANI,HARYANA,BHIWANI,AMBALA  HQ,HARYANA
Rawaldhi B.O,Branch Post Office,127306,,CHARKHI DADRI,BHIWANI,HARYANA,BHIWANI,AMBALA  HQ,HARYANA
Samaspur B.O,Branch Post Office,127306,,CHARKHI DADRI,BHIWANI,HARYANA,BHIWANI,AMBALA  HQ,HARYANA
Sanjarwas B.O,Branch Post Office,127042,,CHARKHI DADRI,BHIWANI,HARYANA,BHIWANI,AMBALA  HQ,HARYANA
Sankror B.O,Branch Post Office,127042,,CHARKHI DADRI,BHIWANI,HARYANA,BHIWANI,AMBALA  HQ,HARYANA
Sanwar S.O,Sub Post Office,127042,,CHARKHI DADRI,BHIWANI,HARYANA,BHIWANI,AMBALA  HQ,HARYANA
Sarupgarh B.O,Branch Post Office,127306,,CHARKHI DADRI,BHIWANI,HARYANA,BHIWANI,AMBALA  HQ,HARYANA
Chiriya S.O,Sub Post Office,127022,,CH-DADRI,BHIWANI,HARYANA,BHIWANI,AMBALA  HQ,HARYANA
Chang Road B.O,Branch Post Office,127022,,DADARI,BHIWANI,HARYANA,BHIWANI,AMBALA  HQ,HARYANA
Arya Nagar B.O,Branch Post Office,127308,,DADRI,BHIWANI,HARYANA,BHIWANI,AMBALA  HQ,HARYANA
Atela Khurd B.O,Branch Post Office,127026,,DADRI,BHIWANI,HARYANA,BHIWANI,AMBALA  HQ,HARYANA
Aun B.O,Branch Post Office,127025,,DADRI,BHIWANI,HARYANA,BHIWANI,AMBALA  HQ,HARYANA
Badal B.O,Branch Post Office,127026,,DADRI,BHIWANI,HARYANA,BHIWANI,AMBALA  HQ,HARYANA
Badrai B.O,Branch Post Office,127308,,DADRI,BHIWANI,HARYANA,BHIWANI,AMBALA  HQ,HARYANA
Barsana B.O,Branch Post Office,127026,,DADRI,BHIWANI,HARYANA,BHIWANI,AMBALA  HQ,HARYANA
Berla B.O,Branch Post Office,127308,,DADRI,BHIWANI,HARYANA,BHIWANI,AMBALA  HQ,HARYANA
Bhagesari B.O,Branch Post Office,127307,,DADRI,BHIWANI,HARYANA,BHIWANI,AMBALA  HQ,HARYANA
Bhagwi B.O,Branch Post Office,127307,,DADRI,BHIWANI,HARYANA,BHIWANI,AMBALA  HQ,HARYANA
Bigowa B.O,Branch Post Office,127307,,DADRI,BHIWANI,HARYANA,BHIWANI,AMBALA  HQ,HARYANA
Chandwas B.O,Branch Post Office,127308,,DADRI,BHIWANI,HARYANA,BHIWANI,AMBALA  HQ,HARYANA
Chappar B.O,Branch Post Office,127021,,DADRI,BHIWANI,HARYANA,BHIWANI,AMBALA  HQ,HARYANA
Dagroli B.O,Branch Post Office,127308,,DADRI,BHIWANI,HARYANA,BHIWANI,AMBALA  HQ,HARYANA
Dalawas B.O,Branch Post Office,127308,,DADRI,BHIWANI,HARYANA,BHIWANI,AMBALA  HQ,HARYANA
Dohka Harya B.O,Branch Post Office,127026,,DADRI,BHIWANI,HARYANA,BHIWANI,AMBALA  HQ,HARYANA
Dudhwa B.O,Branch Post Office,127022,,DADRI,BHIWANI,HARYANA,BHIWANI,AMBALA  HQ,HARYANA
Gopi B.O,Branch Post Office,127308,,DADRI,BHIWANI,HARYANA,BHIWANI,AMBALA  HQ,HARYANA
Harodi B.O,Branch Post Office,127308,,DADRI,BHIWANI,HARYANA,BHIWANI,AMBALA  HQ,HARYANA
Jewali B.O,Branch Post Office,127308,,DADRI,BHIWANI,HARYANA,BHIWANI,AMBALA  HQ,HARYANA
Jhijhar B.O,Branch Post Office,127307,,DADRI,BHIWANI,HARYANA,BHIWANI,AMBALA  HQ,HARYANA
Kadma B.O,Branch Post Office,127308,,DADRI,BHIWANI,HARYANA,BHIWANI,AMBALA  HQ,HARYANA
Kakroli Sardara B.O,Branch Post Office,127308,,DADRI,BHIWANI,HARYANA,BHIWANI,AMBALA  HQ,HARYANA
Kari Dharani B.O,Branch Post Office,127308,,DADRI,BHIWANI,HARYANA,BHIWANI,AMBALA  HQ,HARYANA
Kario Baniawalij B.O,Branch Post Office,127308,,DADRI,BHIWANI,HARYANA,BHIWANI,AMBALA  HQ,HARYANA
Lad B.O,Branch Post Office,127308,,DADRI,BHIWANI,HARYANA,BHIWANI,AMBALA  HQ,HARYANA
Loharwara B.O,Branch Post Office,127307,,DADRI,BHIWANI,HARYANA,BHIWANI,AMBALA  HQ,HARYANA
Makrana B.O,Branch Post Office,127022,,DADRI,BHIWANI,HARYANA,BHIWANI,AMBALA  HQ,HARYANA
Malkosh B.O,Branch Post Office,127025,,DADRI,BHIWANI,HARYANA,BHIWANI,AMBALA  HQ,HARYANA
Mandhi Harya B.O,Branch Post Office,127308,,DADRI,BHIWANI,HARYANA,BHIWANI,AMBALA  HQ,HARYANA
Mauri B.O,Branch Post Office,127022,,DADRI,BHIWANI,HARYANA,BHIWANI,AMBALA  HQ,HARYANA
Mehera B.O,Branch Post Office,127026,,DADRI,BHIWANI,HARYANA,BHIWANI,AMBALA  HQ,HARYANA
Morwala B.O,Branch Post Office,127307,,DADRI,BHIWANI,HARYANA,BHIWANI,AMBALA  HQ,HARYANA
Nandha B.O,Branch Post Office,127308,,DADRI,BHIWANI,HARYANA,BHIWANI,AMBALA  HQ,HARYANA
Rasiwas B.O,Branch Post Office,127021,,DADRI,BHIWANI,HARYANA,BHIWANI,AMBALA  HQ,HARYANA
Siswala B.O,Branch Post Office,127026,,DADRI,BHIWANI,HARYANA,BHIWANI,AMBALA  HQ,HARYANA
Tiwala B.O,Branch Post Office,127026,,DADRI,BHIWANI,HARYANA,BHIWANI,AMBALA  HQ,HARYANA
Bardu Chaina B.O,Branch Post Office,127201,,LOHARU,BHIWANI,HARYANA,BHIWANI,AMBALA  HQ,HARYANA
Barwas B.O,Branch Post Office,127201,,LOHARU,BHIWANI,HARYANA,BHIWANI,AMBALA  HQ,HARYANA
Bisalwas B.O,Branch Post Office,127201,,LOHARU,BHIWANI,HARYANA,BHIWANI,AMBALA  HQ,HARYANA
Budhera B.O,Branch Post Office,127201,,LOHARU,BHIWANI,HARYANA,BHIWANI,AMBALA  HQ,HARYANA
Chahar Kalan B.O,Branch Post Office,127201,,LOHARU,BHIWANI,HARYANA,BHIWANI,AMBALA  HQ,HARYANA
Chahar Khurd B.O,Branch Post Office,127201,,LOHARU,BHIWANI,HARYANA,BHIWANI,AMBALA  HQ,HARYANA
Dhani Dhola B.O,Branch Post Office,127201,,LOHARU,BHIWANI,HARYANA,BHIWANI,AMBALA  HQ,HARYANA
Dhighawa Jattan B.O,Branch Post Office,127201,,LOHARU,BHIWANI,HARYANA,BHIWANI,AMBALA  HQ,HARYANA
Fartia Bhima B.O,Branch Post Office,127201,,LOHARU,BHIWANI,HARYANA,BHIWANI,AMBALA  HQ,HARYANA
Gignow B.O,Branch Post Office,127201,,LOHARU,BHIWANI,HARYANA,BHIWANI,AMBALA  HQ,HARYANA
Jhanjra Sheoran B.O,Branch Post Office,127201,,LOHARU,BHIWANI,HARYANA,BHIWANI,AMBALA  HQ,HARYANA
Kharkari B.O,Branch Post Office,127201,,LOHARU,BHIWANI,HARYANA,BHIWANI,AMBALA  HQ,HARYANA
Kural B.O,Branch Post Office,127201,,LOHARU,BHIWANI,HARYANA,BHIWANI,AMBALA  HQ,HARYANA
Loharu S.O,Sub Post Office,127201,,LOHARU,BHIWANI,HARYANA,BHIWANI,AMBALA  HQ,HARYANA
Nakipur B.O,Branch Post Office,127201,,LOHARU,BHIWANI,HARYANA,BHIWANI,AMBALA  HQ,HARYANA
Parvezpur B.O,Branch Post Office,127201,,LOHARU,BHIWANI,HARYANA,BHIWANI,AMBALA  HQ,HARYANA
Sehar B.O,Branch Post Office,127201,,LOHARU,BHIWANI,HARYANA,BHIWANI,AMBALA  HQ,HARYANA
Singhani B.O,Branch Post Office,127201,,LOHARU,BHIWANI,HARYANA,BHIWANI,AMBALA  HQ,HARYANA
Sohansara B.O,Branch Post Office,127201,,LOHARU,BHIWANI,HARYANA,BHIWANI,AMBALA  HQ,HARYANA
Mundhal Khurd S.O,Sub Post Office,127041,,MUNDHAL,BHIWANI,HARYANA,BHIWANI,AMBALA  HQ,HARYANA
Barwa S.O,Sub Post Office,127045,,SIWANI,BHIWANI,HARYANA,BHIWANI,AMBALA  HQ,HARYANA
Behl S.O,Sub Post Office,127028,,SIWANI,BHIWANI,HARYANA,BHIWANI,AMBALA  HQ,HARYANA
Bidhwan B.O,Branch Post Office,127046,,SIWANI,BHIWANI,HARYANA,BHIWANI,AMBALA  HQ,HARYANA
Dhani Miran B.O,Branch Post Office,127046,,SIWANI,BHIWANI,HARYANA,BHIWANI,AMBALA  HQ,HARYANA
Gainadawas B.O,Branch Post Office,127046,,SIWANI,BHIWANI,HARYANA,BHIWANI,AMBALA  HQ,HARYANA
Ghanghala B.O,Branch Post Office,127046,,SIWANI,BHIWANI,HARYANA,BHIWANI,AMBALA  HQ,HARYANA
Gurera B.O,Branch Post Office,127046,,SIWANI,BHIWANI,HARYANA,BHIWANI,AMBALA  HQ,HARYANA
Jhumpa Kalan B.O,Branch Post Office,127046,,SIWANI,BHIWANI,HARYANA,BHIWANI,AMBALA  HQ,HARYANA
Kalod B.O,Branch Post Office,127046,,SIWANI,BHIWANI,HARYANA,BHIWANI,AMBALA  HQ,HARYANA
Khera B.O,Branch Post Office,127046,,SIWANI,BHIWANI,HARYANA,BHIWANI,AMBALA  HQ,HARYANA
Lilas B.O,Branch Post Office,127046,,SIWANI,BHIWANI,HARYANA,BHIWANI,AMBALA  HQ,HARYANA
Mandholi Khurd B.O,Branch Post Office,127046,,SIWANI,BHIWANI,HARYANA,BHIWANI,AMBALA  HQ,HARYANA
Matani B.O,Branch Post Office,127028,,SIWANI,BHIWANI,HARYANA,BHIWANI,AMBALA  HQ,HARYANA
Miran B.O,Branch Post Office,127046,,SIWANI,BHIWANI,HARYANA,BHIWANI,AMBALA  HQ,HARYANA
Mithi B.O,Branch Post Office,127028,,SIWANI,BHIWANI,HARYANA,BHIWANI,AMBALA  HQ,HARYANA
Morka B.O,Branch Post Office,127028,,SIWANI,BHIWANI,HARYANA,BHIWANI,AMBALA  HQ,HARYANA
Naloi B.O,Branch Post Office,127046,,SIWANI,BHIWANI,HARYANA,BHIWANI,AMBALA  HQ,HARYANA
Noonsar B.O,Branch Post Office,127028,,SIWANI,BHIWANI,HARYANA,BHIWANI,AMBALA  HQ,HARYANA
Obra B.O,Branch Post Office,127028,,SIWANI,BHIWANI,HARYANA,BHIWANI,AMBALA  HQ,HARYANA
Patwan B.O,Branch Post Office,127028,,SIWANI,BHIWANI,HARYANA,BHIWANI,AMBALA  HQ,HARYANA
Serla B.O,Branch Post Office,127028,,SIWANI,BHIWANI,HARYANA,BHIWANI,AMBALA  HQ,HARYANA
Sidhanwa B.O,Branch Post Office,127028,,SIWANI,BHIWANI,HARYANA,BHIWANI,AMBALA  HQ,HARYANA
Siwani S.O,Sub Post Office,127046,,SIWANI,BHIWANI,HARYANA,BHIWANI,AMBALA  HQ,HARYANA
Surpura Khurd B.O,Branch Post Office,127028,,SIWANI,BHIWANI,HARYANA,BHIWANI,AMBALA  HQ,HARYANA
Alipur B.O,Branch Post Office,121101,,Ballabgarh,FARIDABAD,HARYANA,FARIDABAD,AMBALA  HQ,HARYANA
Amarpur B.O,Branch Post Office,121004,,BALLABGARH,FARIDABAD,HARYANA,FARIDABAD,AMBALA  HQ,HARYANA
Atali B.O,Branch Post Office,121004,,Ballabgarh,FARIDABAD,HARYANA,FARIDABAD,AMBALA  HQ,HARYANA
Badarpur Syed B.O,Branch Post Office,121101,,Ballabgarh,FARIDABAD,HARYANA,FARIDABAD,AMBALA  HQ,HARYANA
Ballabgarh S.O,Sub Post Office,121004,0129-2241710,Ballabgarh,FARIDABAD,HARYANA,FARIDABAD,AMBALA  HQ,HARYANA
Baroli B.O,Branch Post Office,121004,,Ballabgarh,FARIDABAD,HARYANA,FARIDABAD,AMBALA  HQ,HARYANA
Bhainsrawali B.O,Branch Post Office,121101,,Ballabgarh,FARIDABAD,HARYANA,FARIDABAD,AMBALA  HQ,HARYANA
Bhuvapur B.O,Branch Post Office,121101,,Ballabgarh,FARIDABAD,HARYANA,FARIDABAD,AMBALA  HQ,HARYANA
Chandpur B.O,Branch Post Office,121101,,Ballabgarh,FARIDABAD,HARYANA,FARIDABAD,AMBALA  HQ,HARYANA
Chawla Colony Ballabgarh S.O,Sub Post Office,121004,0129-2242955,Ballabgarh,FARIDABAD,HARYANA,FARIDABAD,AMBALA  HQ,HARYANA
Chhainsa B.O,Branch Post Office,121004,,Ballabgarh,FARIDABAD,HARYANA,FARIDABAD,AMBALA  HQ,HARYANA
Dayalpur B.O,Branch Post Office,121004,,Ballabgarh,FARIDABAD,HARYANA,FARIDABAD,AMBALA  HQ,HARYANA
Deeg B.O,Branch Post Office,121004,,Ballabgarh,FARIDABAD,HARYANA,FARIDABAD,AMBALA  HQ,HARYANA
Dhauj B.O,Branch Post Office,121004,,Ballabgarh,FARIDABAD,HARYANA,FARIDABAD,AMBALA  HQ,HARYANA
Faridpur B.O,Branch Post Office,121101,,Ballabgarh,FARIDABAD,HARYANA,FARIDABAD,AMBALA  HQ,HARYANA
Fatehpur Billoch B.O,Branch Post Office,121004,,Ballabgarh,FARIDABAD,HARYANA,FARIDABAD,AMBALA  HQ,HARYANA
Fatehpur Tagga B.O,Branch Post Office,121004,,Ballabgarh,FARIDABAD,HARYANA,FARIDABAD,AMBALA  HQ,HARYANA
G.T. Road Faridabad S.O,Sub Post Office,121006,0129-2242651,Ballabgarh,FARIDABAD,HARYANA,FARIDABAD,AMBALA  HQ,HARYANA
Gadpuri B.O,Branch Post Office,121004,,Ballabgarh,FARIDABAD,HARYANA,FARIDABAD,AMBALA  HQ,HARYANA
Gonchhi B.O,Branch Post Office,121004,,Ballabgarh,FARIDABAD,HARYANA,FARIDABAD,AMBALA  HQ,HARYANA
Jawan B.O,Branch Post Office,121004,,Ballabgarh,FARIDABAD,HARYANA,FARIDABAD,AMBALA  HQ,HARYANA
Kurali B.O,Branch Post Office,121101,,Ballabgarh,FARIDABAD,HARYANA,FARIDABAD,AMBALA  HQ,HARYANA
Machhgar B.O,Branch Post Office,121004,,Ballabgarh,FARIDABAD,HARYANA,FARIDABAD,AMBALA  HQ,HARYANA
Manjhawali B.O,Branch Post Office,121101,,ballabgarh,FARIDABAD,HARYANA,FARIDABAD,AMBALA  HQ,HARYANA
Mohna B.O,Branch Post Office,121004,,Ballabgarh,FARIDABAD,HARYANA,FARIDABAD,AMBALA  HQ,HARYANA
N.T.P.C./sector-10 Faridabad S.O,Sub Post Office,121004,,Ballabgarh,FARIDABAD,HARYANA,FARIDABAD,AMBALA  HQ,HARYANA
Neemka B.O,Branch Post Office,121004,,Ballabgarh,FARIDABAD,HARYANA,FARIDABAD,AMBALA  HQ,HARYANA
Pali B.O,Branch Post Office,121004,,Ballabgarh,FARIDABAD,HARYANA,FARIDABAD,AMBALA  HQ,HARYANA
Panhera Khurd B.O,Branch Post Office,121004,,Ballabgarh,FARIDABAD,HARYANA,FARIDABAD,AMBALA  HQ,HARYANA
Sagarpur B.O,Branch Post Office,121004,,Ballabgarh,FARIDABAD,HARYANA,FARIDABAD,AMBALA  HQ,HARYANA
Sector-3 Faridabad S.O,Sub Post Office,121004,,Ballabgarh,FARIDABAD,HARYANA,FARIDABAD,AMBALA  HQ,HARYANA
Sector-7 Faridabad S.O,Sub Post Office,121006,0129-2247710,Ballabgarh,FARIDABAD,HARYANA,FARIDABAD,AMBALA  HQ,HARYANA
Sector-8 Faridabad S.O,Sub Post Office,121006,0129-2242670,Ballabgarh,FARIDABAD,HARYANA,FARIDABAD,AMBALA  HQ,HARYANA
Sector-9 Faridabad S.O,Sub Post Office,121006,0129-2287431,Ballabgarh,FARIDABAD,HARYANA,FARIDABAD,AMBALA  HQ,HARYANA
Seekri B.O,Branch Post Office,121004,,Ballabgarh,FARIDABAD,HARYANA,FARIDABAD,AMBALA  HQ,HARYANA
Tigaon S.O,Sub Post Office,121101,0129-2401221,Ballabgarh,FARIDABAD,HARYANA,FARIDABAD,AMBALA  HQ,HARYANA
Amarnagar S.O,Sub Post Office,121003,0129-2275706,Faridabad,FARIDABAD,HARYANA,FARIDABAD,AMBALA  HQ,HARYANA
Anangpur B.O,Branch Post Office,121003,,Faridabad,FARIDABAD,HARYANA,FARIDABAD,AMBALA  HQ,HARYANA
Bhaskola B.O,Branch Post Office,121002,,Faridabad,FARIDABAD,HARYANA,FARIDABAD,AMBALA  HQ,HARYANA
Escortsnagar Faridabad S.O,Sub Post Office,121007,0129-2285732,Faridabad,FARIDABAD,HARYANA,FARIDABAD,AMBALA  HQ,HARYANA
Factory Area Faridabad S.O,Sub Post Office,121001,0129-2233911,Faridabad,FARIDABAD,HARYANA,FARIDABAD,AMBALA  HQ,HARYANA
Faridabad City S.O,Sub Post Office,121002,0129-2296939,Faridabad,FARIDABAD,HARYANA,FARIDABAD,AMBALA  HQ,HARYANA
Faridabad NIT H.O,Head Post Office,121001,0129-2415821,Faridabad,FARIDABAD,HARYANA,FARIDABAD,AMBALA  HQ,HARYANA
Feroz Gandhi Nagar Faridabad S.O,Sub Post Office,121001,0129-2484435,Faridabad,FARIDABAD,HARYANA,FARIDABAD,AMBALA  HQ,HARYANA
Gurukul Indraprashtha S.O,Sub Post Office,121011,,Faridabad,FARIDABAD,HARYANA,FARIDABAD,AMBALA  HQ,HARYANA
Industrial Area Faridabad S.O,Sub Post Office,121001,0129-2415611,Faridabad,FARIDABAD,HARYANA,FARIDABAD,AMBALA  HQ,HARYANA
Jawahar Colony Faridabad S.O,Sub Post Office,121005,0129-2232967,Faridabad,FARIDABAD,HARYANA,FARIDABAD,AMBALA  HQ,HARYANA
Kheri Kalan B.O,Branch Post Office,121002,,Faridabad,FARIDABAD,HARYANA,FARIDABAD,AMBALA  HQ,HARYANA
Mathura Road Faridabad S.O,Sub Post Office,121003,0129-2276270,Faridabad,FARIDABAD,HARYANA,FARIDABAD,AMBALA  HQ,HARYANA
N.I.F.M. Faridabad S.O,Sub Post Office,121001,0129-2418857,Faridabad,FARIDABAD,HARYANA,FARIDABAD,AMBALA  HQ,HARYANA
Nh-2 Faridabad S.O,Sub Post Office,121001,0129-2412505,Faridabad,FARIDABAD,HARYANA,FARIDABAD,AMBALA  HQ,HARYANA
Nh-3 Faridabad S.O,Sub Post Office,121001,0129-2412134,Faridabad,FARIDABAD,HARYANA,FARIDABAD,AMBALA  HQ,HARYANA
Nh-4 Faridabad S.O,Sub Post Office,121001,0129-2412752,Faridabad,FARIDABAD,HARYANA,FARIDABAD,AMBALA  HQ,HARYANA
Nhpc Colony Faridabad S.O,Sub Post Office,121010,0129-2404914,FARIDABAD,FARIDABAD,HARYANA,FARIDABAD,AMBALA  HQ,HARYANA
Press Colony Faridabad S.O,Sub Post Office,121005,0129-2232315,Faridabad,FARIDABAD,HARYANA,FARIDABAD,AMBALA  HQ,HARYANA
Sector-12 Faridabad S.O,Sub Post Office,121007,0129-2291205,Faridabad,FARIDABAD,HARYANA,FARIDABAD,AMBALA  HQ,HARYANA
Sector-15 Faridabad S.O,Sub Post Office,121007,0129-2280092,Faridabad,FARIDABAD,HARYANA,FARIDABAD,AMBALA  HQ,HARYANA
Sector-16 Faridabad S.O,Sub Post Office,121002,0129-2291210,Faridabad,FARIDABAD,HARYANA,FARIDABAD,AMBALA  HQ,HARYANA
Sector-16a Faridabad S.O,Sub Post Office,121002,0129-2288406,Faridabad,FARIDABAD,HARYANA,FARIDABAD,AMBALA  HQ,HARYANA
Sector-18 Faridabad S.O,Sub Post Office,121002,0129-2296527,Faridabad,FARIDABAD,HARYANA,FARIDABAD,AMBALA  HQ,HARYANA
Sector-22 Faridabad S.O,Sub Post Office,121005,0129-2233899,Faridabad,FARIDABAD,HARYANA,FARIDABAD,AMBALA  HQ,HARYANA
Sector-29 Faridabad S.O,Sub Post Office,121008,0129-2504616,Faridabad,FARIDABAD,HARYANA,FARIDABAD,AMBALA  HQ,HARYANA
Surajkund Faridabad S.O,Sub Post Office,121009,0129-2512248,Faridabad,FARIDABAD,HARYANA,FARIDABAD,AMBALA  HQ,HARYANA
Tilpat B.O,Branch Post Office,121003,,Faridabad,FARIDABAD,HARYANA,FARIDABAD,AMBALA  HQ,HARYANA
Chhainsa B.O,Branch Post Office,121103,,Hathin,FARIDABAD,HARYANA,FARIDABAD,AMBALA  HQ,HARYANA
Gehlab B.O,Branch Post Office,121103,,Hathin,FARIDABAD,HARYANA,FARIDABAD,AMBALA  HQ,HARYANA
Gharrot B.O,Branch Post Office,121103,,Hathin,FARIDABAD,HARYANA,FARIDABAD,AMBALA  HQ,HARYANA
Hathin S.O,Sub Post Office,121103,01275-261239,Hathin,FARIDABAD,HARYANA,FARIDABAD,AMBALA  HQ,HARYANA
Hurithal B.O,Branch Post Office,121103,,Hathin,FARIDABAD,HARYANA,FARIDABAD,AMBALA  HQ,HARYANA
Kondal B.O,Branch Post Office,121103,,Hathin,FARIDABAD,HARYANA,FARIDABAD,AMBALA  HQ,HARYANA
Kot B.O,Branch Post Office,121103,,Hathin,FARIDABAD,HARYANA,FARIDABAD,AMBALA  HQ,HARYANA
Madnaka B.O,Branch Post Office,121103,,Hathin,FARIDABAD,HARYANA,FARIDABAD,AMBALA  HQ,HARYANA
Malai B.O,Branch Post Office,121103,,Hathin,FARIDABAD,HARYANA,FARIDABAD,AMBALA  HQ,HARYANA
Mandkola B.O,Branch Post Office,121103,,Hathin,FARIDABAD,HARYANA,FARIDABAD,AMBALA  HQ,HARYANA
Rupraka B.O,Branch Post Office,121103,,Hathin,FARIDABAD,HARYANA,FARIDABAD,AMBALA  HQ,HARYANA
Uttawar B.O,Branch Post Office,121103,,Hathin,FARIDABAD,HARYANA,FARIDABAD,AMBALA  HQ,HARYANA
Ali Meo B.O,Branch Post Office,121106,,Hodal,FARIDABAD,HARYANA,FARIDABAD,AMBALA  HQ,HARYANA
Andhop B.O,Branch Post Office,121106,,Hodal,FARIDABAD,HARYANA,FARIDABAD,AMBALA  HQ,HARYANA
Bahin B.O,Branch Post Office,121105,,Hodal,FARIDABAD,HARYANA,FARIDABAD,AMBALA  HQ,HARYANA
Banchari B.O,Branch Post Office,121106,,Hodal,FARIDABAD,HARYANA,FARIDABAD,AMBALA  HQ,HARYANA
Banswa B.O,Branch Post Office,121107,,Hodal,FARIDABAD,HARYANA,FARIDABAD,AMBALA  HQ,HARYANA
Bhandoli B.O,Branch Post Office,121107,,Hodal,FARIDABAD,HARYANA,FARIDABAD,AMBALA  HQ,HARYANA
Bhiduki B.O,Branch Post Office,121107,,Hodal,FARIDABAD,HARYANA,FARIDABAD,AMBALA  HQ,HARYANA
Gorota B.O,Branch Post Office,121106,,Hodal,FARIDABAD,HARYANA,FARIDABAD,AMBALA  HQ,HARYANA
Gulawad B.O,Branch Post Office,121107,,Hodal,FARIDABAD,HARYANA,FARIDABAD,AMBALA  HQ,HARYANA
Hassanpur S.O,Sub Post Office,121107,01275-271232,Hodal,FARIDABAD,HARYANA,FARIDABAD,AMBALA  HQ,HARYANA
Hodal S.O,Sub Post Office,121106,01275-235560,Hodal,FARIDABAD,HARYANA,FARIDABAD,AMBALA  HQ,HARYANA
Khaika B.O,Branch Post Office,121106,,Hodal,FARIDABAD,HARYANA,FARIDABAD,AMBALA  HQ,HARYANA
Khambi B.O,Branch Post Office,121106,,Hodal,FARIDABAD,HARYANA,FARIDABAD,AMBALA  HQ,HARYANA
Likhi B.O,Branch Post Office,121107,,Hodal,FARIDABAD,HARYANA,FARIDABAD,AMBALA  HQ,HARYANA
Lohina B.O,Branch Post Office,121106,,Hodal,FARIDABAD,HARYANA,FARIDABAD,AMBALA  HQ,HARYANA
Manpur B.O,Branch Post Office,121105,,Hodal,FARIDABAD,HARYANA,FARIDABAD,AMBALA  HQ,HARYANA
Marraoli B.O,Branch Post Office,121106,,Hodal,FARIDABAD,HARYANA,FARIDABAD,AMBALA  HQ,HARYANA
Nangal Jat B.O,Branch Post Office,121105,,Hodal,FARIDABAD,HARYANA,FARIDABAD,AMBALA  HQ,HARYANA
Seoli B.O,Branch Post Office,121105,,Hodal,FARIDABAD,HARYANA,FARIDABAD,AMBALA  HQ,HARYANA
Sondh B.O,Branch Post Office,121106,,Hodal,FARIDABAD,HARYANA,FARIDABAD,AMBALA  HQ,HARYANA
Tappa Bilochpur B.O,Branch Post Office,121107,,Hodal,FARIDABAD,HARYANA,FARIDABAD,AMBALA  HQ,HARYANA
Aharwan B.O,Branch Post Office,121102,,Palwal,FARIDABAD,HARYANA,FARIDABAD,AMBALA  HQ,HARYANA
Alawalpur B.O,Branch Post Office,121102,,Palwal,FARIDABAD,HARYANA,FARIDABAD,AMBALA  HQ,HARYANA
Alika B.O,Branch Post Office,121102,,Palwal,FARIDABAD,HARYANA,FARIDABAD,AMBALA  HQ,HARYANA
Amroli B.O,Branch Post Office,121102,,Palwal,FARIDABAD,HARYANA,FARIDABAD,AMBALA  HQ,HARYANA
Asaota B.O,Branch Post Office,121102,,Palwal,FARIDABAD,HARYANA,FARIDABAD,AMBALA  HQ,HARYANA
Asaoti B.O,Branch Post Office,121102,,Palwal,FARIDABAD,HARYANA,FARIDABAD,AMBALA  HQ,HARYANA
Aurangabad S.O,Sub Post Office,121105,,Palwal,FARIDABAD,HARYANA,FARIDABAD,AMBALA  HQ,HARYANA
Baghola B.O,Branch Post Office,121102,,Palwal,FARIDABAD,HARYANA,FARIDABAD,AMBALA  HQ,HARYANA
Bamni Khera B.O,Branch Post Office,121105,,Palwal,FARIDABAD,HARYANA,FARIDABAD,AMBALA  HQ,HARYANA
Baroli B.O,Branch Post Office,121102,,Palwal,FARIDABAD,HARYANA,FARIDABAD,AMBALA  HQ,HARYANA
Chant B.O,Branch Post Office,121102,,Palwal,FARIDABAD,HARYANA,FARIDABAD,AMBALA  HQ,HARYANA
Chhajju Nagar B.O,Branch Post Office,121102,,Palwal,FARIDABAD,HARYANA,FARIDABAD,AMBALA  HQ,HARYANA
Dhatir B.O,Branch Post Office,121102,,Palwal,FARIDABAD,HARYANA,FARIDABAD,AMBALA  HQ,HARYANA
Dighot B.O,Branch Post Office,121105,,Palwal,FARIDABAD,HARYANA,FARIDABAD,AMBALA  HQ,HARYANA
Ghori B.O,Branch Post Office,121102,,Palwal,FARIDABAD,HARYANA,FARIDABAD,AMBALA  HQ,HARYANA
Grain Market Palwal S.O,Sub Post Office,121102,01275-232234,Palwal,FARIDABAD,HARYANA,FARIDABAD,AMBALA  HQ,HARYANA
Jaindapur B.O,Branch Post Office,121102,,Palwal,FARIDABAD,HARYANA,FARIDABAD,AMBALA  HQ,HARYANA
Janauli B.O,Branch Post Office,121102,,Palwal,FARIDABAD,HARYANA,FARIDABAD,AMBALA  HQ,HARYANA
Jawahar Nagar Palwal S.O,Sub Post Office,121102,0129-252160,Palwal,FARIDABAD,HARYANA,FARIDABAD,AMBALA  HQ,HARYANA
Katesara B.O,Branch Post Office,121102,,Palwal,FARIDABAD,HARYANA,FARIDABAD,AMBALA  HQ,HARYANA
Khatela Sarai B.O,Branch Post Office,121105,,Palwal,FARIDABAD,HARYANA,FARIDABAD,AMBALA  HQ,HARYANA
New Township Palwal S.O,Sub Post Office,121102,01275-252292,Palwal,FARIDABAD,HARYANA,FARIDABAD,AMBALA  HQ,HARYANA
Palwal S.O,Sub Post Office,121102,01275-252019,Palwal,FARIDABAD,HARYANA,FARIDABAD,AMBALA  HQ,HARYANA
Pingore B.O,Branch Post Office,121105,,Palwal,FARIDABAD,HARYANA,FARIDABAD,AMBALA  HQ,HARYANA
Prithla B.O,Branch Post Office,121102,,Palwal,FARIDABAD,HARYANA,FARIDABAD,AMBALA  HQ,HARYANA
Rasulpur B.O,Branch Post Office,121102,,Palwal,FARIDABAD,HARYANA,FARIDABAD,AMBALA  HQ,HARYANA
Siaroli B.O,Branch Post Office,121102,,Palwal,FARIDABAD,HARYANA,FARIDABAD,AMBALA  HQ,HARYANA
Sihol B.O,Branch Post Office,121102,,Palwal,FARIDABAD,HARYANA,FARIDABAD,AMBALA  HQ,HARYANA
Teekri Brahman B.O,Branch Post Office,121102,,Palwal,FARIDABAD,HARYANA,FARIDABAD,AMBALA  HQ,HARYANA
Nai Mandi Fatehabad S.O,Sub Post Office,125050,01667-220419, FATEHABAD,FATEHABAD,HARYANA,HISSAR,AMBALA  HQ,HARYANA
Ahlisadar B.O,Branch Post Office,125050,,FATEHABAD,FATEHABAD,HARYANA,HISSAR,AMBALA  HQ,HARYANA
Badopal S.O,Sub Post Office,125048,01667-285535,FATEHABAD,FATEHABAD,HARYANA,HISSAR,AMBALA  HQ,HARYANA
Baijalpur B.O,Branch Post Office,125111,,FATEHABAD,FATEHABAD,HARYANA,HISSAR,AMBALA  HQ,HARYANA
Ban Mandori B.O,Branch Post Office,125053,,FATEHABAD,FATEHABAD,HARYANA,HISSAR,AMBALA  HQ,HARYANA
Bangaon B.O,Branch Post Office,125050,,FATEHABAD,FATEHABAD,HARYANA,HISSAR,AMBALA  HQ,HARYANA
Banwali B.O,Branch Post Office,125050,,FATEHABAD,FATEHABAD,HARYANA,HISSAR,AMBALA  HQ,HARYANA
Bhirrana B.O,Branch Post Office,125050,,FATEHABAD,FATEHABAD,HARYANA,HISSAR,AMBALA  HQ,HARYANA
Bhodia Bishnoian B.O,Branch Post Office,125050,,FATEHABAD,FATEHABAD,HARYANA,HISSAR,AMBALA  HQ,HARYANA
Bhodia Khera B.O,Branch Post Office,125050,,FATEHABAD,FATEHABAD,HARYANA,HISSAR,AMBALA  HQ,HARYANA
Bhuthan Kalan B.O,Branch Post Office,125050,,FATEHABAD,FATEHABAD,HARYANA,HISSAR,AMBALA  HQ,HARYANA
Bighar B.O,Branch Post Office,125050,,FATEHABAD,FATEHABAD,HARYANA,HISSAR,AMBALA  HQ,HARYANA
Chandrawal B.O,Branch Post Office,125111,,FATEHABAD,FATEHABAD,HARYANA,HISSAR,AMBALA  HQ,HARYANA
Chaubara B.O,Branch Post Office,125111,,FATEHABAD,FATEHABAD,HARYANA,HISSAR,AMBALA  HQ,HARYANA
Chinder B.O,Branch Post Office,125048,,FATEHABAD,FATEHABAD,HARYANA,HISSAR,AMBALA  HQ,HARYANA
Daiyar B.O,Branch Post Office,125053,,FATEHABAD,FATEHABAD,HARYANA,HISSAR,AMBALA  HQ,HARYANA
Daryapur B.O,Branch Post Office,125050,,FATEHABAD,FATEHABAD,HARYANA,HISSAR,AMBALA  HQ,HARYANA
Dhabi Kalan B.O,Branch Post Office,125053,,FATEHABAD,FATEHABAD,HARYANA,HISSAR,AMBALA  HQ,HARYANA
Dhand B.O,Branch Post Office,125050,,FATEHABAD,FATEHABAD,HARYANA,HISSAR,AMBALA  HQ,HARYANA
Dhanger B.O,Branch Post Office,125048,,FATEHABAD,FATEHABAD,HARYANA,HISSAR,AMBALA  HQ,HARYANA
Dhani Gopal B.O,Branch Post Office,125111,,FATEHABAD,FATEHABAD,HARYANA,HISSAR,AMBALA  HQ,HARYANA
Dhani Majra B.O,Branch Post Office,125050,,FATEHABAD,FATEHABAD,HARYANA,HISSAR,AMBALA  HQ,HARYANA
Dhingsara B.O,Branch Post Office,125053,,FATEHABAD,FATEHABAD,HARYANA,HISSAR,AMBALA  HQ,HARYANA
Dhola B.O,Branch Post Office,125111,,FATEHABAD,FATEHABAD,HARYANA,HISSAR,AMBALA  HQ,HARYANA
Dullat B.O,Branch Post Office,125111,,FATEHABAD,FATEHABAD,HARYANA,HISSAR,AMBALA  HQ,HARYANA
Fatehabad S.O,Sub Post Office,125050,01667-227342,FATEHABAD,FATEHABAD,HARYANA,HISSAR,AMBALA  HQ,HARYANA
Fatehabd Kty S.O,Sub Post Office,125050,01667-220539,FATEHABAD,FATEHABAD,HARYANA,HISSAR,AMBALA  HQ,HARYANA
Gillan Khera B.O,Branch Post Office,125050,,FATEHABAD,FATEHABAD,HARYANA,HISSAR,AMBALA  HQ,HARYANA
Hajrawan Kalan B.O,Branch Post Office,125050,,FATEHABAD,FATEHABAD,HARYANA,HISSAR,AMBALA  HQ,HARYANA
Hajrawan Khurd B.O,Branch Post Office,125050,,FATEHABAD,FATEHABAD,HARYANA,HISSAR,AMBALA  HQ,HARYANA
Jandli Kalan B.O,Branch Post Office,125111,,FATEHABAD,FATEHABAD,HARYANA,HISSAR,AMBALA  HQ,HARYANA
Jandli Khurd B.O,Branch Post Office,125111,,FATEHABAD,FATEHABAD,HARYANA,HISSAR,AMBALA  HQ,HARYANA
Jandwala B.O,Branch Post Office,125053,,FATEHABAD,FATEHABAD,HARYANA,HISSAR,AMBALA  HQ,HARYANA
Jhalnia B.O,Branch Post Office,125050,,FATEHABAD,FATEHABAD,HARYANA,HISSAR,AMBALA  HQ,HARYANA
Karnoli B.O,Branch Post Office,125050,,FATEHABAD,FATEHABAD,HARYANA,HISSAR,AMBALA  HQ,HARYANA
Khabra Kalan B.O,Branch Post Office,125053,,FATEHABAD,FATEHABAD,HARYANA,HISSAR,AMBALA  HQ,HARYANA
Khairati Khera B.O,Branch Post Office,125050,,FATEHABAD,FATEHABAD,HARYANA,HISSAR,AMBALA  HQ,HARYANA
Khajuri Jatti B.O,Branch Post Office,125111,,FATEHABAD,FATEHABAD,HARYANA,HISSAR,AMBALA  HQ,HARYANA
Khara Kheri B.O,Branch Post Office,125048,,FATEHABAD,FATEHABAD,HARYANA,HISSAR,AMBALA  HQ,HARYANA
Kirdhan B.O,Branch Post Office,125053,,FATEHABAD,FATEHABAD,HARYANA,HISSAR,AMBALA  HQ,HARYANA
Kukranwali B.O,Branch Post Office,125050,,FATEHABAD,FATEHABAD,HARYANA,HISSAR,AMBALA  HQ,HARYANA
Mahmadpur Rohi B.O,Branch Post Office,125048,,FATEHABAD,FATEHABAD,HARYANA,HISSAR,AMBALA  HQ,HARYANA
Mehuwala B.O,Branch Post Office,125053,,FATEHABAD,FATEHABAD,HARYANA,HISSAR,AMBALA  HQ,HARYANA
Munawali B.O,Branch Post Office,125050,,FATEHABAD,FATEHABAD,HARYANA,HISSAR,AMBALA  HQ,HARYANA
Nadhori B.O,Branch Post Office,125111,,FATEHABAD,FATEHABAD,HARYANA,HISSAR,AMBALA  HQ,HARYANA
Nakhatia B.O,Branch Post Office,125050,,FATEHABAD,FATEHABAD,HARYANA,HISSAR,AMBALA  HQ,HARYANA
Pili Mandori B.O,Branch Post Office,125053,,FATEHABAD,FATEHABAD,HARYANA,HISSAR,AMBALA  HQ,HARYANA
Ramsara B.O,Branch Post Office,125053,,FATEHABAD,FATEHABAD,HARYANA,HISSAR,AMBALA  HQ,HARYANA
Ratta Tibba B.O,Branch Post Office,125050,,FATEHABAD,FATEHABAD,HARYANA,HISSAR,AMBALA  HQ,HARYANA
Sanchla B.O,Branch Post Office,125111,,FATEHABAD,FATEHABAD,HARYANA,HISSAR,AMBALA  HQ,HARYANA
Sheikapur Daroli B.O,Branch Post Office,125053,,FATEHABAD,FATEHABAD,HARYANA,HISSAR,AMBALA  HQ,HARYANA
Suli Khera B.O,Branch Post Office,125053,,FATEHABAD,FATEHABAD,HARYANA,HISSAR,AMBALA  HQ,HARYANA
Thori B.O,Branch Post Office,125050,,FATEHABAD,FATEHABAD,HARYANA,HISSAR,AMBALA  HQ,HARYANA
Thuiyan B.O,Branch Post Office,125053,,FATEHABAD,FATEHABAD,HARYANA,HISSAR,AMBALA  HQ,HARYANA
Asrawan B.O,Branch Post Office,125052,,HISAR,FATEHABAD,HARYANA,HISSAR,AMBALA  HQ,HARYANA
Bagla B.O,Branch Post Office,125052,,HISAR,FATEHABAD,HARYANA,HISSAR,AMBALA  HQ,HARYANA
Bhattu Kalan S.O,Sub Post Office,125053,01667-252230,HISAR,FATEHABAD,HARYANA,HISSAR,AMBALA  HQ,HARYANA
Bithmara B.O,Branch Post Office,125113,,HISAR,FATEHABAD,HARYANA,HISSAR,AMBALA  HQ,HARYANA
Bosti B.O,Branch Post Office,125113,,HISAR,FATEHABAD,HARYANA,HISSAR,AMBALA  HQ,HARYANA
Bowan B.O,Branch Post Office,125113,,HISAR,FATEHABAD,HARYANA,HISSAR,AMBALA  HQ,HARYANA
Aharwan B.O,Branch Post Office,125051,,RATTIA,FATEHABAD,HARYANA,HISSAR,AMBALA  HQ,HARYANA
Alika B.O,Branch Post Office,125051,,RATTIA,FATEHABAD,HARYANA,HISSAR,AMBALA  HQ,HARYANA
Ayalki B.O,Branch Post Office,125051,,RATTIA,FATEHABAD,HARYANA,HISSAR,AMBALA  HQ,HARYANA
Badalgarh B.O,Branch Post Office,125051,,RATTIA,FATEHABAD,HARYANA,HISSAR,AMBALA  HQ,HARYANA
Bahmanwala B.O,Branch Post Office,125051,,RATTIA,FATEHABAD,HARYANA,HISSAR,AMBALA  HQ,HARYANA
Baliala B.O,Branch Post Office,125051,,RATTIA,FATEHABAD,HARYANA,HISSAR,AMBALA  HQ,HARYANA
Biranbadi B.O,Branch Post Office,125051,,RATTIA,FATEHABAD,HARYANA,HISSAR,AMBALA  HQ,HARYANA
Bora B.O,Branch Post Office,125051,,RATTIA,FATEHABAD,HARYANA,HISSAR,AMBALA  HQ,HARYANA
Chandoh Kalan B.O,Branch Post Office,125051,,RATTIA,FATEHABAD,HARYANA,HISSAR,AMBALA  HQ,HARYANA
Chimmon B.O,Branch Post Office,125051,,RATTIA,FATEHABAD,HARYANA,HISSAR,AMBALA  HQ,HARYANA
Ganda B.O,Branch Post Office,125051,,RATTIA,FATEHABAD,HARYANA,HISSAR,AMBALA  HQ,HARYANA
Gurusar B.O,Branch Post Office,125051,,RATTIA,FATEHABAD,HARYANA,HISSAR,AMBALA  HQ,HARYANA
Hamzapur B.O,Branch Post Office,125051,,RATTIA,FATEHABAD,HARYANA,HISSAR,AMBALA  HQ,HARYANA
Hanspur B.O,Branch Post Office,125051,,RATTIA,FATEHABAD,HARYANA,HISSAR,AMBALA  HQ,HARYANA
Haroli B.O,Branch Post Office,125051,,RATTIA,FATEHABAD,HARYANA,HISSAR,AMBALA  HQ,HARYANA
Hassanga B.O,Branch Post Office,125051,,RATTIA,FATEHABAD,HARYANA,HISSAR,AMBALA  HQ,HARYANA
Jallopur B.O,Branch Post Office,125051,,RATTIA,FATEHABAD,HARYANA,HISSAR,AMBALA  HQ,HARYANA
Kamana B.O,Branch Post Office,125051,,RATTIA,FATEHABAD,HARYANA,HISSAR,AMBALA  HQ,HARYANA
Khunan B.O,Branch Post Office,125051,,RATTIA,FATEHABAD,HARYANA,HISSAR,AMBALA  HQ,HARYANA
Laduwas B.O,Branch Post Office,125051,,RATTIA,FATEHABAD,HARYANA,HISSAR,AMBALA  HQ,HARYANA
Lali B.O,Branch Post Office,125051,,RATTIA,FATEHABAD,HARYANA,HISSAR,AMBALA  HQ,HARYANA
Mehmra B.O,Branch Post Office,125051,,RATTIA,FATEHABAD,HARYANA,HISSAR,AMBALA  HQ,HARYANA
Mirana B.O,Branch Post Office,125051,,RATTIA,FATEHABAD,HARYANA,HISSAR,AMBALA  HQ,HARYANA
Mohmadpur Sotter B.O,Branch Post Office,125051,,RATTIA,FATEHABAD,HARYANA,HISSAR,AMBALA  HQ,HARYANA
Nagpur B.O,Branch Post Office,125051,,RATTIA,FATEHABAD,HARYANA,HISSAR,AMBALA  HQ,HARYANA
Nangal B.O,Branch Post Office,125051,,RATTIA,FATEHABAD,HARYANA,HISSAR,AMBALA  HQ,HARYANA
Nathwan B.O,Branch Post Office,125051,,RATTIA,FATEHABAD,HARYANA,HISSAR,AMBALA  HQ,HARYANA
Phullan B.O,Branch Post Office,125051,,RATTIA,FATEHABAD,HARYANA,HISSAR,AMBALA  HQ,HARYANA
Pilchhian B.O,Branch Post Office,125051,,RATTIA,FATEHABAD,HARYANA,HISSAR,AMBALA  HQ,HARYANA
Ratta Khera B.O,Branch Post Office,125051,,RATTIA,FATEHABAD,HARYANA,HISSAR,AMBALA  HQ,HARYANA
Sheikhpur Sotter B.O,Branch Post Office,125051,,RATTIA,FATEHABAD,HARYANA,HISSAR,AMBALA  HQ,HARYANA
Akanwali B.O,Branch Post Office,125106,,TOHANA,FATEHABAD,HARYANA,HISSAR,AMBALA  HQ,HARYANA
Bhuna S.O,Sub Post Office,125111,,TOHANA,FATEHABAD,HARYANA,HISSAR,AMBALA  HQ,HARYANA
Chander Kalan B.O,Branch Post Office,125120,,TOHANA,FATEHABAD,HARYANA,HISSAR,AMBALA  HQ,HARYANA
Dangra B.O,Branch Post Office,125120,,TOHANA,FATEHABAD,HARYANA,HISSAR,AMBALA  HQ,HARYANA
Degoh B.O,Branch Post Office,125106,,TOHANA,FATEHABAD,HARYANA,HISSAR,AMBALA  HQ,HARYANA
Dharsul Kalan S.O,Sub Post Office,125106,01692-244250,TOHANA,FATEHABAD,HARYANA,HISSAR,AMBALA  HQ,HARYANA
Diwana B.O,Branch Post Office,125106,,TOHANA,FATEHABAD,HARYANA,HISSAR,AMBALA  HQ,HARYANA
Fatehpuri B.O,Branch Post Office,125120,,TOHANA,FATEHABAD,HARYANA,HISSAR,AMBALA  HQ,HARYANA
Handalwala B.O,Branch Post Office,125106,,TOHANA,FATEHABAD,HARYANA,HISSAR,AMBALA  HQ,HARYANA
Inda Chhoi B.O,Branch Post Office,125120,,TOHANA,FATEHABAD,HARYANA,HISSAR,AMBALA  HQ,HARYANA
Jakhal Mandi S.O,Sub Post Office,125133,01692-252666,TOHANA,FATEHABAD,HARYANA,HISSAR,AMBALA  HQ,HARYANA
Jamalpur Sheikhan B.O,Branch Post Office,125120,,TOHANA,FATEHABAD,HARYANA,HISSAR,AMBALA  HQ,HARYANA
Kanheri B.O,Branch Post Office,125120,,TOHANA,FATEHABAD,HARYANA,HISSAR,AMBALA  HQ,HARYANA
Karandi B.O,Branch Post Office,125106,,TOHANA,FATEHABAD,HARYANA,HISSAR,AMBALA  HQ,HARYANA
Kudni B.O,Branch Post Office,125120,,TOHANA,FATEHABAD,HARYANA,HISSAR,AMBALA  HQ,HARYANA
Kullan B.O,Branch Post Office,125106,,TOHANA,FATEHABAD,HARYANA,HISSAR,AMBALA  HQ,HARYANA
Lalauda B.O,Branch Post Office,125120,,TOHANA,FATEHABAD,HARYANA,HISSAR,AMBALA  HQ,HARYANA
Lehraian B.O,Branch Post Office,125106,,TOHANA,FATEHABAD,HARYANA,HISSAR,AMBALA  HQ,HARYANA
Manghera B.O,Branch Post Office,125106,,TOHANA,FATEHABAD,HARYANA,HISSAR,AMBALA  HQ,HARYANA
Meond Kalan B.O,Branch Post Office,125133,,TOHANA,FATEHABAD,HARYANA,HISSAR,AMBALA  HQ,HARYANA
Meond Khurd B.O,Branch Post Office,125133,,TOHANA,FATEHABAD,HARYANA,HISSAR,AMBALA  HQ,HARYANA
Musa Khera B.O,Branch Post Office,125106,,TOHANA,FATEHABAD,HARYANA,HISSAR,AMBALA  HQ,HARYANA
Nangla B.O,Branch Post Office,125120,,TOHANA,FATEHABAD,HARYANA,HISSAR,AMBALA  HQ,HARYANA
Nanheri B.O,Branch Post Office,125106,,TOHANA,FATEHABAD,HARYANA,HISSAR,AMBALA  HQ,HARYANA
Nathuwal B.O,Branch Post Office,125133,,TOHANA,FATEHABAD,HARYANA,HISSAR,AMBALA  HQ,HARYANA
Partan B.O,Branch Post Office,125120,,TOHANA,FATEHABAD,HARYANA,HISSAR,AMBALA  HQ,HARYANA
Pirthala B.O,Branch Post Office,125120,,TOHANA,FATEHABAD,HARYANA,HISSAR,AMBALA  HQ,HARYANA
Rainwali B.O,Branch Post Office,125120,,TOHANA,FATEHABAD,HARYANA,HISSAR,AMBALA  HQ,HARYANA
Ratta Theh B.O,Branch Post Office,125106,,TOHANA,FATEHABAD,HARYANA,HISSAR,AMBALA  HQ,HARYANA
Rattia S.O,Sub Post Office,125051,01697-250030,TOHANA,FATEHABAD,HARYANA,HISSAR,AMBALA  HQ,HARYANA
Sadhanwas B.O,Branch Post Office,125133,,TOHANA,FATEHABAD,HARYANA,HISSAR,AMBALA  HQ,HARYANA
Samain B.O,Branch Post Office,125120,,TOHANA,FATEHABAD,HARYANA,HISSAR,AMBALA  HQ,HARYANA
Shakarpura B.O,Branch Post Office,125106,,TOHANA,FATEHABAD,HARYANA,HISSAR,AMBALA  HQ,HARYANA
Sidhani B.O,Branch Post Office,125133,,TOHANA,FATEHABAD,HARYANA,HISSAR,AMBALA  HQ,HARYANA
Talwara B.O,Branch Post Office,125133,,TOHANA,FATEHABAD,HARYANA,HISSAR,AMBALA  HQ,HARYANA
Tohana Mandi S.O,Sub Post Office,125120,01692-230004,TOHANA,FATEHABAD,HARYANA,HISSAR,AMBALA  HQ,HARYANA
Tohana S.O,Sub Post Office,125120,01692-230010,TOHANA,FATEHABAD,HARYANA,HISSAR,AMBALA  HQ,HARYANA
Agon B.O,Branch Post Office,122104,,.,GURGAON,HARYANA,GURGAON,AMBALA  HQ,HARYANA
Akhera B.O,Branch Post Office,122107,,.,GURGAON,HARYANA,GURGAON,AMBALA  HQ,HARYANA
Baded B.O,Branch Post Office,121104,,.,GURGAON,HARYANA,GURGAON,AMBALA  HQ,HARYANA
Badli B.O,Branch Post Office,121104,,.,GURGAON,HARYANA,GURGAON,AMBALA  HQ,HARYANA
Baghanki B.O,Branch Post Office,122105,,.,GURGAON,HARYANA,GURGAON,AMBALA  HQ,HARYANA
Basai B.O,Branch Post Office,122006,,.,GURGAON,HARYANA,GURGAON,AMBALA  HQ,HARYANA
Baslambi B.O,Branch Post Office,123003,,.,GURGAON,HARYANA,GURGAON,AMBALA  HQ,HARYANA
Baspadamka B.O,Branch Post Office,123003,,.,GURGAON,HARYANA,GURGAON,AMBALA  HQ,HARYANA
Bewan B.O,Branch Post Office,122104,,.,GURGAON,HARYANA,GURGAON,AMBALA  HQ,HARYANA
Bhadas B.O,Branch Post Office,122108,,.,GURGAON,HARYANA,GURGAON,AMBALA  HQ,HARYANA
Bhangrola B.O,Branch Post Office,123505,,.,GURGAON,HARYANA,GURGAON,AMBALA  HQ,HARYANA
Bhirauti B.O,Branch Post Office,122103,,.,GURGAON,HARYANA,GURGAON,AMBALA  HQ,HARYANA
Bichhor B.O,Branch Post Office,121104,,.,GURGAON,HARYANA,GURGAON,AMBALA  HQ,HARYANA
Bilaspur Khurd B.O,Branch Post Office,123413,,.,GURGAON,HARYANA,GURGAON,AMBALA  HQ,HARYANA
Bisru B.O,Branch Post Office,121104,,.,GURGAON,HARYANA,GURGAON,AMBALA  HQ,HARYANA
Budarpur B.O,Branch Post Office,122108,,.,GURGAON,HARYANA,GURGAON,AMBALA  HQ,HARYANA
Budhera B.O,Branch Post Office,123505,,.,GURGAON,HARYANA,GURGAON,AMBALA  HQ,HARYANA
Carterpuri B.O,Branch Post Office,122017,,.,GURGAON,HARYANA,GURGAON,AMBALA  HQ,HARYANA
Chakkarpur B.O,Branch Post Office,122002,,.,GURGAON,HARYANA,GURGAON,AMBALA  HQ,HARYANA
Chapera B.O,Branch Post Office,122103,,.,GURGAON,HARYANA,GURGAON,AMBALA  HQ,HARYANA
Cheelarh B.O,Branch Post Office,123502,,.,GURGAON,HARYANA,GURGAON,AMBALA  HQ,HARYANA
Damdama B.O,Branch Post Office,122102,,.,GURGAON,HARYANA,GURGAON,AMBALA  HQ,HARYANA
Daulah B.O,Branch Post Office,122103,,.,GURGAON,HARYANA,GURGAON,AMBALA  HQ,HARYANA
Daultabad B.O,Branch Post Office,122006,,.,GURGAON,HARYANA,GURGAON,AMBALA  HQ,HARYANA
Dhani Chitarsain B.O,Branch Post Office,123413,,.,GURGAON,HARYANA,GURGAON,AMBALA  HQ,HARYANA
Dhankot B.O,Branch Post Office,123505,,.,GURGAON,HARYANA,GURGAON,AMBALA  HQ,HARYANA
Doha B.O,Branch Post Office,122104,,.,GURGAON,HARYANA,GURGAON,AMBALA  HQ,HARYANA
Dulawat B.O,Branch Post Office,122105,,.,GURGAON,HARYANA,GURGAON,AMBALA  HQ,HARYANA
Dundahera B.O,Branch Post Office,122016,,.,GURGAON,HARYANA,GURGAON,AMBALA  HQ,HARYANA
Dungerwas B.O,Branch Post Office,122106,,.,GURGAON,HARYANA,GURGAON,AMBALA  HQ,HARYANA
Fazilpur B.O,Branch Post Office,122101,,.,GURGAON,HARYANA,GURGAON,AMBALA  HQ,HARYANA
Ferozepur Namak B.O,Branch Post Office,122107,,.,GURGAON,HARYANA,GURGAON,AMBALA  HQ,HARYANA
Ghamroj B.O,Branch Post Office,122102,,.,GURGAON,HARYANA,GURGAON,AMBALA  HQ,HARYANA
Ghasera B.O,Branch Post Office,122103,,.,GURGAON,HARYANA,GURGAON,AMBALA  HQ,HARYANA
Ghungola B.O,Branch Post Office,122103,,.,GURGAON,HARYANA,GURGAON,AMBALA  HQ,HARYANA
Gulalta B.O,Branch Post Office,121104,,.,GURGAON,HARYANA,GURGAON,AMBALA  HQ,HARYANA
Gurgaon Village B.O,Branch Post Office,122006,,.,GURGAON,HARYANA,GURGAON,AMBALA  HQ,HARYANA
Gwal Pahari B.O,Branch Post Office,122003,,.,GURGAON,HARYANA,GURGAON,AMBALA  HQ,HARYANA
Hasanpur B.O,Branch Post Office,122105,,.,GURGAON,HARYANA,GURGAON,AMBALA  HQ,HARYANA
Hirwari B.O,Branch Post Office,122104,,.,GURGAON,HARYANA,GURGAON,AMBALA  HQ,HARYANA
Inchhapuri B.O,Branch Post Office,123414,,.,GURGAON,HARYANA,GURGAON,AMBALA  HQ,HARYANA
Indir Mewat B.O,Branch Post Office,122103,,.,GURGAON,HARYANA,GURGAON,AMBALA  HQ,HARYANA
Jagat B.O,Branch Post Office,123502,,.,GURGAON,HARYANA,GURGAON,AMBALA  HQ,HARYANA
Jaitpur B.O,Branch Post Office,123502,,.,GURGAON,HARYANA,GURGAON,AMBALA  HQ,HARYANA
Jamalgarh B.O,Branch Post Office,121104,,.,GURGAON,HARYANA,GURGAON,AMBALA  HQ,HARYANA
Jamalpur B.O,Branch Post Office,123003,,.,GURGAON,HARYANA,GURGAON,AMBALA  HQ,HARYANA
Janaula B.O,Branch Post Office,123003,,.,GURGAON,HARYANA,GURGAON,AMBALA  HQ,HARYANA
Jant B.O,Branch Post Office,123502,,.,GURGAON,HARYANA,GURGAON,AMBALA  HQ,HARYANA
Jataula B.O,Branch Post Office,123504,,.,GURGAON,HARYANA,GURGAON,AMBALA  HQ,HARYANA
Jatauli B.O,Branch Post Office,123504,,.,GURGAON,HARYANA,GURGAON,AMBALA  HQ,HARYANA
Jawasi B.O,Branch Post Office,122105,,.,GURGAON,HARYANA,GURGAON,AMBALA  HQ,HARYANA
Jhamuwas B.O,Branch Post Office,122105,,.,GURGAON,HARYANA,GURGAON,AMBALA  HQ,HARYANA
Jharsa B.O,Branch Post Office,122003,,.,GURGAON,HARYANA,GURGAON,AMBALA  HQ,HARYANA
Kadipur B.O,Branch Post Office,122101,,.,GURGAON,HARYANA,GURGAON,AMBALA  HQ,HARYANA
Kakoria B.O,Branch Post Office,123502,,.,GURGAON,HARYANA,GURGAON,AMBALA  HQ,HARYANA
Kalwari B.O,Branch Post Office,122105,,.,GURGAON,HARYANA,GURGAON,AMBALA  HQ,HARYANA
Karola B.O,Branch Post Office,123504,,.,GURGAON,HARYANA,GURGAON,AMBALA  HQ,HARYANA
Kasan B.O,Branch Post Office,122051,,.,GURGAON,HARYANA,GURGAON,AMBALA  HQ,HARYANA
Khandewia B.O,Branch Post Office,123504,,.,GURGAON,HARYANA,GURGAON,AMBALA  HQ,HARYANA
Khandsa B.O,Branch Post Office,122004,,.,GURGAON,HARYANA,GURGAON,AMBALA  HQ,HARYANA
Khatauli B.O,Branch Post Office,123414,,.,GURGAON,HARYANA,GURGAON,AMBALA  HQ,HARYANA
Khera Khurampur B.O,Branch Post Office,123506,,.,GURGAON,HARYANA,GURGAON,AMBALA  HQ,HARYANA
Kherki Daula B.O,Branch Post Office,122004,,.,GURGAON,HARYANA,GURGAON,AMBALA  HQ,HARYANA
Kherla B.O,Branch Post Office,122102,,.,GURGAON,HARYANA,GURGAON,AMBALA  HQ,HARYANA
Khor B.O,Branch Post Office,123414,,.,GURGAON,HARYANA,GURGAON,AMBALA  HQ,HARYANA
Kiranj B.O,Branch Post Office,122103,,.,GURGAON,HARYANA,GURGAON,AMBALA  HQ,HARYANA
Kurthala B.O,Branch Post Office,122107,,.,GURGAON,HARYANA,GURGAON,AMBALA  HQ,HARYANA
Lakhnaula B.O,Branch Post Office,122004,,.,GURGAON,HARYANA,GURGAON,AMBALA  HQ,HARYANA
Lala Kherli B.O,Branch Post Office,122103,,.,GURGAON,HARYANA,GURGAON,AMBALA  HQ,HARYANA
Lohinga Kalan B.O,Branch Post Office,121104,,.,GURGAON,HARYANA,GURGAON,AMBALA  HQ,HARYANA
Lokra B.O,Branch Post Office,123414,,.,GURGAON,HARYANA,GURGAON,AMBALA  HQ,HARYANA
Malab B.O,Branch Post Office,122107,,.,GURGAON,HARYANA,GURGAON,AMBALA  HQ,HARYANA
Mandikhera B.O,Branch Post Office,122108,,.,GURGAON,HARYANA,GURGAON,AMBALA  HQ,HARYANA
Manesar B.O,Branch Post Office,122051,,.,GURGAON,HARYANA,GURGAON,AMBALA  HQ,HARYANA
Maruthi Kunj B.O,Branch Post Office,122102,,.,GURGAON,HARYANA,GURGAON,AMBALA  HQ,HARYANA
Mehchana B.O,Branch Post Office,123504,,.,GURGAON,HARYANA,GURGAON,AMBALA  HQ,HARYANA
Mirpur B.O,Branch Post Office,123502,,.,GURGAON,HARYANA,GURGAON,AMBALA  HQ,HARYANA
Mohamadpur Ahir B.O,Branch Post Office,122105,,.,GURGAON,HARYANA,GURGAON,AMBALA  HQ,HARYANA
Moklawas B.O,Branch Post Office,123413,,.,GURGAON,HARYANA,GURGAON,AMBALA  HQ,HARYANA
Moolthan B.O,Branch Post Office,122108,,.,GURGAON,HARYANA,GURGAON,AMBALA  HQ,HARYANA
Naheda B.O,Branch Post Office,121104,,.,GURGAON,HARYANA,GURGAON,AMBALA  HQ,HARYANA
Nai B.O,Branch Post Office,121104,,.,GURGAON,HARYANA,GURGAON,AMBALA  HQ,HARYANA
Narhera B.O,Branch Post Office,123003,,.,GURGAON,HARYANA,GURGAON,AMBALA  HQ,HARYANA
Nathupur B.O,Branch Post Office,122002,,.,GURGAON,HARYANA,GURGAON,AMBALA  HQ,HARYANA
Noorgarh B.O,Branch Post Office,123504,,.,GURGAON,HARYANA,GURGAON,AMBALA  HQ,HARYANA
Pachgaon B.O,Branch Post Office,123413,,.,GURGAON,HARYANA,GURGAON,AMBALA  HQ,HARYANA
Pahari B.O,Branch Post Office,123502,,.,GURGAON,HARYANA,GURGAON,AMBALA  HQ,HARYANA
Paltra B.O,Branch Post Office,122101,,.,GURGAON,HARYANA,GURGAON,AMBALA  HQ,HARYANA
Pathreri B.O,Branch Post Office,123413,,.,GURGAON,HARYANA,GURGAON,AMBALA  HQ,HARYANA
Patil R.S. B.O,Branch Post Office,123506,,.,GURGAON,HARYANA,GURGAON,AMBALA  HQ,HARYANA
Pingwan B.O,Branch Post Office,121104,,.,GURGAON,HARYANA,GURGAON,AMBALA  HQ,HARYANA
Raisina B.O,Branch Post Office,122102,,.,GURGAON,HARYANA,GURGAON,AMBALA  HQ,HARYANA
Ramgarh B.O,Branch Post Office,123502,,.,GURGAON,HARYANA,GURGAON,AMBALA  HQ,HARYANA
Rathiwas B.O,Branch Post Office,122105,,.,GURGAON,HARYANA,GURGAON,AMBALA  HQ,HARYANA
Rawli B.O,Branch Post Office,122104,,.,GURGAON,HARYANA,GURGAON,AMBALA  HQ,HARYANA
Rethath B.O,Branch Post Office,121104,,.,GURGAON,HARYANA,GURGAON,AMBALA  HQ,HARYANA
Rewasan B.O,Branch Post Office,122103,,.,GURGAON,HARYANA,GURGAON,AMBALA  HQ,HARYANA
Rithoj B.O,Branch Post Office,122102,,.,GURGAON,HARYANA,GURGAON,AMBALA  HQ,HARYANA
Rojka Meo B.O,Branch Post Office,122103,,.,GURGAON,HARYANA,GURGAON,AMBALA  HQ,HARYANA
Sakras B.O,Branch Post Office,122108,,.,GURGAON,HARYANA,GURGAON,AMBALA  HQ,HARYANA
Sarhaul B.O,Branch Post Office,122015,,.,GURGAON,HARYANA,GURGAON,AMBALA  HQ,HARYANA
Sec-56 S.O,Sub Post Office,122011,0124-2570470,.,GURGAON,HARYANA,GURGAON,AMBALA  HQ,HARYANA
Sewari B.O,Branch Post Office,123506,,.,GURGAON,HARYANA,GURGAON,AMBALA  HQ,HARYANA
Shahchokha B.O,Branch Post Office,121104,,.,GURGAON,HARYANA,GURGAON,AMBALA  HQ,HARYANA
Sherpur B.O,Branch Post Office,123502,,.,GURGAON,HARYANA,GURGAON,AMBALA  HQ,HARYANA
Sidhrawali B.O,Branch Post Office,123413,,.,GURGAON,HARYANA,GURGAON,AMBALA  HQ,HARYANA
Sihri Singhalheri B.O,Branch Post Office,121104,,.,GURGAON,HARYANA,GURGAON,AMBALA  HQ,HARYANA
Sikanderpur B.O,Branch Post Office,122004,,.,GURGAON,HARYANA,GURGAON,AMBALA  HQ,HARYANA
Sikohpur B.O,Branch Post Office,122004,,.,GURGAON,HARYANA,GURGAON,AMBALA  HQ,HARYANA
Sikrawa B.O,Branch Post Office,121104,,.,GURGAON,HARYANA,GURGAON,AMBALA  HQ,HARYANA
Singar B.O,Branch Post Office,121104,,.,GURGAON,HARYANA,GURGAON,AMBALA  HQ,HARYANA
Smaspur B.O,Branch Post Office,122003,,.,GURGAON,HARYANA,GURGAON,AMBALA  HQ,HARYANA
South City-I S.O,Sub Post Office,122001,0124-2580870,.,GURGAON,HARYANA,GURGAON,AMBALA  HQ,HARYANA
South City-II S.O,Sub Post Office,122018,,.,GURGAON,HARYANA,GURGAON,AMBALA  HQ,HARYANA
Sudaka B.O,Branch Post Office,122107,,.,GURGAON,HARYANA,GURGAON,AMBALA  HQ,HARYANA
Sultanpur B.O,Branch Post Office,123506,,.,GURGAON,HARYANA,GURGAON,AMBALA  HQ,HARYANA
Sundh B.O,Branch Post Office,122105,,.,GURGAON,HARYANA,GURGAON,AMBALA  HQ,HARYANA
Syed Shahpur B.O,Branch Post Office,123414,,.,GURGAON,HARYANA,GURGAON,AMBALA  HQ,HARYANA
Tain B.O,Branch Post Office,122107,,.,GURGAON,HARYANA,GURGAON,AMBALA  HQ,HARYANA
Tapkan B.O,Branch Post Office,122107,,.,GURGAON,HARYANA,GURGAON,AMBALA  HQ,HARYANA
Tatarpur B.O,Branch Post Office,123502,,.,GURGAON,HARYANA,GURGAON,AMBALA  HQ,HARYANA
Teekli B.O,Branch Post Office,122101,,.,GURGAON,HARYANA,GURGAON,AMBALA  HQ,HARYANA
Turkiawas B.O,Branch Post Office,123502,,.,GURGAON,HARYANA,GURGAON,AMBALA  HQ,HARYANA
Ujina B.O,Branch Post Office,122107,,.,GURGAON,HARYANA,GURGAON,AMBALA  HQ,HARYANA
Umra B.O,Branch Post Office,122108,,.,GURGAON,HARYANA,GURGAON,AMBALA  HQ,HARYANA
Unchamajra B.O,Branch Post Office,123003,,.,GURGAON,HARYANA,GURGAON,AMBALA  HQ,HARYANA
Wazipur B.O,Branch Post Office,123505,,.,GURGAON,HARYANA,GURGAON,AMBALA  HQ,HARYANA
Wazirabad B.O,Branch Post Office,122003,,.,GURGAON,HARYANA,GURGAON,AMBALA  HQ,HARYANA
Air Force S.O,Sub Post Office,122105,0124-2340364,Air force,GURGAON,HARYANA,GURGAON,AMBALA  HQ,HARYANA
Arjun Nagar S.O,Sub Post Office,122001,0124-2322258,Arjun Nagar,GURGAON,HARYANA,GURGAON,AMBALA  HQ,HARYANA
Badshahpur S.O,Sub Post Office,122101,0124-2361225,Badshahpur,GURGAON,HARYANA,GURGAON,AMBALA  HQ,HARYANA
Basai Road S.O,Sub Post Office,122001,0124-2379300,Basai Road,GURGAON,HARYANA,GURGAON,AMBALA  HQ,HARYANA
Bhondsi S.O,Sub Post Office,122102,0124-2267204,Bhondsi,GURGAON,HARYANA,GURGAON,AMBALA  HQ,HARYANA
Bhorakalan S.O,Sub Post Office,123413,0124-2379300,Bhorakalan,GURGAON,HARYANA,GURGAON,AMBALA  HQ,HARYANA
DLF Ph-II S.O,Sub Post Office,122008,0124-2561135,DLF PH-II,GURGAON,HARYANA,GURGAON,AMBALA  HQ,HARYANA
DLF Ph-III S.O,Sub Post Office,122010,0124-2561135,DLF PH-III,GURGAON,HARYANA,GURGAON,AMBALA  HQ,HARYANA
DLF QE S.O,Sub Post Office,122002,0124-2561135,DLF QE,GURGAON,HARYANA,GURGAON,AMBALA  HQ,HARYANA
Farrukh Nagar S.O,Sub Post Office,123506,0124-2375229,Farrukh nagar,GURGAON,HARYANA,GURGAON,AMBALA  HQ,HARYANA
Ferozepur Jhirka S.O,Sub Post Office,122104,01268-277229,Ferozepur Jhirka,GURGAON,HARYANA,GURGAON,AMBALA  HQ,HARYANA
Galleria DLF-IV S.O,Sub Post Office,122009,0124-2577166,Galleria DLF-IV,GURGAON,HARYANA,GURGAON,AMBALA  HQ,HARYANA
Garhi Harsaru S.O,Sub Post Office,123505,0124-2276528,Garhi Harsaru,GURGAON,HARYANA,GURGAON,AMBALA  HQ,HARYANA
Gurgaon Kty. S.O,Sub Post Office,122001,0124-2320331,Gurgaon Kty.,GURGAON,HARYANA,GURGAON,AMBALA  HQ,HARYANA
Haillymandi S.O,Sub Post Office,123504,0124-2171024,Haillymandi,GURGAON,HARYANA,GURGAON,AMBALA  HQ,HARYANA
Industrial Complex Dundahera S.O,Sub Post Office,122016,0124-2340064,Industrial Complex Dundahera,GURGAON,HARYANA,GURGAON,AMBALA  HQ,HARYANA
Industrial Estate S.O,Sub Post Office,122001,0124-2321169,Industrial Estate,GURGAON,HARYANA,GURGAON,AMBALA  HQ,HARYANA
Khalilpur S.O,Sub Post Office,123502,0124-2270121,Khalilpur,GURGAON,HARYANA,GURGAON,AMBALA  HQ,HARYANA
Mini Sectt. S.O,Sub Post Office,122001,0124-2320872,Mini Sectt.,GURGAON,HARYANA,GURGAON,AMBALA  HQ,HARYANA
Nagina S.O,Sub Post Office,122108,01268-273222,Nagina,GURGAON,HARYANA,GURGAON,AMBALA  HQ,HARYANA
Nanukalan S.O,Sub Post Office,123414,0124-2289246,Nanukalan,GURGAON,HARYANA,GURGAON,AMBALA  HQ,HARYANA
Narsinghpur S.O,Sub Post Office,122004,0124-2210202,Narsinghpur,GURGAON,HARYANA,GURGAON,AMBALA  HQ,HARYANA
New Colony S.O,Sub Post Office,122001,0124-2322025,New Colony,GURGAON,HARYANA,GURGAON,AMBALA  HQ,HARYANA
Nsg Camp Manesar S.O,Sub Post Office,122051,0124-2337273,NSG Camp Manesar,GURGAON,HARYANA,GURGAON,AMBALA  HQ,HARYANA
Nuh S.O,Sub Post Office,122107,01267-271204,Nuh,GURGAON,HARYANA,GURGAON,AMBALA  HQ,HARYANA
Palam Road S.O,Sub Post Office,122015,0124-2340371,Palam Road,GURGAON,HARYANA,GURGAON,AMBALA  HQ,HARYANA
Palam Vihar S.O,Sub Post Office,122017,0124-2365529,Palam vihar,GURGAON,HARYANA,GURGAON,AMBALA  HQ,HARYANA
Pataudi S.O,Sub Post Office,123003,0124-2374243,Pataudi,GURGAON,HARYANA,GURGAON,AMBALA  HQ,HARYANA
Punhana S.O,Sub Post Office,121104,01268-2772636,Punhana,GURGAON,HARYANA,GURGAON,AMBALA  HQ,HARYANA
Railwary Road S.O,Sub Post Office,122006,0124-2320818,Railway Road,GURGAON,HARYANA,GURGAON,AMBALA  HQ,HARYANA
Gurgaon H.O,Head Post Office,122001,0124-2320392,Sadar Bazar,GURGAON,HARYANA,GURGAON,AMBALA  HQ,HARYANA
Sector -45 S.O,Sub Post Office,122003,0124-2580870,Sector -45,GURGAON,HARYANA,GURGAON,AMBALA  HQ,HARYANA
Sector-17 S.O,Sub Post Office,122001,0124-2342382,Sector-17,GURGAON,HARYANA,GURGAON,AMBALA  HQ,HARYANA
Shivaji Nagar S.O,Sub Post Office,122001,0124-2320890,Shivaji nagar,GURGAON,HARYANA,GURGAON,AMBALA  HQ,HARYANA
Sohna S.O,Sub Post Office,122103,0124-2362229,Sohna,GURGAON,HARYANA,GURGAON,AMBALA  HQ,HARYANA
Sohna Adda S.O,Sub Post Office,122001,0124-2330113,Sohna Adda,GURGAON,HARYANA,GURGAON,AMBALA  HQ,HARYANA
Tauru S.O,Sub Post Office,122105,01267-282244,Tauru,GURGAON,HARYANA,GURGAON,AMBALA  HQ,HARYANA
Urban Estate S.O,Sub Post Office,122001,0124-2322253,Urban Estate,GURGAON,HARYANA,GURGAON,AMBALA  HQ,HARYANA
Zainabad B.O,Branch Post Office,123411,,Zainabad,REWARI,HARYANA,GURGAON,AMBALA  HQ,HARYANA
Garhi B.O,Branch Post Office,124501,,.,ROHTAK,HARYANA,ROHTAK,AMBALA  HQ,HARYANA
Gharauthi B.O,Branch Post Office,124514,,.,ROHTAK,HARYANA,ROHTAK,AMBALA  HQ,HARYANA
Saman B.O,Branch Post Office,124142,,.,ROHTAK,HARYANA,ROHTAK,AMBALA  HQ,HARYANA
Bainsi B.O,Branch Post Office,124514,,MEHEM,ROHTAK,HARYANA,ROHTAK,AMBALA  HQ,HARYANA
Basana B.O,Branch Post Office,124022,,MEHEM,ROHTAK,HARYANA,ROHTAK,AMBALA  HQ,HARYANA
Behlba B.O,Branch Post Office,124142,,MEHEM,ROHTAK,HARYANA,ROHTAK,AMBALA  HQ,HARYANA
Bhagwatipur B.O,Branch Post Office,124514,,MEHEM,ROHTAK,HARYANA,ROHTAK,AMBALA  HQ,HARYANA
Bhaini Bharon B.O,Branch Post Office,124142,,MEHEM,ROHTAK,HARYANA,ROHTAK,AMBALA  HQ,HARYANA
Bhaini Chanderpal B.O,Branch Post Office,124142,,MEHEM,ROHTAK,HARYANA,ROHTAK,AMBALA  HQ,HARYANA
Bhaini Surjan B.O,Branch Post Office,124142,,MEHEM,ROHTAK,HARYANA,ROHTAK,AMBALA  HQ,HARYANA
Chandi B.O,Branch Post Office,124514,,MEHEM,ROHTAK,HARYANA,ROHTAK,AMBALA  HQ,HARYANA
Farmana B.O,Branch Post Office,124142,,MEHEM,ROHTAK,HARYANA,ROHTAK,AMBALA  HQ,HARYANA
Ghrauthi B.O,Branch Post Office,124412,,MEHEM,ROHTAK,HARYANA,ROHTAK,AMBALA  HQ,HARYANA
Gugaheri B.O,Branch Post Office,124514,,MEHEM,ROHTAK,HARYANA,ROHTAK,AMBALA  HQ,HARYANA
Kharainti B.O,Branch Post Office,124514,,MEHEM,ROHTAK,HARYANA,ROHTAK,AMBALA  HQ,HARYANA
Kharkhara B.O,Branch Post Office,124111,,MEHEM,ROHTAK,HARYANA,ROHTAK,AMBALA  HQ,HARYANA
Lakhan Majra S.O,Sub Post Office,124514,01257-265625,MEHEM,ROHTAK,HARYANA,ROHTAK,AMBALA  HQ,HARYANA
Madina S.O,Sub Post Office,124111,01257-260721,MEHEM,ROHTAK,HARYANA,ROHTAK,AMBALA  HQ,HARYANA
Mehem S.O,Sub Post Office,124142,01257-233021,MEHEM,ROHTAK,HARYANA,ROHTAK,AMBALA  HQ,HARYANA
Mokhra S.O,Sub Post Office,124022,01257-280532,MEHEM,ROHTAK,HARYANA,ROHTAK,AMBALA  HQ,HARYANA
Nandal B.O,Branch Post Office,124514,,MEHEM,ROHTAK,HARYANA,ROHTAK,AMBALA  HQ,HARYANA
Nidana B.O,Branch Post Office,124514,,MEHEM,ROHTAK,HARYANA,ROHTAK,AMBALA  HQ,HARYANA
Nindana S.O,Sub Post Office,124513,01262-276405,MEHEM,ROHTAK,HARYANA,ROHTAK,AMBALA  HQ,HARYANA
Sisarkhas B.O,Branch Post Office,124142,,MEHEM,ROHTAK,HARYANA,ROHTAK,AMBALA  HQ,HARYANA
Ajaib B.O,Branch Post Office,124111,,ROHTAK,ROHTAK,HARYANA,ROHTAK,AMBALA  HQ,HARYANA
Anwal S.O,Sub Post Office,124411,01258-241121,ROHTAK,ROHTAK,HARYANA,ROHTAK,AMBALA  HQ,HARYANA
Assan B.O,Branch Post Office,124406,,ROHTAK,ROHTAK,HARYANA,ROHTAK,AMBALA  HQ,HARYANA
Asthal Bohar S.O,Sub Post Office,124021,01262-215769,ROHTAK,ROHTAK,HARYANA,ROHTAK,AMBALA  HQ,HARYANA
Atail B.O,Branch Post Office,124501,,ROHTAK,ROHTAK,HARYANA,ROHTAK,AMBALA  HQ,HARYANA
Bahu Akbarpur B.O,Branch Post Office,124001,,ROHTAK,ROHTAK,HARYANA,ROHTAK,AMBALA  HQ,HARYANA
Bakheta B.O,Branch Post Office,124406,,ROHTAK,ROHTAK,HARYANA,ROHTAK,AMBALA  HQ,HARYANA
Baland B.O,Branch Post Office,124001,,ROHTAK,ROHTAK,HARYANA,ROHTAK,AMBALA  HQ,HARYANA
Baliana S.O,Sub Post Office,124416,,ROHTAK,ROHTAK,HARYANA,ROHTAK,AMBALA  HQ,HARYANA
Bangla Sahib S.O,Sub Post Office,124001,,ROHTAK,ROHTAK,HARYANA,ROHTAK,AMBALA  HQ,HARYANA
Banyani B.O,Branch Post Office,124411,,ROHTAK,ROHTAK,HARYANA,ROHTAK,AMBALA  HQ,HARYANA
Basantpur B.O,Branch Post Office,124001,,ROHTAK,ROHTAK,HARYANA,ROHTAK,AMBALA  HQ,HARYANA
Bhalaut S.O,Sub Post Office,124406,01258-221221,ROHTAK,ROHTAK,HARYANA,ROHTAK,AMBALA  HQ,HARYANA
Bhali Anandpur B.O,Branch Post Office,124001,,ROHTAK,ROHTAK,HARYANA,ROHTAK,AMBALA  HQ,HARYANA
Bhambhewa B.O,Branch Post Office,124021,,ROHTAK,ROHTAK,HARYANA,ROHTAK,AMBALA  HQ,HARYANA
Bhaproda B.O,Branch Post Office,124501,,ROHTAK,ROHTAK,HARYANA,ROHTAK,AMBALA  HQ,HARYANA
Bharan B.O,Branch Post Office,124111,,ROHTAK,ROHTAK,HARYANA,ROHTAK,AMBALA  HQ,HARYANA
Bhasro Kalan B.O,Branch Post Office,124501,,ROHTAK,ROHTAK,HARYANA,ROHTAK,AMBALA  HQ,HARYANA
Bohar B.O,Branch Post Office,124021,,ROHTAK,ROHTAK,HARYANA,ROHTAK,AMBALA  HQ,HARYANA
Bus Stand S.O,Sub Post Office,124001,,ROHTAK,ROHTAK,HARYANA,ROHTAK,AMBALA  HQ,HARYANA
Chamaria B.O,Branch Post Office,124001,,ROHTAK,ROHTAK,HARYANA,ROHTAK,AMBALA  HQ,HARYANA
Chimni B.O,Branch Post Office,124412,,ROHTAK,ROHTAK,HARYANA,ROHTAK,AMBALA  HQ,HARYANA
Chiri S.O,Sub Post Office,124524,,ROHTAK,ROHTAK,HARYANA,ROHTAK,AMBALA  HQ,HARYANA
Chuliyana B.O,Branch Post Office,124501,,ROHTAK,ROHTAK,HARYANA,ROHTAK,AMBALA  HQ,HARYANA
Dehkora B.O,Branch Post Office,124501,,ROHTAK,ROHTAK,HARYANA,ROHTAK,AMBALA  HQ,HARYANA
Dhamar B.O,Branch Post Office,124406,,ROHTAK,ROHTAK,HARYANA,ROHTAK,AMBALA  HQ,HARYANA
Dharana B.O,Branch Post Office,124412,,ROHTAK,ROHTAK,HARYANA,ROHTAK,AMBALA  HQ,HARYANA
Dlf Colony Rohtak S.O,Sub Post Office,124001,01251-228121,ROHTAK,ROHTAK,HARYANA,ROHTAK,AMBALA  HQ,HARYANA
Dobh B.O,Branch Post Office,124001,,ROHTAK,ROHTAK,HARYANA,ROHTAK,AMBALA  HQ,HARYANA
Durga Bhawan S.O,Sub Post Office,124001,01262-233102,ROHTAK,ROHTAK,HARYANA,ROHTAK,AMBALA  HQ,HARYANA
Gaddi Kheri B.O,Branch Post Office,124001,,ROHTAK,ROHTAK,HARYANA,ROHTAK,AMBALA  HQ,HARYANA
Gandhi Camp S.O,Sub Post Office,124001,01262-230918,ROHTAK,ROHTAK,HARYANA,ROHTAK,AMBALA  HQ,HARYANA
Gandhra B.O,Branch Post Office,124501,,ROHTAK,ROHTAK,HARYANA,ROHTAK,AMBALA  HQ,HARYANA
Garhi B.O,Branch Post Office,124411,,ROHTAK,ROHTAK,HARYANA,ROHTAK,AMBALA  HQ,HARYANA
Garhi Ballab B.O,Branch Post Office,124411,,ROHTAK,ROHTAK,HARYANA,ROHTAK,AMBALA  HQ,HARYANA
Garnauthi B.O,Branch Post Office,124412,,ROHTAK,ROHTAK,HARYANA,ROHTAK,AMBALA  HQ,HARYANA
Ghillaur Kalan B.O,Branch Post Office,124303,,ROHTAK,ROHTAK,HARYANA,ROHTAK,AMBALA  HQ,HARYANA
Gijhi B.O,Branch Post Office,124501,,ROHTAK,ROHTAK,HARYANA,ROHTAK,AMBALA  HQ,HARYANA
Girawar B.O,Branch Post Office,124111,,ROHTAK,ROHTAK,HARYANA,ROHTAK,AMBALA  HQ,HARYANA
Gohana Road S.O,Sub Post Office,124001,01262-276992,ROHTAK,ROHTAK,HARYANA,ROHTAK,AMBALA  HQ,HARYANA
Gurukul Singhpura B.O,Branch Post Office,124001,,ROHTAK,ROHTAK,HARYANA,ROHTAK,AMBALA  HQ,HARYANA
Humayunpur B.O,Branch Post Office,124406,,ROHTAK,ROHTAK,HARYANA,ROHTAK,AMBALA  HQ,HARYANA
Ismaila B.O,Branch Post Office,124501,,ROHTAK,ROHTAK,HARYANA,ROHTAK,AMBALA  HQ,HARYANA
Jassia B.O,Branch Post Office,124001,,ROHTAK,ROHTAK,HARYANA,ROHTAK,AMBALA  HQ,HARYANA
Jhajjar Road Rohtak S.O,Sub Post Office,124001,01262-240221,ROHTAK,ROHTAK,HARYANA,ROHTAK,AMBALA  HQ,HARYANA
Kahnaur S.O,Sub Post Office,124412,01258-245321,ROHTAK,ROHTAK,HARYANA,ROHTAK,AMBALA  HQ,HARYANA
Kahni B.O,Branch Post Office,124303,,ROHTAK,ROHTAK,HARYANA,ROHTAK,AMBALA  HQ,HARYANA
Kakrana B.O,Branch Post Office,124412,,ROHTAK,ROHTAK,HARYANA,ROHTAK,AMBALA  HQ,HARYANA
Kalanaur S.O,Sub Post Office,124113,01258-222421,ROHTAK,ROHTAK,HARYANA,ROHTAK,AMBALA  HQ,HARYANA
Kanak Mandi Rohtak S.O,Sub Post Office,124001,01262-278036,ROHTAK,ROHTAK,HARYANA,ROHTAK,AMBALA  HQ,HARYANA
Kansala S.O,Sub Post Office,124406,01262-222231,ROHTAK,ROHTAK,HARYANA,ROHTAK,AMBALA  HQ,HARYANA
Karontha B.O,Branch Post Office,124001,,ROHTAK,ROHTAK,HARYANA,ROHTAK,AMBALA  HQ,HARYANA
Karor B.O,Branch Post Office,124021,,ROHTAK,ROHTAK,HARYANA,ROHTAK,AMBALA  HQ,HARYANA
Katesra B.O,Branch Post Office,124113,,ROHTAK,ROHTAK,HARYANA,ROHTAK,AMBALA  HQ,HARYANA
Khairari B.O,Branch Post Office,124113,,ROHTAK,ROHTAK,HARYANA,ROHTAK,AMBALA  HQ,HARYANA
Kharawar B.O,Branch Post Office,124021,,ROHTAK,ROHTAK,HARYANA,ROHTAK,AMBALA  HQ,HARYANA
Kharhar B.O,Branch Post Office,124501,,ROHTAK,ROHTAK,HARYANA,ROHTAK,AMBALA  HQ,HARYANA
Kheri Sadh B.O,Branch Post Office,124021,,ROHTAK,ROHTAK,HARYANA,ROHTAK,AMBALA  HQ,HARYANA
Khidwali B.O,Branch Post Office,124303,,ROHTAK,ROHTAK,HARYANA,ROHTAK,AMBALA  HQ,HARYANA
Kiloi B.O,Branch Post Office,124406,,ROHTAK,ROHTAK,HARYANA,ROHTAK,AMBALA  HQ,HARYANA
Kultana B.O,Branch Post Office,124501,,ROHTAK,ROHTAK,HARYANA,ROHTAK,AMBALA  HQ,HARYANA
Ladout B.O,Branch Post Office,124001,,ROHTAK,ROHTAK,HARYANA,ROHTAK,AMBALA  HQ,HARYANA
Lahli B.O,Branch Post Office,124411,,ROHTAK,ROHTAK,HARYANA,ROHTAK,AMBALA  HQ,HARYANA
Loharheri B.O,Branch Post Office,124501,,ROHTAK,ROHTAK,HARYANA,ROHTAK,AMBALA  HQ,HARYANA
Maina B.O,Branch Post Office,124021,,ROHTAK,ROHTAK,HARYANA,ROHTAK,AMBALA  HQ,HARYANA
Makrauli Kalan B.O,Branch Post Office,124001,,ROHTAK,ROHTAK,HARYANA,ROHTAK,AMBALA  HQ,HARYANA
Marodi Jatan B.O,Branch Post Office,124001,,ROHTAK,ROHTAK,HARYANA,ROHTAK,AMBALA  HQ,HARYANA
Matan B.O,Branch Post Office,124501,,ROHTAK,ROHTAK,HARYANA,ROHTAK,AMBALA  HQ,HARYANA
Medical College S.O,Sub Post Office,124001,01262-212651,ROHTAK,ROHTAK,HARYANA,ROHTAK,AMBALA  HQ,HARYANA
Model Town S.O,Sub Post Office,124001,01262-210561,ROHTAK,ROHTAK,HARYANA,ROHTAK,AMBALA  HQ,HARYANA
Morekheri B.O,Branch Post Office,124406,,ROHTAK,ROHTAK,HARYANA,ROHTAK,AMBALA  HQ,HARYANA
Mungain B.O,Branch Post Office,124406,,ROHTAK,ROHTAK,HARYANA,ROHTAK,AMBALA  HQ,HARYANA
Nanaud B.O,Branch Post Office,124501,,ROHTAK,ROHTAK,HARYANA,ROHTAK,AMBALA  HQ,HARYANA
Naya Bans B.O,Branch Post Office,124501,,ROHTAK,ROHTAK,HARYANA,ROHTAK,AMBALA  HQ,HARYANA
Nigana B.O,Branch Post Office,124113,,ROHTAK,ROHTAK,HARYANA,ROHTAK,AMBALA  HQ,HARYANA
Nilothi B.O,Branch Post Office,124406,,ROHTAK,ROHTAK,HARYANA,ROHTAK,AMBALA  HQ,HARYANA
Paksma B.O,Branch Post Office,124406,,ROHTAK,ROHTAK,HARYANA,ROHTAK,AMBALA  HQ,HARYANA
Patwapur B.O,Branch Post Office,124411,,ROHTAK,ROHTAK,HARYANA,ROHTAK,AMBALA  HQ,HARYANA
Pehrawar B.O,Branch Post Office,124021,,ROHTAK,ROHTAK,HARYANA,ROHTAK,AMBALA  HQ,HARYANA
Polangi B.O,Branch Post Office,124406,,ROHTAK,ROHTAK,HARYANA,ROHTAK,AMBALA  HQ,HARYANA
Rithal B.O,Branch Post Office,124303,,ROHTAK,ROHTAK,HARYANA,ROHTAK,AMBALA  HQ,HARYANA
Rohad B.O,Branch Post Office,124501,,ROHTAK,ROHTAK,HARYANA,ROHTAK,AMBALA  HQ,HARYANA
Rohtak H.O,Head Post Office,124001,01262-257871,ROHTAK,ROHTAK,HARYANA,ROHTAK,AMBALA  HQ,HARYANA
Rohtak Mandi S.O,Sub Post Office,124001,01262-252601,ROHTAK,ROHTAK,HARYANA,ROHTAK,AMBALA  HQ,HARYANA
Rohtak Town S.O,Sub Post Office,124001,01262-233103,ROHTAK,ROHTAK,HARYANA,ROHTAK,AMBALA  HQ,HARYANA
Rurkee B.O,Branch Post Office,124406,,ROHTAK,ROHTAK,HARYANA,ROHTAK,AMBALA  HQ,HARYANA
Samargopalpur B.O,Branch Post Office,124514,,ROHTAK,ROHTAK,HARYANA,ROHTAK,AMBALA  HQ,HARYANA
Samchana B.O,Branch Post Office,124406,,ROHTAK,ROHTAK,HARYANA,ROHTAK,AMBALA  HQ,HARYANA
Sampel B.O,Branch Post Office,124113,,ROHTAK,ROHTAK,HARYANA,ROHTAK,AMBALA  HQ,HARYANA
Sanghi S.O,Sub Post Office,124303,01262-232421,ROHTAK,ROHTAK,HARYANA,ROHTAK,AMBALA  HQ,HARYANA
Shivaji Colony S.O,Sub Post Office,124001,01262-238291,ROHTAK,ROHTAK,HARYANA,ROHTAK,AMBALA  HQ,HARYANA
Sunari Kalan B.O,Branch Post Office,124001,,ROHTAK,ROHTAK,HARYANA,ROHTAK,AMBALA  HQ,HARYANA
Sundana B.O,Branch Post Office,124412,,ROHTAK,ROHTAK,HARYANA,ROHTAK,AMBALA  HQ,HARYANA
Sunderpur B.O,Branch Post Office,124001,,ROHTAK,ROHTAK,HARYANA,ROHTAK,AMBALA  HQ,HARYANA
Titauli B.O,Branch Post Office,124001,,ROHTAK,ROHTAK,HARYANA,ROHTAK,AMBALA  HQ,HARYANA
Kanheli B.O,Branch Post Office,124021,,ROTHAK,ROHTAK,HARYANA,ROHTAK,AMBALA  HQ,HARYANA
Asa Khera B.O,Branch Post Office,125101,,.,SIRSA,HARYANA,HISSAR,AMBALA  HQ,HARYANA
Janowala Bishnolan B.O,Branch Post Office,125101,,.,SIRSA,HARYANA,HISSAR,AMBALA  HQ,HARYANA
Alika B.O,Branch Post Office,125078,,BARAGUDHA,SIRSA,HARYANA,HISSAR,AMBALA  HQ,HARYANA
Anandgarh B.O,Branch Post Office,125078,,BARAGUDHA,SIRSA,HARYANA,HISSAR,AMBALA  HQ,HARYANA
Bapp B.O,Branch Post Office,125078,,BARAGUDHA,SIRSA,HARYANA,HISSAR,AMBALA  HQ,HARYANA
Bhadra B.O,Branch Post Office,125078,,BARAGUDHA,SIRSA,HARYANA,HISSAR,AMBALA  HQ,HARYANA
Bhiwan B.O,Branch Post Office,125078,,BARAGUDHA,SIRSA,HARYANA,HISSAR,AMBALA  HQ,HARYANA
Jhiri B.O,Branch Post Office,125078,,BARAGUDHA,SIRSA,HARYANA,HISSAR,AMBALA  HQ,HARYANA
Jhorar Rohi B.O,Branch Post Office,125078,,BARAGUDHA,SIRSA,HARYANA,HISSAR,AMBALA  HQ,HARYANA
Kurangawali B.O,Branch Post Office,125078,,BARAGUDHA,SIRSA,HARYANA,HISSAR,AMBALA  HQ,HARYANA
Lehangewala B.O,Branch Post Office,125078,,BARAGUDHA,SIRSA,HARYANA,HISSAR,AMBALA  HQ,HARYANA
Nagoki B.O,Branch Post Office,125078,,BARAGUDHA,SIRSA,HARYANA,HISSAR,AMBALA  HQ,HARYANA
Thiraj B.O,Branch Post Office,125078,,BARAGUDHA,SIRSA,HARYANA,HISSAR,AMBALA  HQ,HARYANA
Dabwali Town S.O,Sub Post Office,125104,01668-222047,DABWALI,SIRSA,HARYANA,HISSAR,AMBALA  HQ,HARYANA
Poharkan B.O,Branch Post Office,125102,,HISAR,SIRSA,HARYANA,HISSAR,AMBALA  HQ,HARYANA
Phaggu B.O,Branch Post Office,125201,,KAANWALI,SIRSA,HARYANA,HISSAR,AMBALA  HQ,HARYANA
Taruana B.O,Branch Post Office,125201,,KALAN WALI,SIRSA,HARYANA,HISSAR,AMBALA  HQ,HARYANA
Chakrian B.O,Branch Post Office,125201,,KALANWALI,SIRSA,HARYANA,HISSAR,AMBALA  HQ,HARYANA
Dadu B.O,Branch Post Office,125201,,KALANWALI,SIRSA,HARYANA,HISSAR,AMBALA  HQ,HARYANA
Desu Mulkana B.O,Branch Post Office,125201,,KALANWALI,SIRSA,HARYANA,HISSAR,AMBALA  HQ,HARYANA
Godrana B.O,Branch Post Office,125201,,KALANWALI,SIRSA,HARYANA,HISSAR,AMBALA  HQ,HARYANA
Jagmalwali B.O,Branch Post Office,125201,,KALANWALI,SIRSA,HARYANA,HISSAR,AMBALA  HQ,HARYANA
Jalalana B.O,Branch Post Office,125201,,KALANWALI,SIRSA,HARYANA,HISSAR,AMBALA  HQ,HARYANA
Lakarwali B.O,Branch Post Office,125201,,KALANWALI,SIRSA,HARYANA,HISSAR,AMBALA  HQ,HARYANA
Pakka B.O,Branch Post Office,125201,,KALANWALI,SIRSA,HARYANA,HISSAR,AMBALA  HQ,HARYANA
Pipli B.O,Branch Post Office,125201,,KALANWALI,SIRSA,HARYANA,HISSAR,AMBALA  HQ,HARYANA
Rori B.O,Branch Post Office,125201,,KALANWALI,SIRSA,HARYANA,HISSAR,AMBALA  HQ,HARYANA
Singhpura B.O,Branch Post Office,125201,,KALANWALI,SIRSA,HARYANA,HISSAR,AMBALA  HQ,HARYANA
Sukhchain B.O,Branch Post Office,125201,,KALANWALI,SIRSA,HARYANA,HISSAR,AMBALA  HQ,HARYANA
Surtia B.O,Branch Post Office,125201,,KALANWALI,SIRSA,HARYANA,HISSAR,AMBALA  HQ,HARYANA
Takhatmal B.O,Branch Post Office,125201,,KALANWALI,SIRSA,HARYANA,HISSAR,AMBALA  HQ,HARYANA
Mandi Dabwali S.O,Sub Post Office,125104,01668-227338,M.DABWALI,SIRSA,HARYANA,HISSAR,AMBALA  HQ,HARYANA
Abubshahar B.O,Branch Post Office,125104,,MANDI DABWALI,SIRSA,HARYANA,HISSAR,AMBALA  HQ,HARYANA
Chatha B.O,Branch Post Office,125104,,MANDI DABWALI,SIRSA,HARYANA,HISSAR,AMBALA  HQ,HARYANA
Dabwali Village B.O,Branch Post Office,125104,,MANDI DABWALI,SIRSA,HARYANA,HISSAR,AMBALA  HQ,HARYANA
Desu Jodha B.O,Branch Post Office,125104,,MANDI DABWALI,SIRSA,HARYANA,HISSAR,AMBALA  HQ,HARYANA
Habuana B.O,Branch Post Office,125104,,MANDI DABWALI,SIRSA,HARYANA,HISSAR,AMBALA  HQ,HARYANA
Khuiyana Malkana B.O,Branch Post Office,125104,,MANDI DABWALI,SIRSA,HARYANA,HISSAR,AMBALA  HQ,HARYANA
Lohgarh B.O,Branch Post Office,125104,,MANDI DABWALI,SIRSA,HARYANA,HISSAR,AMBALA  HQ,HARYANA
Mangiana B.O,Branch Post Office,125104,,MANDI DABWALI,SIRSA,HARYANA,HISSAR,AMBALA  HQ,HARYANA
Masitan B.O,Branch Post Office,125104,,MANDI DABWALI,SIRSA,HARYANA,HISSAR,AMBALA  HQ,HARYANA
Maujgarbh B.O,Branch Post Office,125104,,MANDI DABWALI,SIRSA,HARYANA,HISSAR,AMBALA  HQ,HARYANA
Mithri B.O,Branch Post Office,125104,,MANDI DABWALI,SIRSA,HARYANA,HISSAR,AMBALA  HQ,HARYANA
Paniwala Ruldu B.O,Branch Post Office,125104,,MANDI DABWALI,SIRSA,HARYANA,HISSAR,AMBALA  HQ,HARYANA
Sakta Khera B.O,Branch Post Office,125104,,MANDI DABWALI,SIRSA,HARYANA,HISSAR,AMBALA  HQ,HARYANA
Shergarh B.O,Branch Post Office,125104,,MANDI DABWALI,SIRSA,HARYANA,HISSAR,AMBALA  HQ,HARYANA
Buraj Bhangu B.O,Branch Post Office,125077,,ODHAN,SIRSA,HARYANA,HISSAR,AMBALA  HQ,HARYANA
Chormar B.O,Branch Post Office,125077,,ODHAN,SIRSA,HARYANA,HISSAR,AMBALA  HQ,HARYANA
Khairkan B.O,Branch Post Office,125077,,ODHAN,SIRSA,HARYANA,HISSAR,AMBALA  HQ,HARYANA
Nezadela Khurd B.O,Branch Post Office,125077,,ODHAN,SIRSA,HARYANA,HISSAR,AMBALA  HQ,HARYANA
Nuhianwali B.O,Branch Post Office,125077,,ODHAN,SIRSA,HARYANA,HISSAR,AMBALA  HQ,HARYANA
Paniwala Mota B.O,Branch Post Office,125077,,ODHAN,SIRSA,HARYANA,HISSAR,AMBALA  HQ,HARYANA
Panjuana B.O,Branch Post Office,125077,,ODHAN,SIRSA,HARYANA,HISSAR,AMBALA  HQ,HARYANA
Sahuwala B.O,Branch Post Office,125077,,ODHAN,SIRSA,HARYANA,HISSAR,AMBALA  HQ,HARYANA
Dohtar B.O,Branch Post Office,125076,,RANIA,SIRSA,HARYANA,HISSAR,AMBALA  HQ,HARYANA
Jodhpuria B.O,Branch Post Office,125076,,RANIA,SIRSA,HARYANA,HISSAR,AMBALA  HQ,HARYANA
Kharian B.O,Branch Post Office,125076,,RANIA,SIRSA,HARYANA,HISSAR,AMBALA  HQ,HARYANA
Nanuana B.O,Branch Post Office,125076,,RANIA,SIRSA,HARYANA,HISSAR,AMBALA  HQ,HARYANA
Sultanpuria B.O,Branch Post Office,125076,,RANIA,SIRSA,HARYANA,HISSAR,AMBALA  HQ,HARYANA
Ahmedpur B.O,Branch Post Office,125055,,SIRSA,SIRSA,HARYANA,HISSAR,AMBALA  HQ,HARYANA
Amritsar Kalan B.O,Branch Post Office,125102,,SIRSA,SIRSA,HARYANA,HISSAR,AMBALA  HQ,HARYANA
Arniawali B.O,Branch Post Office,125055,,SIRSA,SIRSA,HARYANA,HISSAR,AMBALA  HQ,HARYANA
Bahaudin S.O,Sub Post Office,125054,01666-274439,SIRSA,SIRSA,HARYANA,HISSAR,AMBALA  HQ,HARYANA
Bahya B.O,Branch Post Office,125075,,SIRSA,SIRSA,HARYANA,HISSAR,AMBALA  HQ,HARYANA
Baidwala B.O,Branch Post Office,125060,,SIRSA,SIRSA,HARYANA,HISSAR,AMBALA  HQ,HARYANA
Bajekan B.O,Branch Post Office,125060,,SIRSA,SIRSA,HARYANA,HISSAR,AMBALA  HQ,HARYANA
Balasar B.O,Branch Post Office,125075,,SIRSA,SIRSA,HARYANA,HISSAR,AMBALA  HQ,HARYANA
Banni B.O,Branch Post Office,125075,,SIRSA,SIRSA,HARYANA,HISSAR,AMBALA  HQ,HARYANA
Banwala B.O,Branch Post Office,125103,,SIRSA,SIRSA,HARYANA,HISSAR,AMBALA  HQ,HARYANA
Baragudha S.O,Sub Post Office,125078,01696-245209,SIRSA,SIRSA,HARYANA,HISSAR,AMBALA  HQ,HARYANA
Barawala Khurd B.O,Branch Post Office,125102,,SIRSA,SIRSA,HARYANA,HISSAR,AMBALA  HQ,HARYANA
Baruwali-i B.O,Branch Post Office,125054,,SIRSA,SIRSA,HARYANA,HISSAR,AMBALA  HQ,HARYANA
Begu Road Sirsa S.O,Sub Post Office,125055,01666-235411,SIRSA,SIRSA,HARYANA,HISSAR,AMBALA  HQ,HARYANA
Bhamboor B.O,Branch Post Office,125055,,SIRSA,SIRSA,HARYANA,HISSAR,AMBALA  HQ,HARYANA
Bharokhan B.O,Branch Post Office,125060,,SIRSA,SIRSA,HARYANA,HISSAR,AMBALA  HQ,HARYANA
Bharolianwali B.O,Branch Post Office,125075,,SIRSA,SIRSA,HARYANA,HISSAR,AMBALA  HQ,HARYANA
Bhratwala B.O,Branch Post Office,125055,,SIRSA,SIRSA,HARYANA,HISSAR,AMBALA  HQ,HARYANA
Bijuwali B.O,Branch Post Office,125103,,SIRSA,SIRSA,HARYANA,HISSAR,AMBALA  HQ,HARYANA
Chadiwal B.O,Branch Post Office,125110,,SIRSA,SIRSA,HARYANA,HISSAR,AMBALA  HQ,HARYANA
Chaharwala B.O,Branch Post Office,125110,,SIRSA,SIRSA,HARYANA,HISSAR,AMBALA  HQ,HARYANA
Chakarian B.O,Branch Post Office,125055,,SIRSA,SIRSA,HARYANA,HISSAR,AMBALA  HQ,HARYANA
Chakkan B.O,Branch Post Office,125103,,SIRSA,SIRSA,HARYANA,HISSAR,AMBALA  HQ,HARYANA
Chamal B.O,Branch Post Office,125055,,SIRSA,SIRSA,HARYANA,HISSAR,AMBALA  HQ,HARYANA
Chattargarh Patti B.O,Branch Post Office,125055,,SIRSA,SIRSA,HARYANA,HISSAR,AMBALA  HQ,HARYANA
Chautala S.O,Sub Post Office,125101,01668-250266,SIRSA,SIRSA,HARYANA,HISSAR,AMBALA  HQ,HARYANA
Chopta Nathu Sari S.O,Sub Post Office,125110,01668-256001,SIRSA,SIRSA,HARYANA,HISSAR,AMBALA  HQ,HARYANA
Damdama B.O,Branch Post Office,125075,,SIRSA,SIRSA,HARYANA,HISSAR,AMBALA  HQ,HARYANA
Darba Kalan B.O,Branch Post Office,125110,,SIRSA,SIRSA,HARYANA,HISSAR,AMBALA  HQ,HARYANA
Darbi B.O,Branch Post Office,125060,,SIRSA,SIRSA,HARYANA,HISSAR,AMBALA  HQ,HARYANA
Dharampura B.O,Branch Post Office,125075,,SIRSA,SIRSA,HARYANA,HISSAR,AMBALA  HQ,HARYANA
Ding S.O,Sub Post Office,125058,01666-254230,SIRSA,SIRSA,HARYANA,HISSAR,AMBALA  HQ,HARYANA
Dudianwali B.O,Branch Post Office,125075,,SIRSA,SIRSA,HARYANA,HISSAR,AMBALA  HQ,HARYANA
Ellenabad S.O,Sub Post Office,125102,01698-223460,SIRSA,SIRSA,HARYANA,HISSAR,AMBALA  HQ,HARYANA
Ferozabad B.O,Branch Post Office,125055,,SIRSA,SIRSA,HARYANA,HISSAR,AMBALA  HQ,HARYANA
Furwain Kalan B.O,Branch Post Office,125060,,SIRSA,SIRSA,HARYANA,HISSAR,AMBALA  HQ,HARYANA
Ganda B.O,Branch Post Office,125103,,SIRSA,SIRSA,HARYANA,HISSAR,AMBALA  HQ,HARYANA
Ghoranwali B.O,Branch Post Office,125103,,SIRSA,SIRSA,HARYANA,HISSAR,AMBALA  HQ,HARYANA
Goriwala S.O,Sub Post Office,125103,01668-282229,SIRSA,SIRSA,HARYANA,HISSAR,AMBALA  HQ,HARYANA
Gudia Khera B.O,Branch Post Office,125055,,SIRSA,SIRSA,HARYANA,HISSAR,AMBALA  HQ,HARYANA
Gussiana B.O,Branch Post Office,125110,,SIRSA,SIRSA,HARYANA,HISSAR,AMBALA  HQ,HARYANA
Hanziran B.O,Branch Post Office,125110,,SIRSA,SIRSA,HARYANA,HISSAR,AMBALA  HQ,HARYANA
Haripura B.O,Branch Post Office,125075,,SIRSA,SIRSA,HARYANA,HISSAR,AMBALA  HQ,HARYANA
Jamal B.O,Branch Post Office,125110,,SIRSA,SIRSA,HARYANA,HISSAR,AMBALA  HQ,HARYANA
Jhornali B.O,Branch Post Office,125055,,SIRSA,SIRSA,HARYANA,HISSAR,AMBALA  HQ,HARYANA
Jodhkan B.O,Branch Post Office,125055,,SIRSA,SIRSA,HARYANA,HISSAR,AMBALA  HQ,HARYANA
Kagdana B.O,Branch Post Office,125110,,SIRSA,SIRSA,HARYANA,HISSAR,AMBALA  HQ,HARYANA
Kalanwali S.O,Sub Post Office,125201,01696-222010,SIRSA,SIRSA,HARYANA,HISSAR,AMBALA  HQ,HARYANA
Kaluana B.O,Branch Post Office,125103,,SIRSA,SIRSA,HARYANA,HISSAR,AMBALA  HQ,HARYANA
Kariwala B.O,Branch Post Office,125075,,SIRSA,SIRSA,HARYANA,HISSAR,AMBALA  HQ,HARYANA
Keharwala B.O,Branch Post Office,125103,,SIRSA,SIRSA,HARYANA,HISSAR,AMBALA  HQ,HARYANA
Keshopura B.O,Branch Post Office,125055,,SIRSA,SIRSA,HARYANA,HISSAR,AMBALA  HQ,HARYANA
Khairpur S.O,Sub Post Office,125055,01666-220003,SIRSA,SIRSA,HARYANA,HISSAR,AMBALA  HQ,HARYANA
Khari Sureran B.O,Branch Post Office,125102,,SIRSA,SIRSA,HARYANA,HISSAR,AMBALA  HQ,HARYANA
Kusumbi B.O,Branch Post Office,125055,,SIRSA,SIRSA,HARYANA,HISSAR,AMBALA  HQ,HARYANA
Kutewadh B.O,Branch Post Office,125055,,SIRSA,SIRSA,HARYANA,HISSAR,AMBALA  HQ,HARYANA
Ludesar B.O,Branch Post Office,125110,,SIRSA,SIRSA,HARYANA,HISSAR,AMBALA  HQ,HARYANA
Madho Singhana B.O,Branch Post Office,125055,,SIRSA,SIRSA,HARYANA,HISSAR,AMBALA  HQ,HARYANA
Majudin B.O,Branch Post Office,125055,,SIRSA,SIRSA,HARYANA,HISSAR,AMBALA  HQ,HARYANA
Makhosarani B.O,Branch Post Office,125110,,SIRSA,SIRSA,HARYANA,HISSAR,AMBALA  HQ,HARYANA
Mallekan B.O,Branch Post Office,125055,,SIRSA,SIRSA,HARYANA,HISSAR,AMBALA  HQ,HARYANA
Mamera Kalan B.O,Branch Post Office,125102,,SIRSA,SIRSA,HARYANA,HISSAR,AMBALA  HQ,HARYANA
Mangala B.O,Branch Post Office,125055,,SIRSA,SIRSA,HARYANA,HISSAR,AMBALA  HQ,HARYANA
Manjui Khera B.O,Branch Post Office,125054,,SIRSA,SIRSA,HARYANA,HISSAR,AMBALA  HQ,HARYANA
Matdadu B.O,Branch Post Office,125103,,SIRSA,SIRSA,HARYANA,HISSAR,AMBALA  HQ,HARYANA
Mauju Khera B.O,Branch Post Office,125102,,SIRSA,SIRSA,HARYANA,HISSAR,AMBALA  HQ,HARYANA
Mini.Sectt.Sirsa S.O,Sub Post Office,125055,01666-247581,SIRSA,SIRSA,HARYANA,HISSAR,AMBALA  HQ,HARYANA
Mirzapur B.O,Branch Post Office,125102,,SIRSA,SIRSA,HARYANA,HISSAR,AMBALA  HQ,HARYANA
Mithanpura B.O,Branch Post Office,125102,,SIRSA,SIRSA,HARYANA,HISSAR,AMBALA  HQ,HARYANA
Mochiwali B.O,Branch Post Office,125058,,SIRSA,SIRSA,HARYANA,HISSAR,AMBALA  HQ,HARYANA
Monnawali B.O,Branch Post Office,125103,,SIRSA,SIRSA,HARYANA,HISSAR,AMBALA  HQ,HARYANA
Moriwala B.O,Branch Post Office,125060,,SIRSA,SIRSA,HARYANA,HISSAR,AMBALA  HQ,HARYANA
Mts Sirsa S.O,Sub Post Office,125055,01666-240170,SIRSA,SIRSA,HARYANA,HISSAR,AMBALA  HQ,HARYANA
Nai Mandi Sirsa S.O,Sub Post Office,125055,01666-241582,SIRSA,SIRSA,HARYANA,HISSAR,AMBALA  HQ,HARYANA
Nakora B.O,Branch Post Office,125075,,SIRSA,SIRSA,HARYANA,HISSAR,AMBALA  HQ,HARYANA
Nathore B.O,Branch Post Office,125075,,SIRSA,SIRSA,HARYANA,HISSAR,AMBALA  HQ,HARYANA
Nathusari Kalan B.O,Branch Post Office,125110,,SIRSA,SIRSA,HARYANA,HISSAR,AMBALA  HQ,HARYANA
Nozadela Kalan B.O,Branch Post Office,125060,,SIRSA,SIRSA,HARYANA,HISSAR,AMBALA  HQ,HARYANA
Nozia Khera B.O,Branch Post Office,125060,,SIRSA,SIRSA,HARYANA,HISSAR,AMBALA  HQ,HARYANA
Odhan S.O,Sub Post Office,125077,01696-251230,SIRSA,SIRSA,HARYANA,HISSAR,AMBALA  HQ,HARYANA
Ottu B.O,Branch Post Office,125055,,SIRSA,SIRSA,HARYANA,HISSAR,AMBALA  HQ,HARYANA
Panihari B.O,Branch Post Office,125055,,SIRSA,SIRSA,HARYANA,HISSAR,AMBALA  HQ,HARYANA
Patli Dabar B.O,Branch Post Office,125054,,SIRSA,SIRSA,HARYANA,HISSAR,AMBALA  HQ,HARYANA
Phulkan B.O,Branch Post Office,125060,,SIRSA,SIRSA,HARYANA,HISSAR,AMBALA  HQ,HARYANA
Rampur Bishnoian B.O,Branch Post Office,125103,,SIRSA,SIRSA,HARYANA,HISSAR,AMBALA  HQ,HARYANA
Randhawa B.O,Branch Post Office,125055,,SIRSA,SIRSA,HARYANA,HISSAR,AMBALA  HQ,HARYANA
Rania S.O,Sub Post Office,125076,01698-250230,SIRSA,SIRSA,HARYANA,HISSAR,AMBALA  HQ,HARYANA
Resalia Khera B.O,Branch Post Office,125103,,SIRSA,SIRSA,HARYANA,HISSAR,AMBALA  HQ,HARYANA
Rupawas B.O,Branch Post Office,125110,,SIRSA,SIRSA,HARYANA,HISSAR,AMBALA  HQ,HARYANA
Sahuwala -ii B.O,Branch Post Office,125110,,SIRSA,SIRSA,HARYANA,HISSAR,AMBALA  HQ,HARYANA
Sant Nagar B.O,Branch Post Office,125075,,SIRSA,SIRSA,HARYANA,HISSAR,AMBALA  HQ,HARYANA
Shahpur Begu B.O,Branch Post Office,125055,,SIRSA,SIRSA,HARYANA,HISSAR,AMBALA  HQ,HARYANA
Shakar Mandori B.O,Branch Post Office,125110,,SIRSA,SIRSA,HARYANA,HISSAR,AMBALA  HQ,HARYANA
Sherpura B.O,Branch Post Office,125110,,SIRSA,SIRSA,HARYANA,HISSAR,AMBALA  HQ,HARYANA
Sikander Pur S.O,Sub Post Office,125060,01666-250630,SIRSA,SIRSA,HARYANA,HISSAR,AMBALA  HQ,HARYANA
Siri Jiwan Nagar S.O,Sub Post Office,125075,01698-272230,SIRSA,SIRSA,HARYANA,HISSAR,AMBALA  HQ,HARYANA
Sirsa H.O,Head Post Office,125055,01666-221202,SIRSA,SIRSA,HARYANA,HISSAR,AMBALA  HQ,HARYANA
Sirsa Town S.O,Sub Post Office,125055,01666-221611,SIRSA,SIRSA,HARYANA,HISSAR,AMBALA  HQ,HARYANA
Suchan Kotli B.O,Branch Post Office,125055,,SIRSA,SIRSA,HARYANA,HISSAR,AMBALA  HQ,HARYANA
Talwara Khurd B.O,Branch Post Office,125102,,SIRSA,SIRSA,HARYANA,HISSAR,AMBALA  HQ,HARYANA
Thersahidau B.O,Branch Post Office,125075,,SIRSA,SIRSA,HARYANA,HISSAR,AMBALA  HQ,HARYANA
Umedpura B.O,Branch Post Office,125055,,SIRSA,SIRSA,HARYANA,HISSAR,AMBALA  HQ,HARYANA
Ahulana B.O,Branch Post Office,131101,,.,SONIPAT,HARYANA,SONEPAT,AMBALA  HQ,HARYANA
Ahulana B.O,Branch Post Office,131301,,.,SONIPAT,HARYANA,SONEPAT,AMBALA  HQ,HARYANA
Akabarpur B.O,Branch Post Office,131103,,.,SONIPAT,HARYANA,SONEPAT,AMBALA  HQ,HARYANA
Anwali B.O,Branch Post Office,131409,,.,SONIPAT,HARYANA,SONEPAT,AMBALA  HQ,HARYANA
Asadpur B.O,Branch Post Office,131027,,.,SONIPAT,HARYANA,SONEPAT,AMBALA  HQ,HARYANA
Aterna B.O,Branch Post Office,131023,,.,SONIPAT,HARYANA,SONEPAT,AMBALA  HQ,HARYANA
Atlas Cycle S.O,Sub Post Office,131001,0130-2246785,.,SONIPAT,HARYANA,SONEPAT,AMBALA  HQ,HARYANA
Badhana B.O,Branch Post Office,131403,,.,SONIPAT,HARYANA,SONEPAT,AMBALA  HQ,HARYANA
Bajanakhurd B.O,Branch Post Office,131102,,.,SONIPAT,HARYANA,SONEPAT,AMBALA  HQ,HARYANA
Bali Brahman B.O,Branch Post Office,131301,,.,SONIPAT,HARYANA,SONEPAT,AMBALA  HQ,HARYANA
Bali Qutubpur B.O,Branch Post Office,131101,,.,SONIPAT,HARYANA,SONEPAT,AMBALA  HQ,HARYANA
Banwasa B.O,Branch Post Office,131304,,.,SONIPAT,HARYANA,SONEPAT,AMBALA  HQ,HARYANA
Bari B.O,Branch Post Office,131101,,.,SONIPAT,HARYANA,SONEPAT,AMBALA  HQ,HARYANA
Baroli B.O,Branch Post Office,131021,,.,SONIPAT,HARYANA,SONEPAT,AMBALA  HQ,HARYANA
Barona B.O,Branch Post Office,131402,,.,SONIPAT,HARYANA,SONEPAT,AMBALA  HQ,HARYANA
Barota B.O,Branch Post Office,131301,,.,SONIPAT,HARYANA,SONEPAT,AMBALA  HQ,HARYANA
Barota Mandora B.O,Branch Post Office,131103,,.,SONIPAT,HARYANA,SONEPAT,AMBALA  HQ,HARYANA
Barwasni B.O,Branch Post Office,131001,,.,SONIPAT,HARYANA,SONEPAT,AMBALA  HQ,HARYANA
Bayanpur B.O,Branch Post Office,131001,,.,SONIPAT,HARYANA,SONEPAT,AMBALA  HQ,HARYANA
Bega B.O,Branch Post Office,131101,,.,SONIPAT,HARYANA,SONEPAT,AMBALA  HQ,HARYANA
Bhagan B.O,Branch Post Office,131039,,.,SONIPAT,HARYANA,SONEPAT,AMBALA  HQ,HARYANA
Bhainswal Kalan S.O,Sub Post Office,131409,01263-285254,.,SONIPAT,HARYANA,SONEPAT,AMBALA  HQ,HARYANA
Bhainswan Khurd B.O,Branch Post Office,131301,,.,SONIPAT,HARYANA,SONEPAT,AMBALA  HQ,HARYANA
Bhatgaon S.O,Sub Post Office,131002,0130-2504608,.,SONIPAT,HARYANA,SONEPAT,AMBALA  HQ,HARYANA
Bhawar B.O,Branch Post Office,131302,,.,SONIPAT,HARYANA,SONEPAT,AMBALA  HQ,HARYANA
Bhimnagar S.O,Sub Post Office,131409,0130-2246915,.,SONIPAT,HARYANA,SONEPAT,AMBALA  HQ,HARYANA
Bichpari S.O,Sub Post Office,131310,,.,SONIPAT,HARYANA,SONEPAT,AMBALA  HQ,HARYANA
Bidhal B.O,Branch Post Office,131301,,.,SONIPAT,HARYANA,SONEPAT,AMBALA  HQ,HARYANA
Bidhlan B.O,Branch Post Office,131402,,.,SONIPAT,HARYANA,SONEPAT,AMBALA  HQ,HARYANA
Bindroli B.O,Branch Post Office,131403,,.,SONIPAT,HARYANA,SONEPAT,AMBALA  HQ,HARYANA
Bohla B.O,Branch Post Office,131024,,.,SONIPAT,HARYANA,SONEPAT,AMBALA  HQ,HARYANA
Bus Stand Gohana S.O,Sub Post Office,131301,01263-253894,.,SONIPAT,HARYANA,SONEPAT,AMBALA  HQ,HARYANA
Busana B.O,Branch Post Office,131306,,.,SONIPAT,HARYANA,SONEPAT,AMBALA  HQ,HARYANA
Butana S.O,Sub Post Office,131302,01263-287054,.,SONIPAT,HARYANA,SONEPAT,AMBALA  HQ,HARYANA
Chhapra B.O,Branch Post Office,131304,,.,SONIPAT,HARYANA,SONEPAT,AMBALA  HQ,HARYANA
Chhetra B.O,Branch Post Office,131306,,.,SONIPAT,HARYANA,SONEPAT,AMBALA  HQ,HARYANA
Chhetra Bhahadurpur B.O,Branch Post Office,131103,,.,SONIPAT,HARYANA,SONEPAT,AMBALA  HQ,HARYANA
Chhichrana B.O,Branch Post Office,131301,,.,SONIPAT,HARYANA,SONEPAT,AMBALA  HQ,HARYANA
Chirana B.O,Branch Post Office,131306,,.,SONIPAT,HARYANA,SONEPAT,AMBALA  HQ,HARYANA
Churana B.O,Branch Post Office,131306,,.,SONIPAT,HARYANA,SONEPAT,AMBALA  HQ,HARYANA
Datauli B.O,Branch Post Office,131101,,.,SONIPAT,HARYANA,SONEPAT,AMBALA  HQ,HARYANA
Deepalpur B.O,Branch Post Office,131021,,.,SONIPAT,HARYANA,SONEPAT,AMBALA  HQ,HARYANA
Delhi Road B.O,Branch Post Office,131001,,.,SONIPAT,HARYANA,SONEPAT,AMBALA  HQ,HARYANA
Dhanana Ahladpur B.O,Branch Post Office,131304,,.,SONIPAT,HARYANA,SONEPAT,AMBALA  HQ,HARYANA
Engg College Muthal S.O,Sub Post Office,131039,0130-2484096,.,SONIPAT,HARYANA,SONEPAT,AMBALA  HQ,HARYANA
Farmana S.O,Sub Post Office,131408,0130-2545035,.,SONIPAT,HARYANA,SONEPAT,AMBALA  HQ,HARYANA
Fazilpur B.O,Branch Post Office,131001,,.,SONIPAT,HARYANA,SONEPAT,AMBALA  HQ,HARYANA
G.H.Bhainswal Kalan B.O,Branch Post Office,131409,,.,SONIPAT,HARYANA,SONEPAT,AMBALA  HQ,HARYANA
G.K.Matindu B.O,Branch Post Office,131402,,.,SONIPAT,HARYANA,SONEPAT,AMBALA  HQ,HARYANA
Ganaur City S.O,Sub Post Office,131101,0130-2460414,.,SONIPAT,HARYANA,SONEPAT,AMBALA  HQ,HARYANA
Ganaur S.O,Sub Post Office,131101,0130-2460024,.,SONIPAT,HARYANA,SONEPAT,AMBALA  HQ,HARYANA
Ganewari B.O,Branch Post Office,131303,,.,SONIPAT,HARYANA,SONEPAT,AMBALA  HQ,HARYANA
Gangana B.O,Branch Post Office,131302,,.,SONIPAT,HARYANA,SONEPAT,AMBALA  HQ,HARYANA
Ganzbazar S.O,Sub Post Office,131001,0130-2246487,.,SONIPAT,HARYANA,SONEPAT,AMBALA  HQ,HARYANA
Garhi Rajlu B.O,Branch Post Office,131101,,.,SONIPAT,HARYANA,SONEPAT,AMBALA  HQ,HARYANA
Garhwal B.O,Branch Post Office,131302,,.,SONIPAT,HARYANA,SONEPAT,AMBALA  HQ,HARYANA
Ghasauli B.O,Branch Post Office,131101,,.,SONIPAT,HARYANA,SONEPAT,AMBALA  HQ,HARYANA
Giwana B.O,Branch Post Office,131409,,.,SONIPAT,HARYANA,SONEPAT,AMBALA  HQ,HARYANA
Gohana Mandi S.O,Sub Post Office,131301,01263-252040,.,SONIPAT,HARYANA,SONEPAT,AMBALA  HQ,HARYANA
Gohana Road S.O,Sub Post Office,131001,0130-2220582,.,SONIPAT,HARYANA,SONEPAT,AMBALA  HQ,HARYANA
Gohana S.O,Sub Post Office,131301,01263-252244,.,SONIPAT,HARYANA,SONEPAT,AMBALA  HQ,HARYANA
Gopalpur B.O,Branch Post Office,131402,,.,SONIPAT,HARYANA,SONEPAT,AMBALA  HQ,HARYANA
Gorar B.O,Branch Post Office,131408,,.,SONIPAT,HARYANA,SONEPAT,AMBALA  HQ,HARYANA
Guhna B.O,Branch Post Office,131408,,.,SONIPAT,HARYANA,SONEPAT,AMBALA  HQ,HARYANA
Gumar B.O,Branch Post Office,131101,,.,SONIPAT,HARYANA,SONEPAT,AMBALA  HQ,HARYANA
Halalpur B.O,Branch Post Office,131103,,.,SONIPAT,HARYANA,SONEPAT,AMBALA  HQ,HARYANA
Harsana Kalan B.O,Branch Post Office,131001,,.,SONIPAT,HARYANA,SONEPAT,AMBALA  HQ,HARYANA
Housing Board Colony S.O,Sub Post Office,131001,0130-2214919,.,SONIPAT,HARYANA,SONEPAT,AMBALA  HQ,HARYANA
Industrial Area Sonipat S.O,Sub Post Office,131001,0130-2100698,.,SONIPAT,HARYANA,SONEPAT,AMBALA  HQ,HARYANA
Industrial Estate Kundli S.O,Sub Post Office,131028,0130-2370425,.,SONIPAT,HARYANA,SONEPAT,AMBALA  HQ,HARYANA
Jagsi B.O,Branch Post Office,131301,,.,SONIPAT,HARYANA,SONEPAT,AMBALA  HQ,HARYANA
Jainpur B.O,Branch Post Office,131027,,.,SONIPAT,HARYANA,SONEPAT,AMBALA  HQ,HARYANA
Jakhauli S.O,Sub Post Office,131023,0130-2386019,.,SONIPAT,HARYANA,SONEPAT,AMBALA  HQ,HARYANA
Janti Kalan B.O,Branch Post Office,131028,,.,SONIPAT,HARYANA,SONEPAT,AMBALA  HQ,HARYANA
Jasrana B.O,Branch Post Office,131408,,.,SONIPAT,HARYANA,SONEPAT,AMBALA  HQ,HARYANA
Jatheri B.O,Branch Post Office,131029,,.,SONIPAT,HARYANA,SONEPAT,AMBALA  HQ,HARYANA
Jauli B.O,Branch Post Office,131301,,.,SONIPAT,HARYANA,SONEPAT,AMBALA  HQ,HARYANA
Jawahra B.O,Branch Post Office,131306,,.,SONIPAT,HARYANA,SONEPAT,AMBALA  HQ,HARYANA
Jharot B.O,Branch Post Office,131403,,.,SONIPAT,HARYANA,SONEPAT,AMBALA  HQ,HARYANA
Jhs Butana B.O,Branch Post Office,131302,,.,SONIPAT,HARYANA,SONEPAT,AMBALA  HQ,HARYANA
Jhundpur B.O,Branch Post Office,131023,,.,SONIPAT,HARYANA,SONEPAT,AMBALA  HQ,HARYANA
Juan S.O,Sub Post Office,131024,0130-2530524,.,SONIPAT,HARYANA,SONEPAT,AMBALA  HQ,HARYANA
Kailana B.O,Branch Post Office,131102,,.,SONIPAT,HARYANA,SONEPAT,AMBALA  HQ,HARYANA
Kakroi B.O,Branch Post Office,131001,,.,SONIPAT,HARYANA,SONEPAT,AMBALA  HQ,HARYANA
Kanwali B.O,Branch Post Office,131403,,.,SONIPAT,HARYANA,SONEPAT,AMBALA  HQ,HARYANA
Kanyagurukul Khanpur S.O,Sub Post Office,131303,01263-283621,.,SONIPAT,HARYANA,SONEPAT,AMBALA  HQ,HARYANA
Karewari B.O,Branch Post Office,131024,,.,SONIPAT,HARYANA,SONEPAT,AMBALA  HQ,HARYANA
Kasandi B.O,Branch Post Office,131303,,.,SONIPAT,HARYANA,SONEPAT,AMBALA  HQ,HARYANA
Kathura B.O,Branch Post Office,131301,,.,SONIPAT,HARYANA,SONEPAT,AMBALA  HQ,HARYANA
Kathura Block B.O,Branch Post Office,131301,,.,SONIPAT,HARYANA,SONEPAT,AMBALA  HQ,HARYANA
Katwal B.O,Branch Post Office,131409,,.,SONIPAT,HARYANA,SONEPAT,AMBALA  HQ,HARYANA
Khanda B.O,Branch Post Office,131402,,.,SONIPAT,HARYANA,SONEPAT,AMBALA  HQ,HARYANA
Khandrai B.O,Branch Post Office,131301,,.,SONIPAT,HARYANA,SONEPAT,AMBALA  HQ,HARYANA
Khanpur Kalan B.O,Branch Post Office,131303,,.,SONIPAT,HARYANA,SONEPAT,AMBALA  HQ,HARYANA
Kharkhauda S.O,Sub Post Office,131402,0130-2584024,.,SONIPAT,HARYANA,SONEPAT,AMBALA  HQ,HARYANA
Kheri Damkan B.O,Branch Post Office,131301,,.,SONIPAT,HARYANA,SONEPAT,AMBALA  HQ,HARYANA
Kheri Gujjar B.O,Branch Post Office,131101,,.,SONIPAT,HARYANA,SONEPAT,AMBALA  HQ,HARYANA
Kheri Manajat B.O,Branch Post Office,131103,,.,SONIPAT,HARYANA,SONEPAT,AMBALA  HQ,HARYANA
Khewra B.O,Branch Post Office,131021,,.,SONIPAT,HARYANA,SONEPAT,AMBALA  HQ,HARYANA
Khizarpur Ahir B.O,Branch Post Office,131101,,.,SONIPAT,HARYANA,SONEPAT,AMBALA  HQ,HARYANA
Kohla B.O,Branch Post Office,131302,,.,SONIPAT,HARYANA,SONEPAT,AMBALA  HQ,HARYANA
Kundal B.O,Branch Post Office,131402,,.,SONIPAT,HARYANA,SONEPAT,AMBALA  HQ,HARYANA
Kundli B.O,Branch Post Office,131028,,.,SONIPAT,HARYANA,SONEPAT,AMBALA  HQ,HARYANA
Kurar Brahimpur B.O,Branch Post Office,131039,,.,SONIPAT,HARYANA,SONEPAT,AMBALA  HQ,HARYANA
Larsauli B.O,Branch Post Office,131039,,.,SONIPAT,HARYANA,SONEPAT,AMBALA  HQ,HARYANA
Lath B.O,Branch Post Office,131301,,.,SONIPAT,HARYANA,SONEPAT,AMBALA  HQ,HARYANA
Lehrara B.O,Branch Post Office,131001,,.,SONIPAT,HARYANA,SONEPAT,AMBALA  HQ,HARYANA
Madina B.O,Branch Post Office,131301,,.,SONIPAT,HARYANA,SONEPAT,AMBALA  HQ,HARYANA
Mahra -II B.O,Branch Post Office,131024,,.,SONIPAT,HARYANA,SONEPAT,AMBALA  HQ,HARYANA
Mahra-I B.O,Branch Post Office,131301,,.,SONIPAT,HARYANA,SONEPAT,AMBALA  HQ,HARYANA
Malikpur B.O,Branch Post Office,131027,,.,SONIPAT,HARYANA,SONEPAT,AMBALA  HQ,HARYANA
Manauli B.O,Branch Post Office,131023,,.,SONIPAT,HARYANA,SONEPAT,AMBALA  HQ,HARYANA
Mehlana B.O,Branch Post Office,131001,,.,SONIPAT,HARYANA,SONEPAT,AMBALA  HQ,HARYANA
Mehmoodpur B.O,Branch Post Office,131301,,.,SONIPAT,HARYANA,SONEPAT,AMBALA  HQ,HARYANA
"Model Town, Sonipat S.O",Sub Post Office,131001,0130-2246821,.,SONIPAT,HARYANA,SONEPAT,AMBALA  HQ,HARYANA
Mohana B.O,Branch Post Office,131001,,.,SONIPAT,HARYANA,SONEPAT,AMBALA  HQ,HARYANA
Moi Hooda B.O,Branch Post Office,131301,,.,SONIPAT,HARYANA,SONEPAT,AMBALA  HQ,HARYANA
Moi Majri B.O,Branch Post Office,131102,,.,SONIPAT,HARYANA,SONEPAT,AMBALA  HQ,HARYANA
Mundlana S.O,Sub Post Office,131306,01263-278035,.,SONIPAT,HARYANA,SONEPAT,AMBALA  HQ,HARYANA
Murthal S.O,Sub Post Office,131027,01263-2482024,.,SONIPAT,HARYANA,SONEPAT,AMBALA  HQ,HARYANA
Nahra B.O,Branch Post Office,131103,,.,SONIPAT,HARYANA,SONEPAT,AMBALA  HQ,HARYANA
Nahri S.O,Sub Post Office,131103,0130-2573074,.,SONIPAT,HARYANA,SONEPAT,AMBALA  HQ,HARYANA
Nandpur B.O,Branch Post Office,131027,,.,SONIPAT,HARYANA,SONEPAT,AMBALA  HQ,HARYANA
Nangal Kalan B.O,Branch Post Office,131023,,.,SONIPAT,HARYANA,SONEPAT,AMBALA  HQ,HARYANA
Nathupur B.O,Branch Post Office,131029,,.,SONIPAT,HARYANA,SONEPAT,AMBALA  HQ,HARYANA
Nayat B.O,Branch Post Office,131301,,.,SONIPAT,HARYANA,SONEPAT,AMBALA  HQ,HARYANA
Nizampur B.O,Branch Post Office,131302,,.,SONIPAT,HARYANA,SONEPAT,AMBALA  HQ,HARYANA
Nuran Khera B.O,Branch Post Office,131302,,.,SONIPAT,HARYANA,SONEPAT,AMBALA  HQ,HARYANA
P.S.Rai S.O,Sub Post Office,131029,0130-2366226,.,SONIPAT,HARYANA,SONEPAT,AMBALA  HQ,HARYANA
Panchi Gujjaran B.O,Branch Post Office,131101,,.,SONIPAT,HARYANA,SONEPAT,AMBALA  HQ,HARYANA
Panchijatan B.O,Branch Post Office,131102,,.,SONIPAT,HARYANA,SONEPAT,AMBALA  HQ,HARYANA
Pehladpur Kiroli B.O,Branch Post Office,131402,,.,SONIPAT,HARYANA,SONEPAT,AMBALA  HQ,HARYANA
Pinana B.O,Branch Post Office,131301,,.,SONIPAT,HARYANA,SONEPAT,AMBALA  HQ,HARYANA
Pipli B.O,Branch Post Office,131402,,.,SONIPAT,HARYANA,SONEPAT,AMBALA  HQ,HARYANA
Pipli Khera B.O,Branch Post Office,131039,,.,SONIPAT,HARYANA,SONEPAT,AMBALA  HQ,HARYANA
Pritampura B.O,Branch Post Office,131029,,.,SONIPAT,HARYANA,SONEPAT,AMBALA  HQ,HARYANA
Pugthala B.O,Branch Post Office,131102,,.,SONIPAT,HARYANA,SONEPAT,AMBALA  HQ,HARYANA
Purkhas S.O,Sub Post Office,131102,0130-2496118,.,SONIPAT,HARYANA,SONEPAT,AMBALA  HQ,HARYANA
Puthi B.O,Branch Post Office,131301,,.,SONIPAT,HARYANA,SONEPAT,AMBALA  HQ,HARYANA
Qumaspur B.O,Branch Post Office,131021,,.,SONIPAT,HARYANA,SONEPAT,AMBALA  HQ,HARYANA
Rabra B.O,Branch Post Office,131301,,.,SONIPAT,HARYANA,SONEPAT,AMBALA  HQ,HARYANA
Rai B.O,Branch Post Office,131029,,.,SONIPAT,HARYANA,SONEPAT,AMBALA  HQ,HARYANA
Rajpur B.O,Branch Post Office,131101,,.,SONIPAT,HARYANA,SONEPAT,AMBALA  HQ,HARYANA
Ram Bazar-Sonipat S.O,Sub Post Office,131001,0130-2246683,.,SONIPAT,HARYANA,SONEPAT,AMBALA  HQ,HARYANA
Rathdhana B.O,Branch Post Office,131001,,.,SONIPAT,HARYANA,SONEPAT,AMBALA  HQ,HARYANA
Rattangarh B.O,Branch Post Office,131001,,.,SONIPAT,HARYANA,SONEPAT,AMBALA  HQ,HARYANA
Rinchana B.O,Branch Post Office,131304,,.,SONIPAT,HARYANA,SONEPAT,AMBALA  HQ,HARYANA
Riwara B.O,Branch Post Office,131409,,.,SONIPAT,HARYANA,SONEPAT,AMBALA  HQ,HARYANA
Rohat S.O,Sub Post Office,131403,0130-2525024,.,SONIPAT,HARYANA,SONEPAT,AMBALA  HQ,HARYANA
Rohna B.O,Branch Post Office,131402,,.,SONIPAT,HARYANA,SONEPAT,AMBALA  HQ,HARYANA
Rolad Latifpur B.O,Branch Post Office,131024,,.,SONIPAT,HARYANA,SONEPAT,AMBALA  HQ,HARYANA
Rukhi B.O,Branch Post Office,131301,,.,SONIPAT,HARYANA,SONEPAT,AMBALA  HQ,HARYANA
Saidpur B.O,Branch Post Office,131402,,.,SONIPAT,HARYANA,SONEPAT,AMBALA  HQ,HARYANA
Salimsar Majra B.O,Branch Post Office,131002,,.,SONIPAT,HARYANA,SONEPAT,AMBALA  HQ,HARYANA
Sandal Kalan B.O,Branch Post Office,131001,,.,SONIPAT,HARYANA,SONEPAT,AMBALA  HQ,HARYANA
Sanpera B.O,Branch Post Office,131039,,.,SONIPAT,HARYANA,SONEPAT,AMBALA  HQ,HARYANA
Saragthal B.O,Branch Post Office,131303,,.,SONIPAT,HARYANA,SONEPAT,AMBALA  HQ,HARYANA
Sector-14-Sonipat S.O,Sub Post Office,131001,0130-2236586,.,SONIPAT,HARYANA,SONEPAT,AMBALA  HQ,HARYANA
Sehri B.O,Branch Post Office,131402,,.,SONIPAT,HARYANA,SONEPAT,AMBALA  HQ,HARYANA
Sersa B.O,Branch Post Office,131028,,.,SONIPAT,HARYANA,SONEPAT,AMBALA  HQ,HARYANA
Shamri B.O,Branch Post Office,131306,,.,SONIPAT,HARYANA,SONEPAT,AMBALA  HQ,HARYANA
Shapur Turk B.O,Branch Post Office,131001,,.,SONIPAT,HARYANA,SONEPAT,AMBALA  HQ,HARYANA
Sheikhpura B.O,Branch Post Office,131101,,.,SONIPAT,HARYANA,SONEPAT,AMBALA  HQ,HARYANA
Sikenderpur Majra B.O,Branch Post Office,131301,,.,SONIPAT,HARYANA,SONEPAT,AMBALA  HQ,HARYANA
Silana B.O,Branch Post Office,131408,,.,SONIPAT,HARYANA,SONEPAT,AMBALA  HQ,HARYANA
Sisana S.O,Sub Post Office,131040,,.,SONIPAT,HARYANA,SONEPAT,AMBALA  HQ,HARYANA
Sitawali B.O,Branch Post Office,131024,,.,SONIPAT,HARYANA,SONEPAT,AMBALA  HQ,HARYANA
Sohti B.O,Branch Post Office,131402,,.,SONIPAT,HARYANA,SONEPAT,AMBALA  HQ,HARYANA
Sonipat Kty S.O,Sub Post Office,131001,0130-2220859,.,SONIPAT,HARYANA,SONEPAT,AMBALA  HQ,HARYANA
Sonipat Mandi S.O,Sub Post Office,131001,0130-2247434,.,SONIPAT,HARYANA,SONEPAT,AMBALA  HQ,HARYANA
Thanakalan B.O,Branch Post Office,131402,,.,SONIPAT,HARYANA,SONEPAT,AMBALA  HQ,HARYANA
Tharuoldepur B.O,Branch Post Office,131001,,.,SONIPAT,HARYANA,SONEPAT,AMBALA  HQ,HARYANA
Tihar B.O,Branch Post Office,131301,,.,SONIPAT,HARYANA,SONEPAT,AMBALA  HQ,HARYANA
Tihar Bagru B.O,Branch Post Office,131002,,.,SONIPAT,HARYANA,SONEPAT,AMBALA  HQ,HARYANA
Bahalgarh S.O,Sub Post Office,131021,0130-2381207,Sonipat,SONIPAT,HARYANA,SONEPAT,AMBALA  HQ,HARYANA
Baroda S.O,Sub Post Office,131304,01263-266033,Sonipat,SONIPAT,HARYANA,SONEPAT,AMBALA  HQ,HARYANA
Sonipat H.O,Head Post Office,131001,0130-2246955,Sonipat,SONIPAT,HARYANA,SONEPAT,AMBALA  HQ,HARYANA
Alhar B.O,Branch Post Office,135133,,Ambala,YAMUNA NAGAR,HARYANA,AMBALA,AMBALA  HQ,HARYANA
Amadalpur B.O,Branch Post Office,135101,,Ambala,YAMUNA NAGAR,HARYANA,AMBALA,AMBALA  HQ,HARYANA
Aurangabad B.O,Branch Post Office,135001,,Ambala,YAMUNA NAGAR,HARYANA,AMBALA,AMBALA  HQ,HARYANA
Azizpur B.O,Branch Post Office,133206,,Ambala,YAMUNA NAGAR,HARYANA,AMBALA,AMBALA  HQ,HARYANA
Bakana B.O,Branch Post Office,135133,,Ambala,YAMUNA NAGAR,HARYANA,AMBALA,AMBALA  HQ,HARYANA
Bakarwala B.O,Branch Post Office,135021,,Ambala,YAMUNA NAGAR,HARYANA,AMBALA,AMBALA  HQ,HARYANA
Balachaur B.O,Branch Post Office,135103,,Ambala,YAMUNA NAGAR,HARYANA,AMBALA,AMBALA  HQ,HARYANA
Balchhapar B.O,Branch Post Office,135003,,Ambala,YAMUNA NAGAR,HARYANA,AMBALA,AMBALA  HQ,HARYANA
Banidi B.O,Branch Post Office,135133,,Ambala,YAMUNA NAGAR,HARYANA,AMBALA,AMBALA  HQ,HARYANA
Bapa B.O,Branch Post Office,135133,,Ambala,YAMUNA NAGAR,HARYANA,AMBALA,AMBALA  HQ,HARYANA
Barsan B.O,Branch Post Office,135133,,Ambala,YAMUNA NAGAR,HARYANA,AMBALA,AMBALA  HQ,HARYANA
Basatianwala B.O,Branch Post Office,135102,,Ambala,YAMUNA NAGAR,HARYANA,AMBALA,AMBALA  HQ,HARYANA
Bhagu Majra B.O,Branch Post Office,135133,,Ambala,YAMUNA NAGAR,HARYANA,AMBALA,AMBALA  HQ,HARYANA
Bhambol B.O,Branch Post Office,133103,,Ambala,YAMUNA NAGAR,HARYANA,AMBALA,AMBALA  HQ,HARYANA
Bherthal B.O,Branch Post Office,135003,,Ambala,YAMUNA NAGAR,HARYANA,AMBALA,AMBALA  HQ,HARYANA
Bilauli B.O,Branch Post Office,135103,,Ambala,YAMUNA NAGAR,HARYANA,AMBALA,AMBALA  HQ,HARYANA
Binjalpur B.O,Branch Post Office,133206,,Ambala,YAMUNA NAGAR,HARYANA,AMBALA,AMBALA  HQ,HARYANA
Bubka B.O,Branch Post Office,135133,,Ambala,YAMUNA NAGAR,HARYANA,AMBALA,AMBALA  HQ,HARYANA
Cagnoli B.O,Branch Post Office,135102,,Ambala,YAMUNA NAGAR,HARYANA,AMBALA,AMBALA  HQ,HARYANA
Chamrori B.O,Branch Post Office,135133,,Ambala,YAMUNA NAGAR,HARYANA,AMBALA,AMBALA  HQ,HARYANA
Chauli B.O,Branch Post Office,135102,,Ambala,YAMUNA NAGAR,HARYANA,AMBALA,AMBALA  HQ,HARYANA
Chhappar B.O,Branch Post Office,133103,,Ambala,YAMUNA NAGAR,HARYANA,AMBALA,AMBALA  HQ,HARYANA
Dadupur B.O,Branch Post Office,135003,,Ambala,YAMUNA NAGAR,HARYANA,AMBALA,AMBALA  HQ,HARYANA
Damla B.O,Branch Post Office,135001,,Ambala,YAMUNA NAGAR,HARYANA,AMBALA,AMBALA  HQ,HARYANA
Darpur B.O,Branch Post Office,135103,,Ambala,YAMUNA NAGAR,HARYANA,AMBALA,AMBALA  HQ,HARYANA
Dayalgarh B.O,Branch Post Office,135102,,Ambala,YAMUNA NAGAR,HARYANA,AMBALA,AMBALA  HQ,HARYANA
Deodhar B.O,Branch Post Office,135021,,Ambala,YAMUNA NAGAR,HARYANA,AMBALA,AMBALA  HQ,HARYANA
Fatehgarh Tumbi B.O,Branch Post Office,133206,,Ambala,YAMUNA NAGAR,HARYANA,AMBALA,AMBALA  HQ,HARYANA
Fatehpur B.O,Branch Post Office,135101,,Ambala,YAMUNA NAGAR,HARYANA,AMBALA,AMBALA  HQ,HARYANA
Gadhaula B.O,Branch Post Office,133103,,Ambala,YAMUNA NAGAR,HARYANA,AMBALA,AMBALA  HQ,HARYANA
Ghillaur B.O,Branch Post Office,135133,,Ambala,YAMUNA NAGAR,HARYANA,AMBALA,AMBALA  HQ,HARYANA
Gudhiana B.O,Branch Post Office,133103,,Ambala,YAMUNA NAGAR,HARYANA,AMBALA,AMBALA  HQ,HARYANA
Gumthala Rao B.O,Branch Post Office,135133,,Ambala,YAMUNA NAGAR,HARYANA,AMBALA,AMBALA  HQ,HARYANA
Hafizpur B.O,Branch Post Office,135003,,Ambala,YAMUNA NAGAR,HARYANA,AMBALA,AMBALA  HQ,HARYANA
Haibatpur B.O,Branch Post Office,133206,,Ambala,YAMUNA NAGAR,HARYANA,AMBALA,AMBALA  HQ,HARYANA
Hangoli B.O,Branch Post Office,133103,,Ambala,YAMUNA NAGAR,HARYANA,AMBALA,AMBALA  HQ,HARYANA
Harnaul B.O,Branch Post Office,135001,,Ambala,YAMUNA NAGAR,HARYANA,AMBALA,AMBALA  HQ,HARYANA
Hartan B.O,Branch Post Office,135133,,Ambala,YAMUNA NAGAR,HARYANA,AMBALA,AMBALA  HQ,HARYANA
Haveli B.O,Branch Post Office,133204,,Ambala,YAMUNA NAGAR,HARYANA,AMBALA,AMBALA  HQ,HARYANA
Jagdholi B.O,Branch Post Office,133103,,Ambala,YAMUNA NAGAR,HARYANA,AMBALA,AMBALA  HQ,HARYANA
Jaidhari B.O,Branch Post Office,135101,,Ambala,YAMUNA NAGAR,HARYANA,AMBALA,AMBALA  HQ,HARYANA
Jathlana B.O,Branch Post Office,135133,,Ambala,YAMUNA NAGAR,HARYANA,AMBALA,AMBALA  HQ,HARYANA
Jroda B.O,Branch Post Office,135003,,Ambala,YAMUNA NAGAR,HARYANA,AMBALA,AMBALA  HQ,HARYANA
Jubbal B.O,Branch Post Office,135133,,Ambala,YAMUNA NAGAR,HARYANA,AMBALA,AMBALA  HQ,HARYANA
Kalanaur B.O,Branch Post Office,135001,,Ambala,YAMUNA NAGAR,HARYANA,AMBALA,AMBALA  HQ,HARYANA
Kalesar B.O,Branch Post Office,135106,,Ambala,YAMUNA NAGAR,HARYANA,AMBALA,AMBALA  HQ,HARYANA
Kandhari Kalan B.O,Branch Post Office,133103,,Ambala,YAMUNA NAGAR,HARYANA,AMBALA,AMBALA  HQ,HARYANA
Khadri B.O,Branch Post Office,135101,,Ambala,YAMUNA NAGAR,HARYANA,AMBALA,AMBALA  HQ,HARYANA
Khera B.O,Branch Post Office,135003,,Ambala,YAMUNA NAGAR,HARYANA,AMBALA,AMBALA  HQ,HARYANA
Khera Khurd B.O,Branch Post Office,135001,,Ambala,YAMUNA NAGAR,HARYANA,AMBALA,AMBALA  HQ,HARYANA
Khurdban B.O,Branch Post Office,135133,,Ambala,YAMUNA NAGAR,HARYANA,AMBALA,AMBALA  HQ,HARYANA
Kopal Mochan B.O,Branch Post Office,135102,,Ambala,YAMUNA NAGAR,HARYANA,AMBALA,AMBALA  HQ,HARYANA
Kot Kalsia B.O,Branch Post Office,135103,,Ambala,YAMUNA NAGAR,HARYANA,AMBALA,AMBALA  HQ,HARYANA
Laharpur B.O,Branch Post Office,133204,,Ambala,YAMUNA NAGAR,HARYANA,AMBALA,AMBALA  HQ,HARYANA
Lalheri Kalan B.O,Branch Post Office,135103,,Ambala,YAMUNA NAGAR,HARYANA,AMBALA,AMBALA  HQ,HARYANA
Ledi B.O,Branch Post Office,135103,,Ambala,YAMUNA NAGAR,HARYANA,AMBALA,AMBALA  HQ,HARYANA
Machrauli B.O,Branch Post Office,135102,,Ambala,YAMUNA NAGAR,HARYANA,AMBALA,AMBALA  HQ,HARYANA
Malikpur Khadar B.O,Branch Post Office,135106,,Ambala,YAMUNA NAGAR,HARYANA,AMBALA,AMBALA  HQ,HARYANA
Mandhar B.O,Branch Post Office,135003,,Ambala,YAMUNA NAGAR,HARYANA,AMBALA,AMBALA  HQ,HARYANA
Mandhar B.O,Branch Post Office,135133,,Ambala,YAMUNA NAGAR,HARYANA,AMBALA,AMBALA  HQ,HARYANA
Manglore B.O,Branch Post Office,135102,,Ambala,YAMUNA NAGAR,HARYANA,AMBALA,AMBALA  HQ,HARYANA
Marwa Kalan B.O,Branch Post Office,135102,,Ambala,YAMUNA NAGAR,HARYANA,AMBALA,AMBALA  HQ,HARYANA
Marwa Khurd B.O,Branch Post Office,135102,,Ambala,YAMUNA NAGAR,HARYANA,AMBALA,AMBALA  HQ,HARYANA
Mehar Majra B.O,Branch Post Office,135101,,Ambala,YAMUNA NAGAR,HARYANA,AMBALA,AMBALA  HQ,HARYANA
Mehlanwali B.O,Branch Post Office,135003,,Ambala,YAMUNA NAGAR,HARYANA,AMBALA,AMBALA  HQ,HARYANA
Mehmoodpur B.O,Branch Post Office,133204,,Ambala,YAMUNA NAGAR,HARYANA,AMBALA,AMBALA  HQ,HARYANA
Milakpur Banger B.O,Branch Post Office,135102,,Ambala,YAMUNA NAGAR,HARYANA,AMBALA,AMBALA  HQ,HARYANA
Mughalwali B.O,Branch Post Office,135102,,Ambala,YAMUNA NAGAR,HARYANA,AMBALA,AMBALA  HQ,HARYANA
Mussimbal B.O,Branch Post Office,135003,,Ambala,YAMUNA NAGAR,HARYANA,AMBALA,AMBALA  HQ,HARYANA
Muzafatkalan B.O,Branch Post Office,135021,,Ambala,YAMUNA NAGAR,HARYANA,AMBALA,AMBALA  HQ,HARYANA
Nachron B.O,Branch Post Office,135133,,Ambala,YAMUNA NAGAR,HARYANA,AMBALA,AMBALA  HQ,HARYANA
Nagal Khajuri B.O,Branch Post Office,135001,,Ambala,YAMUNA NAGAR,HARYANA,AMBALA,AMBALA  HQ,HARYANA
Nahar Pur B.O,Branch Post Office,135001,,Ambala,YAMUNA NAGAR,HARYANA,AMBALA,AMBALA  HQ,HARYANA
Noshera B.O,Branch Post Office,133204,,Ambala,YAMUNA NAGAR,HARYANA,AMBALA,AMBALA  HQ,HARYANA
Pabni Kalan B.O,Branch Post Office,135003,,Ambala,YAMUNA NAGAR,HARYANA,AMBALA,AMBALA  HQ,HARYANA
Pansra B.O,Branch Post Office,135001,,Ambala,YAMUNA NAGAR,HARYANA,AMBALA,AMBALA  HQ,HARYANA
Pipli Majra B.O,Branch Post Office,135106,,Ambala,YAMUNA NAGAR,HARYANA,AMBALA,AMBALA  HQ,HARYANA
Pipliwala B.O,Branch Post Office,133204,,Ambala,YAMUNA NAGAR,HARYANA,AMBALA,AMBALA  HQ,HARYANA
Rampur Khadar B.O,Branch Post Office,135101,,Ambala,YAMUNA NAGAR,HARYANA,AMBALA,AMBALA  HQ,HARYANA
Rasulpur B.O,Branch Post Office,133204,,Ambala,YAMUNA NAGAR,HARYANA,AMBALA,AMBALA  HQ,HARYANA
Sabapur B.O,Branch Post Office,135101,,Ambala,YAMUNA NAGAR,HARYANA,AMBALA,AMBALA  HQ,HARYANA
Sadiqpur B.O,Branch Post Office,133204,,Ambala,YAMUNA NAGAR,HARYANA,AMBALA,AMBALA  HQ,HARYANA
Safilpur B.O,Branch Post Office,133204,,Ambala,YAMUNA NAGAR,HARYANA,AMBALA,AMBALA  HQ,HARYANA
Sahela B.O,Branch Post Office,133206,,Ambala,YAMUNA NAGAR,HARYANA,AMBALA,AMBALA  HQ,HARYANA
Salehpur B.O,Branch Post Office,133204,,Ambala,YAMUNA NAGAR,HARYANA,AMBALA,AMBALA  HQ,HARYANA
Salimpur Banger B.O,Branch Post Office,135103,,Ambala,YAMUNA NAGAR,HARYANA,AMBALA,AMBALA  HQ,HARYANA
Sankhera B.O,Branch Post Office,135102,,Ambala,YAMUNA NAGAR,HARYANA,AMBALA,AMBALA  HQ,HARYANA
Sardaheri B.O,Branch Post Office,133206,,Ambala,YAMUNA NAGAR,HARYANA,AMBALA,AMBALA  HQ,HARYANA
Shadi Pur B.O,Branch Post Office,135001,,Ambala,YAMUNA NAGAR,HARYANA,AMBALA,AMBALA  HQ,HARYANA
Shahpur Nurd B.O,Branch Post Office,133206,,Ambala,YAMUNA NAGAR,HARYANA,AMBALA,AMBALA  HQ,HARYANA
Sherpur Sulkhani B.O,Branch Post Office,133206,,Ambala,YAMUNA NAGAR,HARYANA,AMBALA,AMBALA  HQ,HARYANA
Silikalan B.O,Branch Post Office,135133,,Ambala,YAMUNA NAGAR,HARYANA,AMBALA,AMBALA  HQ,HARYANA
Taharpurkalan B.O,Branch Post Office,135103,,Ambala,YAMUNA NAGAR,HARYANA,AMBALA,AMBALA  HQ,HARYANA
Tajewala B.O,Branch Post Office,135106,,Ambala,YAMUNA NAGAR,HARYANA,AMBALA,AMBALA  HQ,HARYANA
Talakaur B.O,Branch Post Office,133103,,Ambala,YAMUNA NAGAR,HARYANA,AMBALA,AMBALA  HQ,HARYANA
Topra Kalan B.O,Branch Post Office,135133,,Ambala,YAMUNA NAGAR,HARYANA,AMBALA,AMBALA  HQ,HARYANA
Udhamgarh B.O,Branch Post Office,135003,,Ambala,YAMUNA NAGAR,HARYANA,AMBALA,AMBALA  HQ,HARYANA
Uncha Chandna B.O,Branch Post Office,133103,,Ambala,YAMUNA NAGAR,HARYANA,AMBALA,AMBALA  HQ,HARYANA
Zaffarpur B.O,Branch Post Office,133206,,Ambala,YAMUNA NAGAR,HARYANA,AMBALA,AMBALA  HQ,HARYANA
Bhatia Nagar S.O,Sub Post Office,135001,01732-228338,Yamuna naga,YAMUNA NAGAR,HARYANA,AMBALA,AMBALA  HQ,HARYANA
Bilaspur S.O,Sub Post Office,135102,01735-273122,Yamuna naga,YAMUNA NAGAR,HARYANA,AMBALA,AMBALA  HQ,HARYANA
Mud Hut Colony S.O,Sub Post Office,135001,01732-250093,Yamuna naga,YAMUNA NAGAR,HARYANA,AMBALA,AMBALA  HQ,HARYANA
Ram Pura Olony S.O,Sub Post Office,135001,1732-221270,Yamuna naga,YAMUNA NAGAR,HARYANA,AMBALA,AMBALA  HQ,HARYANA
Work Shop Road S.O,Sub Post Office,135001,1732-251639,Yamuna naga,YAMUNA NAGAR,HARYANA,AMBALA,AMBALA  HQ,HARYANA
Bhudkalan S.O,Sub Post Office,135106,01735-278941,Yamuna nagar,YAMUNA NAGAR,HARYANA,AMBALA,AMBALA  HQ,HARYANA
Buriya S.O,Sub Post Office,135101,01732-240070,Yamuna nagar,YAMUNA NAGAR,HARYANA,AMBALA,AMBALA  HQ,HARYANA
Chhachrauli S.O,Sub Post Office,135103,01735-277222,Yamuna nagar,YAMUNA NAGAR,HARYANA,AMBALA,AMBALA  HQ,HARYANA
Jagadhri Court S.O,Sub Post Office,135003,01732-236473,Yamuna nagar,YAMUNA NAGAR,HARYANA,AMBALA,AMBALA  HQ,HARYANA
Jagadhri S.O,Sub Post Office,135003,01732-221681,Yamuna nagar,YAMUNA NAGAR,HARYANA,AMBALA,AMBALA  HQ,HARYANA
Jagadhri Town S.O,Sub Post Office,135003,01732-244117,Yamuna nagar,YAMUNA NAGAR,HARYANA,AMBALA,AMBALA  HQ,HARYANA
Jagdhari Work Shop S.O,Sub Post Office,135003,01732-252563,Yamuna nagar,YAMUNA NAGAR,HARYANA,AMBALA,AMBALA  HQ,HARYANA
Kalawar S.O,Sub Post Office,133105,01733-12345666,Yamuna nagar,YAMUNA NAGAR,HARYANA,AMBALA,AMBALA  HQ,HARYANA
Kharwan S.O,Sub Post Office,135105,01733-1234569,Yamuna nagar,YAMUNA NAGAR,HARYANA,AMBALA,AMBALA  HQ,HARYANA
Khirzrabad  East S.O,Sub Post Office,135021,01732-278030,Yamuna nagar,YAMUNA NAGAR,HARYANA,AMBALA,AMBALA  HQ,HARYANA
Model Town S.O,Sub Post Office,135001,01732-228254,Yamuna nagar,YAMUNA NAGAR,HARYANA,AMBALA,AMBALA  HQ,HARYANA
Mustafabad S.O,Sub Post Office,133103,01732-286222,Yamuna nagar,YAMUNA NAGAR,HARYANA,AMBALA,AMBALA  HQ,HARYANA
Radaur S.O,Sub Post Office,135133,01732-284222,Yamuna nagar,YAMUNA NAGAR,HARYANA,AMBALA,AMBALA  HQ,HARYANA
Rly Road S.O,Sub Post Office,135001,1732-228251,Yamuna nagar,YAMUNA NAGAR,HARYANA,AMBALA,AMBALA  HQ,HARYANA
Sadhaura S.O,Sub Post Office,133204,1735-271221,Yamuna nagar,YAMUNA NAGAR,HARYANA,AMBALA,AMBALA  HQ,HARYANA
Sarawan S.O,Sub Post Office,133206,1732-251738,Yamuna nagar,YAMUNA NAGAR,HARYANA,AMBALA,AMBALA  HQ,HARYANA
Sugar Mill S.O,Sub Post Office,135001,1732-250094,Yamuna nagar,YAMUNA NAGAR,HARYANA,AMBALA,AMBALA  HQ,HARYANA
Yamunanagar H.O,Head Post Office,135001,1732-238186,Yamunanagar,YAMUNA NAGAR,HARYANA,AMBALA,AMBALA  HQ,HARYANA
