OFFICE NAME,OFFICE STATUS,PINCODE,TELEPHONE NO.,TALUK,DISTRICT,STATE/U.T.,POSTAL DIVISION,POSTAL REGION,POSTAL CIRCLE
                                                                                                            ,,                                          (THE INFORMATION IS SORTED DISTRICT AND TALUK WISE),,,,,,,
,,,,,,,,,
Ahalangodol B.O,Branch Post Office,192202,,.,ANANTHNAG,JAMMU & KASHMIR,SRINAGAR,SRINAGAR HQ,JAMMUKASHMIR
Akhal B.O,Branch Post Office,192231,,.,ANANTHNAG,JAMMU & KASHMIR,SRINAGAR,SRINAGAR HQ,JAMMUKASHMIR
Akingam B.O,Branch Post Office,192201,,.,ANANTHNAG,JAMMU & KASHMIR,SRINAGAR,SRINAGAR HQ,JAMMUKASHMIR
Anantnag City S.O,Sub Post Office,192122,,.,ANANTHNAG,JAMMU & KASHMIR,SRINAGAR,SRINAGAR HQ,JAMMUKASHMIR
Arrah B.O,Branch Post Office,192231,,.,ANANTHNAG,JAMMU & KASHMIR,SRINAGAR,SRINAGAR HQ,JAMMUKASHMIR
Arwani B.O,Branch Post Office,192124,,.,ANANTHNAG,JAMMU & KASHMIR,SRINAGAR,SRINAGAR HQ,JAMMUKASHMIR
Ashmuji B.O,Branch Post Office,192231,,.,ANANTHNAG,JAMMU & KASHMIR,SRINAGAR,SRINAGAR HQ,JAMMUKASHMIR
Beerwara B.O,Branch Post Office,192401,,.,ANANTHNAG,JAMMU & KASHMIR,SRINAGAR,SRINAGAR HQ,JAMMUKASHMIR
Bijbehara S.O,Sub Post Office,192124,,.,ANANTHNAG,JAMMU & KASHMIR,SRINAGAR,SRINAGAR HQ,JAMMUKASHMIR
Brah B.O,Branch Post Office,192201,,.,ANANTHNAG,JAMMU & KASHMIR,SRINAGAR,SRINAGAR HQ,JAMMUKASHMIR
Brinal Lamar B.O,Branch Post Office,192102,,.,ANANTHNAG,JAMMU & KASHMIR,SRINAGAR,SRINAGAR HQ,JAMMUKASHMIR
Buchoo B.O,Branch Post Office,192202,,.,ANANTHNAG,JAMMU & KASHMIR,SRINAGAR,SRINAGAR HQ,JAMMUKASHMIR
Buchroo B.O,Branch Post Office,192231,,.,ANANTHNAG,JAMMU & KASHMIR,SRINAGAR,SRINAGAR HQ,JAMMUKASHMIR
Bulbul Nowgam B.O,Branch Post Office,192201,,.,ANANTHNAG,JAMMU & KASHMIR,SRINAGAR,SRINAGAR HQ,JAMMUKASHMIR
Bumthan B.O,Branch Post Office,192102,,.,ANANTHNAG,JAMMU & KASHMIR,SRINAGAR,SRINAGAR HQ,JAMMUKASHMIR
Chadder B.O,Branch Post Office,192231,,.,ANANTHNAG,JAMMU & KASHMIR,SRINAGAR,SRINAGAR HQ,JAMMUKASHMIR
Chakilpora B.O,Branch Post Office,192201,,.,ANANTHNAG,JAMMU & KASHMIR,SRINAGAR,SRINAGAR HQ,JAMMUKASHMIR
Chambgund B.O,Branch Post Office,192231,,.,ANANTHNAG,JAMMU & KASHMIR,SRINAGAR,SRINAGAR HQ,JAMMUKASHMIR
Chanderwadi (Sessional) S.O,Sub Post Office,192230,,.,ANANTHNAG,JAMMU & KASHMIR,SRINAGAR,SRINAGAR HQ,JAMMUKASHMIR
Chattargui B.O,Branch Post Office,192201,,.,ANANTHNAG,JAMMU & KASHMIR,SRINAGAR,SRINAGAR HQ,JAMMUKASHMIR
Chitragam B.O,Branch Post Office,192124,,.,ANANTHNAG,JAMMU & KASHMIR,SRINAGAR,SRINAGAR HQ,JAMMUKASHMIR
Chowgam B.O,Branch Post Office,192102,,.,ANANTHNAG,JAMMU & KASHMIR,SRINAGAR,SRINAGAR HQ,JAMMUKASHMIR
Dalseer B.O,Branch Post Office,192401,,.,ANANTHNAG,JAMMU & KASHMIR,SRINAGAR,SRINAGAR HQ,JAMMUKASHMIR
Danipora B.O,Branch Post Office,192202,,.,ANANTHNAG,JAMMU & KASHMIR,SRINAGAR,SRINAGAR HQ,JAMMUKASHMIR
Dethunagnarian B.O,Branch Post Office,192201,,.,ANANTHNAG,JAMMU & KASHMIR,SRINAGAR,SRINAGAR HQ,JAMMUKASHMIR
Devsar B.O,Branch Post Office,192231,,.,ANANTHNAG,JAMMU & KASHMIR,SRINAGAR,SRINAGAR HQ,JAMMUKASHMIR
Dhane Bougund B.O,Branch Post Office,192231,,.,ANANTHNAG,JAMMU & KASHMIR,SRINAGAR,SRINAGAR HQ,JAMMUKASHMIR
Dhawtoo B.O,Branch Post Office,192401,,.,ANANTHNAG,JAMMU & KASHMIR,SRINAGAR,SRINAGAR HQ,JAMMUKASHMIR
Digripora B.O,Branch Post Office,192124,,.,ANANTHNAG,JAMMU & KASHMIR,SRINAGAR,SRINAGAR HQ,JAMMUKASHMIR
Fatehpora B.O,Branch Post Office,192211,,.,ANANTHNAG,JAMMU & KASHMIR,SRINAGAR,SRINAGAR HQ,JAMMUKASHMIR
Gadipora B.O,Branch Post Office,192231,,.,ANANTHNAG,JAMMU & KASHMIR,SRINAGAR,SRINAGAR HQ,JAMMUKASHMIR
Gosani Gund B.O,Branch Post Office,192211,,.,ANANTHNAG,JAMMU & KASHMIR,SRINAGAR,SRINAGAR HQ,JAMMUKASHMIR
Guddar B.O,Branch Post Office,192231,,.,ANANTHNAG,JAMMU & KASHMIR,SRINAGAR,SRINAGAR HQ,JAMMUKASHMIR
H.C.Gam B.O,Branch Post Office,192231,,.,ANANTHNAG,JAMMU & KASHMIR,SRINAGAR,SRINAGAR HQ,JAMMUKASHMIR
Hakura Badasgam B.O,Branch Post Office,192211,,.,ANANTHNAG,JAMMU & KASHMIR,SRINAGAR,SRINAGAR HQ,JAMMUKASHMIR
Hardtour B.O,Branch Post Office,192201,,.,ANANTHNAG,JAMMU & KASHMIR,SRINAGAR,SRINAGAR HQ,JAMMUKASHMIR
Hiller Arahama B.O,Branch Post Office,192201,,.,ANANTHNAG,JAMMU & KASHMIR,SRINAGAR,SRINAGAR HQ,JAMMUKASHMIR
Hiller Shahabad B.O,Branch Post Office,192211,,.,ANANTHNAG,JAMMU & KASHMIR,SRINAGAR,SRINAGAR HQ,JAMMUKASHMIR
Hugam B.O,Branch Post Office,192401,,.,ANANTHNAG,JAMMU & KASHMIR,SRINAGAR,SRINAGAR HQ,JAMMUKASHMIR
Janglath Mandi S.O,Sub Post Office,192101,,.,ANANTHNAG,JAMMU & KASHMIR,SRINAGAR,SRINAGAR HQ,JAMMUKASHMIR
Kanilwan B.O,Branch Post Office,192124,,.,ANANTHNAG,JAMMU & KASHMIR,SRINAGAR,SRINAGAR HQ,JAMMUKASHMIR
Kanipora B.O,Branch Post Office,192231,,.,ANANTHNAG,JAMMU & KASHMIR,SRINAGAR,SRINAGAR HQ,JAMMUKASHMIR
Kapran B.O,Branch Post Office,192231,,.,ANANTHNAG,JAMMU & KASHMIR,SRINAGAR,SRINAGAR HQ,JAMMUKASHMIR
Kathsoo B.O,Branch Post Office,192401,,.,ANANTHNAG,JAMMU & KASHMIR,SRINAGAR,SRINAGAR HQ,JAMMUKASHMIR
Kharam B.O,Branch Post Office,192401,,.,ANANTHNAG,JAMMU & KASHMIR,SRINAGAR,SRINAGAR HQ,JAMMUKASHMIR
Kharapora B.O,Branch Post Office,192202,,.,ANANTHNAG,JAMMU & KASHMIR,SRINAGAR,SRINAGAR HQ,JAMMUKASHMIR
Khuri Bhatapora B.O,Branch Post Office,193303,,.,ANANTHNAG,JAMMU & KASHMIR,SRINAGAR,SRINAGAR HQ,JAMMUKASHMIR
Kilam Bazgam B.O,Branch Post Office,192231,,.,ANANTHNAG,JAMMU & KASHMIR,SRINAGAR,SRINAGAR HQ,JAMMUKASHMIR
Krandigam B.O,Branch Post Office,192124,,.,ANANTHNAG,JAMMU & KASHMIR,SRINAGAR,SRINAGAR HQ,JAMMUKASHMIR
Kriri Nowpora B.O,Branch Post Office,192211,,.,ANANTHNAG,JAMMU & KASHMIR,SRINAGAR,SRINAGAR HQ,JAMMUKASHMIR
Kullar B.O,Branch Post Office,192401,,.,ANANTHNAG,JAMMU & KASHMIR,SRINAGAR,SRINAGAR HQ,JAMMUKASHMIR
Laripora B.O,Branch Post Office,192126,,.,ANANTHNAG,JAMMU & KASHMIR,SRINAGAR,SRINAGAR HQ,JAMMUKASHMIR
Larkipora B.O,Branch Post Office,192211,,.,ANANTHNAG,JAMMU & KASHMIR,SRINAGAR,SRINAGAR HQ,JAMMUKASHMIR
Malwan B.O,Branch Post Office,192231,,.,ANANTHNAG,JAMMU & KASHMIR,SRINAGAR,SRINAGAR HQ,JAMMUKASHMIR
Marhama B.O,Branch Post Office,192124,,.,ANANTHNAG,JAMMU & KASHMIR,SRINAGAR,SRINAGAR HQ,JAMMUKASHMIR
Mirhama B.O,Branch Post Office,192231,,.,ANANTHNAG,JAMMU & KASHMIR,SRINAGAR,SRINAGAR HQ,JAMMUKASHMIR
Mnadhole B.O,Branch Post Office,192102,,.,ANANTHNAG,JAMMU & KASHMIR,SRINAGAR,SRINAGAR HQ,JAMMUKASHMIR
Mohind B.O,Branch Post Office,192401,,.,ANANTHNAG,JAMMU & KASHMIR,SRINAGAR,SRINAGAR HQ,JAMMUKASHMIR
Monghal B.O,Branch Post Office,192102,,.,ANANTHNAG,JAMMU & KASHMIR,SRINAGAR,SRINAGAR HQ,JAMMUKASHMIR
Muti Handoo B.O,Branch Post Office,192202,,.,ANANTHNAG,JAMMU & KASHMIR,SRINAGAR,SRINAGAR HQ,JAMMUKASHMIR
Naina B.O,Branch Post Office,192124,,.,ANANTHNAG,JAMMU & KASHMIR,SRINAGAR,SRINAGAR HQ,JAMMUKASHMIR
Nalasundhari B.O,Branch Post Office,192202,,.,ANANTHNAG,JAMMU & KASHMIR,SRINAGAR,SRINAGAR HQ,JAMMUKASHMIR
Nandigam B.O,Branch Post Office,193303,,.,ANANTHNAG,JAMMU & KASHMIR,SRINAGAR,SRINAGAR HQ,JAMMUKASHMIR
Nellow B.O,Branch Post Office,192231,,.,ANANTHNAG,JAMMU & KASHMIR,SRINAGAR,SRINAGAR HQ,JAMMUKASHMIR
Nowbug B.O,Branch Post Office,192202,,.,ANANTHNAG,JAMMU & KASHMIR,SRINAGAR,SRINAGAR HQ,JAMMUKASHMIR
Nowgam B.O,Branch Post Office,192201,,.,ANANTHNAG,JAMMU & KASHMIR,SRINAGAR,SRINAGAR HQ,JAMMUKASHMIR
Nowpora B.O,Branch Post Office,192231,,.,ANANTHNAG,JAMMU & KASHMIR,SRINAGAR,SRINAGAR HQ,JAMMUKASHMIR
Omanagri B.O,Branch Post Office,192201,,.,ANANTHNAG,JAMMU & KASHMIR,SRINAGAR,SRINAGAR HQ,JAMMUKASHMIR
Opzen B.O,Branch Post Office,192124,,.,ANANTHNAG,JAMMU & KASHMIR,SRINAGAR,SRINAGAR HQ,JAMMUKASHMIR
Pahaloo B.O,Branch Post Office,192231,,.,ANANTHNAG,JAMMU & KASHMIR,SRINAGAR,SRINAGAR HQ,JAMMUKASHMIR
Panchtarni(Sessional) B.O,Branch Post Office,192126,,.,ANANTHNAG,JAMMU & KASHMIR,SRINAGAR,SRINAGAR HQ,JAMMUKASHMIR
Panzgam B.O,Branch Post Office,192124,,.,ANANTHNAG,JAMMU & KASHMIR,SRINAGAR,SRINAGAR HQ,JAMMUKASHMIR
Pariwan B.O,Branch Post Office,192231,,.,ANANTHNAG,JAMMU & KASHMIR,SRINAGAR,SRINAGAR HQ,JAMMUKASHMIR
Quimoh B.O,Branch Post Office,192102,,.,ANANTHNAG,JAMMU & KASHMIR,SRINAGAR,SRINAGAR HQ,JAMMUKASHMIR
Ratnipora B.O,Branch Post Office,192231,,.,ANANTHNAG,JAMMU & KASHMIR,SRINAGAR,SRINAGAR HQ,JAMMUKASHMIR
Sallar B.O,Branch Post Office,192401,,.,ANANTHNAG,JAMMU & KASHMIR,SRINAGAR,SRINAGAR HQ,JAMMUKASHMIR
Sarnal S.O,Sub Post Office,192101,,.,ANANTHNAG,JAMMU & KASHMIR,SRINAGAR,SRINAGAR HQ,JAMMUKASHMIR
Shalgam B.O,Branch Post Office,192124,,.,ANANTHNAG,JAMMU & KASHMIR,SRINAGAR,SRINAGAR HQ,JAMMUKASHMIR
Shamsipora B.O,Branch Post Office,192124,,.,ANANTHNAG,JAMMU & KASHMIR,SRINAGAR,SRINAGAR HQ,JAMMUKASHMIR
Shangas B.O,Branch Post Office,192201,,.,ANANTHNAG,JAMMU & KASHMIR,SRINAGAR,SRINAGAR HQ,JAMMUKASHMIR
Sheshanag (Sessional) S.O,Sub Post Office,192230,,.,ANANTHNAG,JAMMU & KASHMIR,SRINAGAR,SRINAGAR HQ,JAMMUKASHMIR
Shurat B.O,Branch Post Office,192231,,.,ANANTHNAG,JAMMU & KASHMIR,SRINAGAR,SRINAGAR HQ,JAMMUKASHMIR
Sirhama B.O,Branch Post Office,192401,,.,ANANTHNAG,JAMMU & KASHMIR,SRINAGAR,SRINAGAR HQ,JAMMUKASHMIR
Soaf Shali B.O,Branch Post Office,192202,,.,ANANTHNAG,JAMMU & KASHMIR,SRINAGAR,SRINAGAR HQ,JAMMUKASHMIR
Sopat Tougpora B.O,Branch Post Office,192102,,.,ANANTHNAG,JAMMU & KASHMIR,SRINAGAR,SRINAGAR HQ,JAMMUKASHMIR
Srigufwaea S.O,Sub Post Office,192401,,.,ANANTHNAG,JAMMU & KASHMIR,SRINAGAR,SRINAGAR HQ,JAMMUKASHMIR
Telwani B.O,Branch Post Office,192201,,.,ANANTHNAG,JAMMU & KASHMIR,SRINAGAR,SRINAGAR HQ,JAMMUKASHMIR
Tulkhana B.O,Branch Post Office,192124,,.,ANANTHNAG,JAMMU & KASHMIR,SRINAGAR,SRINAGAR HQ,JAMMUKASHMIR
Urranhal B.O,Branch Post Office,192102,,.,ANANTHNAG,JAMMU & KASHMIR,SRINAGAR,SRINAGAR HQ,JAMMUKASHMIR
Utersoo B.O,Branch Post Office,192201,,.,ANANTHNAG,JAMMU & KASHMIR,SRINAGAR,SRINAGAR HQ,JAMMUKASHMIR
Vailobrang B.O,Branch Post Office,192202,,.,ANANTHNAG,JAMMU & KASHMIR,SRINAGAR,SRINAGAR HQ,JAMMUKASHMIR
Vandevalgam B.O,Branch Post Office,192202,,.,ANANTHNAG,JAMMU & KASHMIR,SRINAGAR,SRINAGAR HQ,JAMMUKASHMIR
Vanpoh B.O,Branch Post Office,192102,,.,ANANTHNAG,JAMMU & KASHMIR,SRINAGAR,SRINAGAR HQ,JAMMUKASHMIR
Veeri B.O,Branch Post Office,192124,,.,ANANTHNAG,JAMMU & KASHMIR,SRINAGAR,SRINAGAR HQ,JAMMUKASHMIR
Vessu B.O,Branch Post Office,192102,,.,ANANTHNAG,JAMMU & KASHMIR,SRINAGAR,SRINAGAR HQ,JAMMUKASHMIR
Vokey B.O,Branch Post Office,192231,,.,ANANTHNAG,JAMMU & KASHMIR,SRINAGAR,SRINAGAR HQ,JAMMUKASHMIR
Waghama B.O,Branch Post Office,192124,,.,ANANTHNAG,JAMMU & KASHMIR,SRINAGAR,SRINAGAR HQ,JAMMUKASHMIR
Wallarhama B.O,Branch Post Office,192401,,.,ANANTHNAG,JAMMU & KASHMIR,SRINAGAR,SRINAGAR HQ,JAMMUKASHMIR
Zanipora B.O,Branch Post Office,192124,,.,ANANTHNAG,JAMMU & KASHMIR,SRINAGAR,SRINAGAR HQ,JAMMUKASHMIR
Achabal S.O,Sub Post Office,192201,01932-241225,ACHABAL,ANANTHNAG,JAMMU & KASHMIR,SRINAGAR,SRINAGAR HQ,JAMMUKASHMIR
Achan S.O,Sub Post Office,192305,,achan,ANANTHNAG,JAMMU & KASHMIR,SRINAGAR,SRINAGAR HQ,JAMMUKASHMIR
Aharbal B.O,Branch Post Office,193303,,AHARBAL,ANANTHNAG,JAMMU & KASHMIR,SRINAGAR,SRINAGAR HQ,JAMMUKASHMIR
Ahmedabad B.O,Branch Post Office,193303,,AHMEDBAD,ANANTHNAG,JAMMU & KASHMIR,SRINAGAR,SRINAGAR HQ,JAMMUKASHMIR
Akura B.O,Branch Post Office,192125,,ANANTNAG,ANANTHNAG,JAMMU & KASHMIR,SRINAGAR,SRINAGAR HQ,JAMMUKASHMIR
Anantnag H.O,Head Post Office,192101,01932-226840,ANANTNAG HO,ANANTHNAG,JAMMU & KASHMIR,SRINAGAR,SRINAGAR HQ,JAMMUKASHMIR
Awenura B.O,Branch Post Office,192232,,AWENURA,ANANTHNAG,JAMMU & KASHMIR,SRINAGAR,SRINAGAR HQ,JAMMUKASHMIR
Barsoo B.O,Branch Post Office,192122,,BARSOO,ANANTHNAG,JAMMU & KASHMIR,SRINAGAR,SRINAGAR HQ,JAMMUKASHMIR
Behibagh B.O,Branch Post Office,192232,,BEHIBAGH,ANANTHNAG,JAMMU & KASHMIR,SRINAGAR,SRINAGAR HQ,JAMMUKASHMIR
Bonagand B.O,Branch Post Office,192212,,BONAGAND,ANANTHNAG,JAMMU & KASHMIR,SRINAGAR,SRINAGAR HQ,JAMMUKASHMIR
Bugam B.O,Branch Post Office,192232,,BUGAM,ANANTHNAG,JAMMU & KASHMIR,SRINAGAR,SRINAGAR HQ,JAMMUKASHMIR
Chimar B.O,Branch Post Office,193303,,CHIMAR,ANANTHNAG,JAMMU & KASHMIR,SRINAGAR,SRINAGAR HQ,JAMMUKASHMIR
D.H Pora S.O,Sub Post Office,193303,,D.H PORA,ANANTHNAG,JAMMU & KASHMIR,SRINAGAR,SRINAGAR HQ,JAMMUKASHMIR
D.K Marg B.O,Branch Post Office,193303,,D.K MARG,ANANTHNAG,JAMMU & KASHMIR,SRINAGAR,SRINAGAR HQ,JAMMUKASHMIR
Daksum B.O,Branch Post Office,192202,,DAKSUM,ANANTHNAG,JAMMU & KASHMIR,SRINAGAR,SRINAGAR HQ,JAMMUKASHMIR
Demidulla B.O,Branch Post Office,192232,,DEMIDULLA,ANANTHNAG,JAMMU & KASHMIR,SRINAGAR,SRINAGAR HQ,JAMMUKASHMIR
Dialgam S.O,Sub Post Office,192210,,DIALGAM,ANANTHNAG,JAMMU & KASHMIR,SRINAGAR,SRINAGAR HQ,JAMMUKASHMIR
Dooru S.O,Sub Post Office,192211,01932-230226,DOORU,ANANTHNAG,JAMMU & KASHMIR,SRINAGAR,SRINAGAR HQ,JAMMUKASHMIR
Frisal B.O,Branch Post Office,192232,,FRISAL,ANANTHNAG,JAMMU & KASHMIR,SRINAGAR,SRINAGAR HQ,JAMMUKASHMIR
Gopal Pora B.O,Branch Post Office,192125,,GOPAL PORA,ANANTHNAG,JAMMU & KASHMIR,SRINAGAR,SRINAGAR HQ,JAMMUKASHMIR
Gopalpora B.O,Branch Post Office,193303,,GOPALPORA,ANANTHNAG,JAMMU & KASHMIR,SRINAGAR,SRINAGAR HQ,JAMMUKASHMIR
Halsidar B.O,Branch Post Office,192212,,HALSIDAR,ANANTHNAG,JAMMU & KASHMIR,SRINAGAR,SRINAGAR HQ,JAMMUKASHMIR
Hutmarah B.O,Branch Post Office,192125,,HUTMARAH,ANANTHNAG,JAMMU & KASHMIR,SRINAGAR,SRINAGAR HQ,JAMMUKASHMIR
Kaprin B.O,Branch Post Office,192212,,KAPRIN,ANANTHNAG,JAMMU & KASHMIR,SRINAGAR,SRINAGAR HQ,JAMMUKASHMIR
Katrasoo B.O,Branch Post Office,192232,,KATRASOO,ANANTHNAG,JAMMU & KASHMIR,SRINAGAR,SRINAGAR HQ,JAMMUKASHMIR
Khanabal S.O,Sub Post Office,192102,,KHANABAL,ANANTHNAG,JAMMU & KASHMIR,SRINAGAR,SRINAGAR HQ,JAMMUKASHMIR
Khigogipora B.O,Branch Post Office,192232,,KHIGOGIPORA,ANANTHNAG,JAMMU & KASHMIR,SRINAGAR,SRINAGAR HQ,JAMMUKASHMIR
Khull B.O,Branch Post Office,193303,,KHULL,ANANTHNAG,JAMMU & KASHMIR,SRINAGAR,SRINAGAR HQ,JAMMUKASHMIR
Kokarnag S.O,Sub Post Office,192202,,KOKERNAG,ANANTHNAG,JAMMU & KASHMIR,SRINAGAR,SRINAGAR HQ,JAMMUKASHMIR
Kragsoo B.O,Branch Post Office,192125,,KRAGSOO,ANANTHNAG,JAMMU & KASHMIR,SRINAGAR,SRINAGAR HQ,JAMMUKASHMIR
Narapora B.O,Branch Post Office,192202,,KUKARNAG,ANANTHNAG,JAMMU & KASHMIR,SRINAGAR,SRINAGAR HQ,JAMMUKASHMIR
Sangam B.O,Branch Post Office,192202,,KUKARNAG,ANANTHNAG,JAMMU & KASHMIR,SRINAGAR,SRINAGAR HQ,JAMMUKASHMIR
Larnoo B.O,Branch Post Office,192202,,LARNOO,ANANTHNAG,JAMMU & KASHMIR,SRINAGAR,SRINAGAR HQ,JAMMUKASHMIR
Lower Mundah B.O,Branch Post Office,192212,,LOWER MUNDAH,ANANTHNAG,JAMMU & KASHMIR,SRINAGAR,SRINAGAR HQ,JAMMUKASHMIR
M/gufan B.O,Branch Post Office,192232,,M/GUFAN,ANANTHNAG,JAMMU & KASHMIR,SRINAGAR,SRINAGAR HQ,JAMMUKASHMIR
Manjmoh B.O,Branch Post Office,192221,,MANJMOH,ANANTHNAG,JAMMU & KASHMIR,SRINAGAR,SRINAGAR HQ,JAMMUKASHMIR
Manzgam B.O,Branch Post Office,193303,,MANZGAM,ANANTHNAG,JAMMU & KASHMIR,SRINAGAR,SRINAGAR HQ,JAMMUKASHMIR
Martand S.O,Sub Post Office,192125,01932-237225,MARTAND,ANANTHNAG,JAMMU & KASHMIR,SRINAGAR,SRINAGAR HQ,JAMMUKASHMIR
Nambal B.O,Branch Post Office,192125,,NAMBAL,ANANTHNAG,JAMMU & KASHMIR,SRINAGAR,SRINAGAR HQ,JAMMUKASHMIR
Nandi Marg B.O,Branch Post Office,193303,,NANDI MARG,ANANTHNAG,JAMMU & KASHMIR,SRINAGAR,SRINAGAR HQ,JAMMUKASHMIR
Nanil B.O,Branch Post Office,192125,,NANIL,ANANTHNAG,JAMMU & KASHMIR,SRINAGAR,SRINAGAR HQ,JAMMUKASHMIR
Nasnoor B.O,Branch Post Office,193303,,NASNOOR,ANANTHNAG,JAMMU & KASHMIR,SRINAGAR,SRINAGAR HQ,JAMMUKASHMIR
Nehama B.O,Branch Post Office,193303,,NEHAMA,ANANTHNAG,JAMMU & KASHMIR,SRINAGAR,SRINAGAR HQ,JAMMUKASHMIR
Nissu B.O,Branch Post Office,192221,,NISSU,ANANTHNAG,JAMMU & KASHMIR,SRINAGAR,SRINAGAR HQ,JAMMUKASHMIR
Noonmai B.O,Branch Post Office,192232,,NOONMAI,ANANTHNAG,JAMMU & KASHMIR,SRINAGAR,SRINAGAR HQ,JAMMUKASHMIR
Nowgam B.O,Branch Post Office,192212,,NOWGAM,ANANTHNAG,JAMMU & KASHMIR,SRINAGAR,SRINAGAR HQ,JAMMUKASHMIR
Phalgam S.O,Sub Post Office,192126,01936-243223,PAHALGAM,ANANTHNAG,JAMMU & KASHMIR,SRINAGAR,SRINAGAR HQ,JAMMUKASHMIR
Ludhoo B.O,Branch Post Office,191103,,PAMPORE,ANANTHNAG,JAMMU & KASHMIR,SRINAGAR,SRINAGAR HQ,JAMMUKASHMIR
Mandakpal B.O,Branch Post Office,191103,,PAMPORE,ANANTHNAG,JAMMU & KASHMIR,SRINAGAR,SRINAGAR HQ,JAMMUKASHMIR
Panzeth B.O,Branch Post Office,192221,,PANZETH,ANANTHNAG,JAMMU & KASHMIR,SRINAGAR,SRINAGAR HQ,JAMMUKASHMIR
Chakura B.O,Branch Post Office,192305,,PULWAMA,ANANTHNAG,JAMMU & KASHMIR,SRINAGAR,SRINAGAR HQ,JAMMUKASHMIR
Chandhara B.O,Branch Post Office,192122,,PULWAMA,ANANTHNAG,JAMMU & KASHMIR,SRINAGAR,SRINAGAR HQ,JAMMUKASHMIR
Cheersoo B.O,Branch Post Office,192122,,PULWAMA,ANANTHNAG,JAMMU & KASHMIR,SRINAGAR,SRINAGAR HQ,JAMMUKASHMIR
Gairoo B.O,Branch Post Office,192122,,PULWAMA,ANANTHNAG,JAMMU & KASHMIR,SRINAGAR,SRINAGAR HQ,JAMMUKASHMIR
Gouripora B.O,Branch Post Office,192122,,PULWAMA,ANANTHNAG,JAMMU & KASHMIR,SRINAGAR,SRINAGAR HQ,JAMMUKASHMIR
Honipora B.O,Branch Post Office,192121,,PULWAMA,ANANTHNAG,JAMMU & KASHMIR,SRINAGAR,SRINAGAR HQ,JAMMUKASHMIR
Khanda B.O,Branch Post Office,192121,,PULWAMA,ANANTHNAG,JAMMU & KASHMIR,SRINAGAR,SRINAGAR HQ,JAMMUKASHMIR
Konibal B.O,Branch Post Office,192121,,PULWAMA,ANANTHNAG,JAMMU & KASHMIR,SRINAGAR,SRINAGAR HQ,JAMMUKASHMIR
Lathpora B.O,Branch Post Office,192122,,PULWAMA,ANANTHNAG,JAMMU & KASHMIR,SRINAGAR,SRINAGAR HQ,JAMMUKASHMIR
Litter B.O,Branch Post Office,192305,,PULWAMA,ANANTHNAG,JAMMU & KASHMIR,SRINAGAR,SRINAGAR HQ,JAMMUKASHMIR
Nehama B.O,Branch Post Office,192121,,PULWAMA,ANANTHNAG,JAMMU & KASHMIR,SRINAGAR,SRINAGAR HQ,JAMMUKASHMIR
Sambura B.O,Branch Post Office,192121,,PULWAMA,ANANTHNAG,JAMMU & KASHMIR,SRINAGAR,SRINAGAR HQ,JAMMUKASHMIR
Sugan B.O,Branch Post Office,192305,,PULWAMA,ANANTHNAG,JAMMU & KASHMIR,SRINAGAR,SRINAGAR HQ,JAMMUKASHMIR
Wachi B.O,Branch Post Office,192305,,PULWAMA,ANANTHNAG,JAMMU & KASHMIR,SRINAGAR,SRINAGAR HQ,JAMMUKASHMIR
Wasoora B.O,Branch Post Office,192305,,PULWAMA,ANANTHNAG,JAMMU & KASHMIR,SRINAGAR,SRINAGAR HQ,JAMMUKASHMIR
Zantrag B.O,Branch Post Office,191103,,PULWAMA,ANANTHNAG,JAMMU & KASHMIR,SRINAGAR,SRINAGAR HQ,JAMMUKASHMIR
Qanmar B.O,Branch Post Office,192212,,QANMAR,ANANTHNAG,JAMMU & KASHMIR,SRINAGAR,SRINAGAR HQ,JAMMUKASHMIR
Qazigund S.O,Sub Post Office,192221,01932-235235,QAZIGUND,ANANTHNAG,JAMMU & KASHMIR,SRINAGAR,SRINAGAR HQ,JAMMUKASHMIR
Ranbirpora B.O,Branch Post Office,192125,,RANBIRPORA,ANANTHNAG,JAMMU & KASHMIR,SRINAGAR,SRINAGAR HQ,JAMMUKASHMIR
Reban Gund B.O,Branch Post Office,192232,,REBAN GUND,ANANTHNAG,JAMMU & KASHMIR,SRINAGAR,SRINAGAR HQ,JAMMUKASHMIR
Sadinare B.O,Branch Post Office,192212,,SADINARE,ANANTHNAG,JAMMU & KASHMIR,SRINAGAR,SRINAGAR HQ,JAMMUKASHMIR
Hef Shermal B.O,Branch Post Office,192305,,SHOPIAN,ANANTHNAG,JAMMU & KASHMIR,SRINAGAR,SRINAGAR HQ,JAMMUKASHMIR
Turka Wangam B.O,Branch Post Office,192305,,SHOPIAN,ANANTHNAG,JAMMU & KASHMIR,SRINAGAR,SRINAGAR HQ,JAMMUKASHMIR
Tarigam B.O,Branch Post Office,192232,,TARIGAM,ANANTHNAG,JAMMU & KASHMIR,SRINAGAR,SRINAGAR HQ,JAMMUKASHMIR
Verinaag S.O,Sub Post Office,192212,01932-230225,VERINAAG,ANANTHNAG,JAMMU & KASHMIR,SRINAGAR,SRINAGAR HQ,JAMMUKASHMIR
Wangund B.O,Branch Post Office,192221,,WANGUND,ANANTHNAG,JAMMU & KASHMIR,SRINAGAR,SRINAGAR HQ,JAMMUKASHMIR
Yarkhoshipora B.O,Branch Post Office,192221,,Y.K PORA,ANANTHNAG,JAMMU & KASHMIR,SRINAGAR,SRINAGAR HQ,JAMMUKASHMIR
Yaripora S.O,Sub Post Office,192232,,YARIPORA,ANANTHNAG,JAMMU & KASHMIR,SRINAGAR,SRINAGAR HQ,JAMMUKASHMIR
Babareshi B.O,Branch Post Office,193402,,.,BARAMULLA,JAMMU & KASHMIR,SRINAGAR,SRINAGAR HQ,JAMMUKASHMIR
Chandilora B.O,Branch Post Office,193402,,.,BARAMULLA,JAMMU & KASHMIR,SRINAGAR,SRINAGAR HQ,JAMMUKASHMIR
Ferozpora B.O,Branch Post Office,193402,,.,BARAMULLA,JAMMU & KASHMIR,SRINAGAR,SRINAGAR HQ,JAMMUKASHMIR
Hajhal B.O,Branch Post Office,193402,,.,BARAMULLA,JAMMU & KASHMIR,SRINAGAR,SRINAGAR HQ,JAMMUKASHMIR
Hardichhloo B.O,Branch Post Office,193402,,.,BARAMULLA,JAMMU & KASHMIR,SRINAGAR,SRINAGAR HQ,JAMMUKASHMIR
Hariwatnoo B.O,Branch Post Office,193402,,.,BARAMULLA,JAMMU & KASHMIR,SRINAGAR,SRINAGAR HQ,JAMMUKASHMIR
Ajas B.O,Branch Post Office,193502,,BANDIPORA,BARAMULLA,JAMMU & KASHMIR,BARAMULLA,SRINAGAR HQ,JAMMUKASHMIR
Aloosa S.O,Sub Post Office,193508,,BANDIPORA,BARAMULLA,JAMMU & KASHMIR,BARAMULLA,SRINAGAR HQ,JAMMUKASHMIR
Arin B.O,Branch Post Office,193502,,BANDIPORA,BARAMULLA,JAMMU & KASHMIR,BARAMULLA,SRINAGAR HQ,JAMMUKASHMIR
Ashtingoo B.O,Branch Post Office,193502,,BANDIPORA,BARAMULLA,JAMMU & KASHMIR,BARAMULLA,SRINAGAR HQ,JAMMUKASHMIR
Ayatmulla B.O,Branch Post Office,193502,,BANDIPORA,BARAMULLA,JAMMU & KASHMIR,BARAMULLA,SRINAGAR HQ,JAMMUKASHMIR
Bandipora Chowk S.O,Sub Post Office,193502,,BANDIPORA,BARAMULLA,JAMMU & KASHMIR,BARAMULLA,SRINAGAR HQ,JAMMUKASHMIR
Bandipora S.O,Sub Post Office,193502,01957-225225,BANDIPORA,BARAMULLA,JAMMU & KASHMIR,BARAMULLA,SRINAGAR HQ,JAMMUKASHMIR
Bankote B.O,Branch Post Office,193502,,BANDIPORA,BARAMULLA,JAMMU & KASHMIR,BARAMULLA,SRINAGAR HQ,JAMMUKASHMIR
Chetti Bandi B.O,Branch Post Office,193502,,BANDIPORA,BARAMULLA,JAMMU & KASHMIR,BARAMULLA,SRINAGAR HQ,JAMMUKASHMIR
Chutimulla B.O,Branch Post Office,193502,,BANDIPORA,BARAMULLA,JAMMU & KASHMIR,BARAMULLA,SRINAGAR HQ,JAMMUKASHMIR
Gamroo B.O,Branch Post Office,193502,,BANDIPORA,BARAMULLA,JAMMU & KASHMIR,BARAMULLA,SRINAGAR HQ,JAMMUKASHMIR
Garoora B.O,Branch Post Office,193502,,BANDIPORA,BARAMULLA,JAMMU & KASHMIR,BARAMULLA,SRINAGAR HQ,JAMMUKASHMIR
Kaloosa B.O,Branch Post Office,193502,,BANDIPORA,BARAMULLA,JAMMU & KASHMIR,BARAMULLA,SRINAGAR HQ,JAMMUKASHMIR
Khenusa B.O,Branch Post Office,193502,,BANDIPORA,BARAMULLA,JAMMU & KASHMIR,BARAMULLA,SRINAGAR HQ,JAMMUKASHMIR
Lawaypora B.O,Branch Post Office,193502,,BANDIPORA,BARAMULLA,JAMMU & KASHMIR,BARAMULLA,SRINAGAR HQ,JAMMUKASHMIR
Malangam B.O,Branch Post Office,193502,,BANDIPORA,BARAMULLA,JAMMU & KASHMIR,BARAMULLA,SRINAGAR HQ,JAMMUKASHMIR
Mantrigam B.O,Branch Post Office,193502,,BANDIPORA,BARAMULLA,JAMMU & KASHMIR,BARAMULLA,SRINAGAR HQ,JAMMUKASHMIR
Nadihal B.O,Branch Post Office,193502,,BANDIPORA,BARAMULLA,JAMMU & KASHMIR,BARAMULLA,SRINAGAR HQ,JAMMUKASHMIR
Onagam B.O,Branch Post Office,193502,,BANDIPORA,BARAMULLA,JAMMU & KASHMIR,BARAMULLA,SRINAGAR HQ,JAMMUKASHMIR
Quilmuqam B.O,Branch Post Office,193502,,BANDIPORA,BARAMULLA,JAMMU & KASHMIR,BARAMULLA,SRINAGAR HQ,JAMMUKASHMIR
Sonerwani B.O,Branch Post Office,193502,,BANDIPORA,BARAMULLA,JAMMU & KASHMIR,BARAMULLA,SRINAGAR HQ,JAMMUKASHMIR
Sultanpora B.O,Branch Post Office,193101,,BANDIPORA,BARAMULLA,JAMMU & KASHMIR,BARAMULLA,SRINAGAR HQ,JAMMUKASHMIR
Watpora B.O,Branch Post Office,193502,,BANDIPORA,BARAMULLA,JAMMU & KASHMIR,BARAMULLA,SRINAGAR HQ,JAMMUKASHMIR
Baramulla H.O,Head Post Office,193101,01952-234283,BARAMULLA,BARAMULLA,JAMMU & KASHMIR,BARAMULLA,SRINAGAR HQ,JAMMUKASHMIR
Binner B.O,Branch Post Office,193301,,BARAMULLA,BARAMULLA,JAMMU & KASHMIR,BARAMULLA,SRINAGAR HQ,JAMMUKASHMIR
Chandooda B.O,Branch Post Office,193101,,BARAMULLA,BARAMULLA,JAMMU & KASHMIR,BARAMULLA,SRINAGAR HQ,JAMMUKASHMIR
Dangiwacha S.O,Sub Post Office,193303,,BARAMULLA,BARAMULLA,JAMMU & KASHMIR,BARAMULLA,SRINAGAR HQ,JAMMUKASHMIR
Delina B.O,Branch Post Office,193103,,BARAMULLA,BARAMULLA,JAMMU & KASHMIR,BARAMULLA,SRINAGAR HQ,JAMMUKASHMIR
Gantmulla B.O,Branch Post Office,193101,,BARAMULLA,BARAMULLA,JAMMU & KASHMIR,BARAMULLA,SRINAGAR HQ,JAMMUKASHMIR
Gohan B.O,Branch Post Office,193101,,BARAMULLA,BARAMULLA,JAMMU & KASHMIR,BARAMULLA,SRINAGAR HQ,JAMMUKASHMIR
Heavan B.O,Branch Post Office,193101,,BARAMULLA,BARAMULLA,JAMMU & KASHMIR,BARAMULLA,SRINAGAR HQ,JAMMUKASHMIR
Kachawa Muqam B.O,Branch Post Office,193101,,BARAMULLA,BARAMULLA,JAMMU & KASHMIR,BARAMULLA,SRINAGAR HQ,JAMMUKASHMIR
Kalantra B.O,Branch Post Office,193101,,BARAMULLA,BARAMULLA,JAMMU & KASHMIR,BARAMULLA,SRINAGAR HQ,JAMMUKASHMIR
Kanispora B.O,Branch Post Office,193103,,BARAMULLA,BARAMULLA,JAMMU & KASHMIR,BARAMULLA,SRINAGAR HQ,JAMMUKASHMIR
Khadnyar B.O,Branch Post Office,193101,,BARAMULLA,BARAMULLA,JAMMU & KASHMIR,BARAMULLA,SRINAGAR HQ,JAMMUKASHMIR
Khaitangan B.O,Branch Post Office,193103,,BARAMULLA,BARAMULLA,JAMMU & KASHMIR,BARAMULLA,SRINAGAR HQ,JAMMUKASHMIR
Khanpora B.O,Branch Post Office,193101,,BARAMULLA,BARAMULLA,JAMMU & KASHMIR,BARAMULLA,SRINAGAR HQ,JAMMUKASHMIR
Khawaja Bagh S.O,Sub Post Office,193103,,BARAMULLA,BARAMULLA,JAMMU & KASHMIR,BARAMULLA,SRINAGAR HQ,JAMMUKASHMIR
Laridora B.O,Branch Post Office,193101,,BARAMULLA,BARAMULLA,JAMMU & KASHMIR,BARAMULLA,SRINAGAR HQ,JAMMUKASHMIR
Malpora B.O,Branch Post Office,193101,,BARAMULLA,BARAMULLA,JAMMU & KASHMIR,BARAMULLA,SRINAGAR HQ,JAMMUKASHMIR
Nowpora B.O,Branch Post Office,193103,,BARAMULLA,BARAMULLA,JAMMU & KASHMIR,BARAMULLA,SRINAGAR HQ,JAMMUKASHMIR
Rajghat B.O,Branch Post Office,193101,,BARAMULLA,BARAMULLA,JAMMU & KASHMIR,BARAMULLA,SRINAGAR HQ,JAMMUKASHMIR
Shitloo B.O,Branch Post Office,193301,,BARAMULLA,BARAMULLA,JAMMU & KASHMIR,BARAMULLA,SRINAGAR HQ,JAMMUKASHMIR
Shree B.O,Branch Post Office,193101,,BARAMULLA,BARAMULLA,JAMMU & KASHMIR,BARAMULLA,SRINAGAR HQ,JAMMUKASHMIR
Singhpora B.O,Branch Post Office,193103,,BARAMULLA,BARAMULLA,JAMMU & KASHMIR,BARAMULLA,SRINAGAR HQ,JAMMUKASHMIR
Ushukura B.O,Branch Post Office,193101,,BARAMULLA,BARAMULLA,JAMMU & KASHMIR,BARAMULLA,SRINAGAR HQ,JAMMUKASHMIR
Wagoora B.O,Branch Post Office,193103,,BARAMULLA,BARAMULLA,JAMMU & KASHMIR,BARAMULLA,SRINAGAR HQ,JAMMUKASHMIR
Gulmarg S.O,Sub Post Office,193403,,GULMARG,BARAMULLA,JAMMU & KASHMIR,SRINAGAR,SRINAGAR HQ,JAMMUKASHMIR
Achoora B.O,Branch Post Office,193503,,GUREZ,BARAMULLA,JAMMU & KASHMIR,BARAMULLA,SRINAGAR HQ,JAMMUKASHMIR
Baduab B.O,Branch Post Office,193503,,GUREZ,BARAMULLA,JAMMU & KASHMIR,BARAMULLA,SRINAGAR HQ,JAMMUKASHMIR
Badugam B.O,Branch Post Office,193503,,GUREZ,BARAMULLA,JAMMU & KASHMIR,BARAMULLA,SRINAGAR HQ,JAMMUKASHMIR
Bagtore B.O,Branch Post Office,193503,,GUREZ,BARAMULLA,JAMMU & KASHMIR,BARAMULLA,SRINAGAR HQ,JAMMUKASHMIR
Barnoi Kashpeth B.O,Branch Post Office,193503,,GUREZ,BARAMULLA,JAMMU & KASHMIR,BARAMULLA,SRINAGAR HQ,JAMMUKASHMIR
Gujran B.O,Branch Post Office,193503,,GUREZ,BARAMULLA,JAMMU & KASHMIR,BARAMULLA,SRINAGAR HQ,JAMMUKASHMIR
Gurez S.O,Sub Post Office,193503,,GUREZ,BARAMULLA,JAMMU & KASHMIR,BARAMULLA,SRINAGAR HQ,JAMMUKASHMIR
Kanzalwan B.O,Branch Post Office,193503,,GUREZ,BARAMULLA,JAMMU & KASHMIR,BARAMULLA,SRINAGAR HQ,JAMMUKASHMIR
Markoot B.O,Branch Post Office,193503,,GUREZ,BARAMULLA,JAMMU & KASHMIR,BARAMULLA,SRINAGAR HQ,JAMMUKASHMIR
Puranatilel B.O,Branch Post Office,193503,,GUREZ,BARAMULLA,JAMMU & KASHMIR,BARAMULLA,SRINAGAR HQ,JAMMUKASHMIR
Saradab B.O,Branch Post Office,193503,,GUREZ,BARAMULLA,JAMMU & KASHMIR,BARAMULLA,SRINAGAR HQ,JAMMUKASHMIR
Tarbal B.O,Branch Post Office,193503,,GUREZ,BARAMULLA,JAMMU & KASHMIR,BARAMULLA,SRINAGAR HQ,JAMMUKASHMIR
Wampora B.O,Branch Post Office,193503,,GUREZ,BARAMULLA,JAMMU & KASHMIR,BARAMULLA,SRINAGAR HQ,JAMMUKASHMIR
Langate S.O,Sub Post Office,193302,,HANDWARA,BARAMULLA,JAMMU & KASHMIR,BARAMULLA,SRINAGAR HQ,JAMMUKASHMIR
Magam S.O,Sub Post Office,193401,01951-272225,MAGAM,BARAMULLA,JAMMU & KASHMIR,SRINAGAR,SRINAGAR HQ,JAMMUKASHMIR
Andergam B.O,Branch Post Office,193121,,PATTAN,BARAMULLA,JAMMU & KASHMIR,BARAMULLA,SRINAGAR HQ,JAMMUKASHMIR
Athoora B.O,Branch Post Office,193198,,PATTAN,BARAMULLA,JAMMU & KASHMIR,BARAMULLA,SRINAGAR HQ,JAMMUKASHMIR
Check Sariwarpora B.O,Branch Post Office,193121,,PATTAN,BARAMULLA,JAMMU & KASHMIR,BARAMULLA,SRINAGAR HQ,JAMMUKASHMIR
Ganasthan B.O,Branch Post Office,193121,,PATTAN,BARAMULLA,JAMMU & KASHMIR,BARAMULLA,SRINAGAR HQ,JAMMUKASHMIR
Goshbugh B.O,Branch Post Office,193121,,PATTAN,BARAMULLA,JAMMU & KASHMIR,BARAMULLA,SRINAGAR HQ,JAMMUKASHMIR
Gund Ibrahim B.O,Branch Post Office,193121,,PATTAN,BARAMULLA,JAMMU & KASHMIR,BARAMULLA,SRINAGAR HQ,JAMMUKASHMIR
Gund Kh. Qasim B.O,Branch Post Office,193401,,PATTAN,BARAMULLA,JAMMU & KASHMIR,SRINAGAR,SRINAGAR HQ,JAMMUKASHMIR
Hanjiwera B.O,Branch Post Office,193121,,PATTAN,BARAMULLA,JAMMU & KASHMIR,BARAMULLA,SRINAGAR HQ,JAMMUKASHMIR
Khaipora B.O,Branch Post Office,193198,,PATTAN,BARAMULLA,JAMMU & KASHMIR,BARAMULLA,SRINAGAR HQ,JAMMUKASHMIR
Khanpeth B.O,Branch Post Office,193121,,PATTAN,BARAMULLA,JAMMU & KASHMIR,BARAMULLA,SRINAGAR HQ,JAMMUKASHMIR
Khore B.O,Branch Post Office,193121,,PATTAN,BARAMULLA,JAMMU & KASHMIR,BARAMULLA,SRINAGAR HQ,JAMMUKASHMIR
Kreeri S.O,Sub Post Office,193198,,PATTAN,BARAMULLA,JAMMU & KASHMIR,BARAMULLA,SRINAGAR HQ,JAMMUKASHMIR
Lalpora Bangil B.O,Branch Post Office,193121,,PATTAN,BARAMULLA,JAMMU & KASHMIR,BARAMULLA,SRINAGAR HQ,JAMMUKASHMIR
Malmoh B.O,Branch Post Office,193401,,PATTAN,BARAMULLA,JAMMU & KASHMIR,SRINAGAR,SRINAGAR HQ,JAMMUKASHMIR
Mamoosa B.O,Branch Post Office,193121,,PATTAN,BARAMULLA,JAMMU & KASHMIR,BARAMULLA,SRINAGAR HQ,JAMMUKASHMIR
Matipora B.O,Branch Post Office,193121,,PATTAN,BARAMULLA,JAMMU & KASHMIR,BARAMULLA,SRINAGAR HQ,JAMMUKASHMIR
Mirgund B.O,Branch Post Office,193121,,PATTAN,BARAMULLA,JAMMU & KASHMIR,BARAMULLA,SRINAGAR HQ,JAMMUKASHMIR
Nehalpora B.O,Branch Post Office,193121,,PATTAN,BARAMULLA,JAMMU & KASHMIR,BARAMULLA,SRINAGAR HQ,JAMMUKASHMIR
Palhallan B.O,Branch Post Office,193121,,PATTAN,BARAMULLA,JAMMU & KASHMIR,BARAMULLA,SRINAGAR HQ,JAMMUKASHMIR
Pattan S.O,Sub Post Office,193121,01954-231225,PATTAN,BARAMULLA,JAMMU & KASHMIR,BARAMULLA,SRINAGAR HQ,JAMMUKASHMIR
Saloosa B.O,Branch Post Office,193198,,PATTAN,BARAMULLA,JAMMU & KASHMIR,BARAMULLA,SRINAGAR HQ,JAMMUKASHMIR
Seru Dangerpora B.O,Branch Post Office,193121,,PATTAN,BARAMULLA,JAMMU & KASHMIR,BARAMULLA,SRINAGAR HQ,JAMMUKASHMIR
Shirpora Bangil B.O,Branch Post Office,193121,,PATTAN,BARAMULLA,JAMMU & KASHMIR,BARAMULLA,SRINAGAR HQ,JAMMUKASHMIR
Singhpora B.O,Branch Post Office,193121,,PATTAN,BARAMULLA,JAMMU & KASHMIR,BARAMULLA,SRINAGAR HQ,JAMMUKASHMIR
Tapper Waripora B.O,Branch Post Office,193121,,PATTAN,BARAMULLA,JAMMU & KASHMIR,BARAMULLA,SRINAGAR HQ,JAMMUKASHMIR
Tarhama B.O,Branch Post Office,193401,,PATTAN,BARAMULLA,JAMMU & KASHMIR,SRINAGAR,SRINAGAR HQ,JAMMUKASHMIR
Tilgam B.O,Branch Post Office,193198,,PATTAN,BARAMULLA,JAMMU & KASHMIR,BARAMULLA,SRINAGAR HQ,JAMMUKASHMIR
Wail Kralpora B.O,Branch Post Office,193401,,PATTAN,BARAMULLA,JAMMU & KASHMIR,SRINAGAR,SRINAGAR HQ,JAMMUKASHMIR
Wanigam B.O,Branch Post Office,193198,,PATTAN,BARAMULLA,JAMMU & KASHMIR,BARAMULLA,SRINAGAR HQ,JAMMUKASHMIR
Yal B.O,Branch Post Office,193121,,PATTAN,BARAMULLA,JAMMU & KASHMIR,BARAMULLA,SRINAGAR HQ,JAMMUKASHMIR
Amchikundal B.O,Branch Post Office,193501,,SONAWARI,BARAMULLA,JAMMU & KASHMIR,BARAMULLA,SRINAGAR HQ,JAMMUKASHMIR
Batvina B.O,Branch Post Office,193501,,SONAWARI,BARAMULLA,JAMMU & KASHMIR,BARAMULLA,SRINAGAR HQ,JAMMUKASHMIR
Gund Jahangir B.O,Branch Post Office,193501,,SONAWARI,BARAMULLA,JAMMU & KASHMIR,BARAMULLA,SRINAGAR HQ,JAMMUKASHMIR
Hajin B.O,Branch Post Office,193501,,SONAWARI,BARAMULLA,JAMMU & KASHMIR,BARAMULLA,SRINAGAR HQ,JAMMUKASHMIR
Madwan B.O,Branch Post Office,193501,,SONAWARI,BARAMULLA,JAMMU & KASHMIR,BARAMULLA,SRINAGAR HQ,JAMMUKASHMIR
Naidkhai B.O,Branch Post Office,193501,,SONAWARI,BARAMULLA,JAMMU & KASHMIR,BARAMULLA,SRINAGAR HQ,JAMMUKASHMIR
Nesbal B.O,Branch Post Office,193501,,SONAWARI,BARAMULLA,JAMMU & KASHMIR,BARAMULLA,SRINAGAR HQ,JAMMUKASHMIR
Nowgam B.O,Branch Post Office,193501,,SONAWARI,BARAMULLA,JAMMU & KASHMIR,BARAMULLA,SRINAGAR HQ,JAMMUKASHMIR
Panzinara B.O,Branch Post Office,193501,,SONAWARI,BARAMULLA,JAMMU & KASHMIR,BARAMULLA,SRINAGAR HQ,JAMMUKASHMIR
Shadipora B.O,Branch Post Office,193501,,SONAWARI,BARAMULLA,JAMMU & KASHMIR,BARAMULLA,SRINAGAR HQ,JAMMUKASHMIR
Shahgund B.O,Branch Post Office,193501,,SONAWARI,BARAMULLA,JAMMU & KASHMIR,BARAMULLA,SRINAGAR HQ,JAMMUKASHMIR
Sonawari S.O,Sub Post Office,193501,01954-230225,SONAWARI,BARAMULLA,JAMMU & KASHMIR,BARAMULLA,SRINAGAR HQ,JAMMUKASHMIR
Sultanpora B.O,Branch Post Office,193501,,SONAWARI,BARAMULLA,JAMMU & KASHMIR,BARAMULLA,SRINAGAR HQ,JAMMUKASHMIR
Ashpora B.O,Branch Post Office,193303,,SOPORE,BARAMULLA,JAMMU & KASHMIR,BARAMULLA,SRINAGAR HQ,JAMMUKASHMIR
Balhama B.O,Branch Post Office,193301,,SOPORE,BARAMULLA,JAMMU & KASHMIR,BARAMULLA,SRINAGAR HQ,JAMMUKASHMIR
Behrampora B.O,Branch Post Office,193303,,SOPORE,BARAMULLA,JAMMU & KASHMIR,BARAMULLA,SRINAGAR HQ,JAMMUKASHMIR
Bomai B.O,Branch Post Office,193201,,SOPORE,BARAMULLA,JAMMU & KASHMIR,BARAMULLA,SRINAGAR HQ,JAMMUKASHMIR
Botingoo B.O,Branch Post Office,193201,,SOPORE,BARAMULLA,JAMMU & KASHMIR,BARAMULLA,SRINAGAR HQ,JAMMUKASHMIR
Bulgam B.O,Branch Post Office,193202,,SOPORE,BARAMULLA,JAMMU & KASHMIR,BARAMULLA,SRINAGAR HQ,JAMMUKASHMIR
Chatloosa B.O,Branch Post Office,193301,,SOPORE,BARAMULLA,JAMMU & KASHMIR,BARAMULLA,SRINAGAR HQ,JAMMUKASHMIR
Chatoosa B.O,Branch Post Office,193303,,SOPORE,BARAMULLA,JAMMU & KASHMIR,BARAMULLA,SRINAGAR HQ,JAMMUKASHMIR
Chijhama B.O,Branch Post Office,193301,,SOPORE,BARAMULLA,JAMMU & KASHMIR,BARAMULLA,SRINAGAR HQ,JAMMUKASHMIR
Dangerpora B.O,Branch Post Office,193201,,SOPORE,BARAMULLA,JAMMU & KASHMIR,BARAMULLA,SRINAGAR HQ,JAMMUKASHMIR
Doabgah B.O,Branch Post Office,193201,,SOPORE,BARAMULLA,JAMMU & KASHMIR,BARAMULLA,SRINAGAR HQ,JAMMUKASHMIR
Dooru B.O,Branch Post Office,193201,,SOPORE,BARAMULLA,JAMMU & KASHMIR,BARAMULLA,SRINAGAR HQ,JAMMUKASHMIR
Hadipora B.O,Branch Post Office,193301,,SOPORE,BARAMULLA,JAMMU & KASHMIR,BARAMULLA,SRINAGAR HQ,JAMMUKASHMIR
Haigam B.O,Branch Post Office,193202,,SOPORE,BARAMULLA,JAMMU & KASHMIR,BARAMULLA,SRINAGAR HQ,JAMMUKASHMIR
Harduchanam B.O,Branch Post Office,193303,,SOPORE,BARAMULLA,JAMMU & KASHMIR,BARAMULLA,SRINAGAR HQ,JAMMUKASHMIR
Hardushiva B.O,Branch Post Office,193201,,SOPORE,BARAMULLA,JAMMU & KASHMIR,BARAMULLA,SRINAGAR HQ,JAMMUKASHMIR
Harwan B.O,Branch Post Office,193201,,SOPORE,BARAMULLA,JAMMU & KASHMIR,BARAMULLA,SRINAGAR HQ,JAMMUKASHMIR
Hathlangoo B.O,Branch Post Office,193201,,SOPORE,BARAMULLA,JAMMU & KASHMIR,BARAMULLA,SRINAGAR HQ,JAMMUKASHMIR
Jamia Qadim B.O,Branch Post Office,193202,,SOPORE,BARAMULLA,JAMMU & KASHMIR,BARAMULLA,SRINAGAR HQ,JAMMUKASHMIR
Khahmoh B.O,Branch Post Office,193301,,SOPORE,BARAMULLA,JAMMU & KASHMIR,BARAMULLA,SRINAGAR HQ,JAMMUKASHMIR
Krankshivam B.O,Branch Post Office,193202,,SOPORE,BARAMULLA,JAMMU & KASHMIR,BARAMULLA,SRINAGAR HQ,JAMMUKASHMIR
Ladoora B.O,Branch Post Office,193201,,SOPORE,BARAMULLA,JAMMU & KASHMIR,BARAMULLA,SRINAGAR HQ,JAMMUKASHMIR
"Met , Sopore S.O",Sub Post Office,193202,,SOPORE,BARAMULLA,JAMMU & KASHMIR,BARAMULLA,SRINAGAR HQ,JAMMUKASHMIR
Mundji B.O,Branch Post Office,193201,,SOPORE,BARAMULLA,JAMMU & KASHMIR,BARAMULLA,SRINAGAR HQ,JAMMUKASHMIR
Nadihal B.O,Branch Post Office,193301,,SOPORE,BARAMULLA,JAMMU & KASHMIR,BARAMULLA,SRINAGAR HQ,JAMMUKASHMIR
Nowpora B.O,Branch Post Office,193201,,SOPORE,BARAMULLA,JAMMU & KASHMIR,BARAMULLA,SRINAGAR HQ,JAMMUKASHMIR
Panzala B.O,Branch Post Office,193301,,SOPORE,BARAMULLA,JAMMU & KASHMIR,BARAMULLA,SRINAGAR HQ,JAMMUKASHMIR
Rengpeth B.O,Branch Post Office,193303,,SOPORE,BARAMULLA,JAMMU & KASHMIR,BARAMULLA,SRINAGAR HQ,JAMMUKASHMIR
Rohama S.O,Sub Post Office,193301,,SOPORE,BARAMULLA,JAMMU & KASHMIR,BARAMULLA,SRINAGAR HQ,JAMMUKASHMIR
Sagipora B.O,Branch Post Office,193201,,SOPORE,BARAMULLA,JAMMU & KASHMIR,BARAMULLA,SRINAGAR HQ,JAMMUKASHMIR
Sangrama B.O,Branch Post Office,193202,,SOPORE,BARAMULLA,JAMMU & KASHMIR,BARAMULLA,SRINAGAR HQ,JAMMUKASHMIR
Seelu B.O,Branch Post Office,193201,,SOPORE,BARAMULLA,JAMMU & KASHMIR,BARAMULLA,SRINAGAR HQ,JAMMUKASHMIR
Seer B.O,Branch Post Office,193202,,SOPORE,BARAMULLA,JAMMU & KASHMIR,BARAMULLA,SRINAGAR HQ,JAMMUKASHMIR
Sopore Chowk S.O,Sub Post Office,193201,,SOPORE,BARAMULLA,JAMMU & KASHMIR,BARAMULLA,SRINAGAR HQ,JAMMUKASHMIR
Tujar B.O,Branch Post Office,193201,,SOPORE,BARAMULLA,JAMMU & KASHMIR,BARAMULLA,SRINAGAR HQ,JAMMUKASHMIR
Wadoora B.O,Branch Post Office,193201,,SOPORE,BARAMULLA,JAMMU & KASHMIR,BARAMULLA,SRINAGAR HQ,JAMMUKASHMIR
Warpora B.O,Branch Post Office,193201,,SOPORE,BARAMULLA,JAMMU & KASHMIR,BARAMULLA,SRINAGAR HQ,JAMMUKASHMIR
Watergam B.O,Branch Post Office,193303,,SOPORE,BARAMULLA,JAMMU & KASHMIR,BARAMULLA,SRINAGAR HQ,JAMMUKASHMIR
Watlab B.O,Branch Post Office,193201,,SOPORE,BARAMULLA,JAMMU & KASHMIR,BARAMULLA,SRINAGAR HQ,JAMMUKASHMIR
Zaloora B.O,Branch Post Office,193201,,SOPORE,BARAMULLA,JAMMU & KASHMIR,BARAMULLA,SRINAGAR HQ,JAMMUKASHMIR
Zethan B.O,Branch Post Office,193303,,SOPORE,BARAMULLA,JAMMU & KASHMIR,BARAMULLA,SRINAGAR HQ,JAMMUKASHMIR
Sopore S.O,Sub Post Office,193201,01954-222651,SORORE,BARAMULLA,JAMMU & KASHMIR,BARAMULLA,SRINAGAR HQ,JAMMUKASHMIR
Asham B.O,Branch Post Office,193504,,SUMBAL,BARAMULLA,JAMMU & KASHMIR,BARAMULLA,SRINAGAR HQ,JAMMUKASHMIR
Chiva B.O,Branch Post Office,193504,,SUMBAL,BARAMULLA,JAMMU & KASHMIR,BARAMULLA,SRINAGAR HQ,JAMMUKASHMIR
Hakbara B.O,Branch Post Office,193504,,SUMBAL,BARAMULLA,JAMMU & KASHMIR,BARAMULLA,SRINAGAR HQ,JAMMUKASHMIR
Sadadkootbala B.O,Branch Post Office,193504,,SUMBAL,BARAMULLA,JAMMU & KASHMIR,BARAMULLA,SRINAGAR HQ,JAMMUKASHMIR
Sadunara B.O,Branch Post Office,193504,,SUMBAL,BARAMULLA,JAMMU & KASHMIR,BARAMULLA,SRINAGAR HQ,JAMMUKASHMIR
Safapora S.O,Sub Post Office,193504,,SUMBAL,BARAMULLA,JAMMU & KASHMIR,BARAMULLA,SRINAGAR HQ,JAMMUKASHMIR
Chandil  Waniyam B.O,Branch Post Office,193401,,TANGMARG,BARAMULLA,JAMMU & KASHMIR,SRINAGAR,SRINAGAR HQ,JAMMUKASHMIR
Devbugh B.O,Branch Post Office,193401,,TANGMARG,BARAMULLA,JAMMU & KASHMIR,SRINAGAR,SRINAGAR HQ,JAMMUKASHMIR
Devpora B.O,Branch Post Office,193401,,TANGMARG,BARAMULLA,JAMMU & KASHMIR,SRINAGAR,SRINAGAR HQ,JAMMUKASHMIR
Hard Ahoora B.O,Branch Post Office,193401,,TANGMARG,BARAMULLA,JAMMU & KASHMIR,SRINAGAR,SRINAGAR HQ,JAMMUKASHMIR
Hard Shora B.O,Branch Post Office,193401,,TANGMARG,BARAMULLA,JAMMU & KASHMIR,SRINAGAR,SRINAGAR HQ,JAMMUKASHMIR
Kawarahama B.O,Branch Post Office,193401,,TANGMARG,BARAMULLA,JAMMU & KASHMIR,SRINAGAR,SRINAGAR HQ,JAMMUKASHMIR
Kralweth B.O,Branch Post Office,193401,,TANGMARG,BARAMULLA,JAMMU & KASHMIR,SRINAGAR,SRINAGAR HQ,JAMMUKASHMIR
Kunzar B.O,Branch Post Office,193401,,TANGMARG,BARAMULLA,JAMMU & KASHMIR,SRINAGAR,SRINAGAR HQ,JAMMUKASHMIR
Mulgam B.O,Branch Post Office,193401,,TANGMARG,BARAMULLA,JAMMU & KASHMIR,SRINAGAR,SRINAGAR HQ,JAMMUKASHMIR
Tangmarg S.O,Sub Post Office,193402,01951-254490,TANGMARG,BARAMULLA,JAMMU & KASHMIR,SRINAGAR,SRINAGAR HQ,JAMMUKASHMIR
Balkote B.O,Branch Post Office,193123,,URI,BARAMULLA,JAMMU & KASHMIR,BARAMULLA,SRINAGAR HQ,JAMMUKASHMIR
Bijhama B.O,Branch Post Office,193122,,URI,BARAMULLA,JAMMU & KASHMIR,BARAMULLA,SRINAGAR HQ,JAMMUKASHMIR
Boniyar B.O,Branch Post Office,193122,,URI,BARAMULLA,JAMMU & KASHMIR,BARAMULLA,SRINAGAR HQ,JAMMUKASHMIR
Chandanwari B.O,Branch Post Office,193122,,URI,BARAMULLA,JAMMU & KASHMIR,BARAMULLA,SRINAGAR HQ,JAMMUKASHMIR
Dachi B.O,Branch Post Office,193123,,URI,BARAMULLA,JAMMU & KASHMIR,BARAMULLA,SRINAGAR HQ,JAMMUKASHMIR
Dhanisaidan B.O,Branch Post Office,193122,,URI,BARAMULLA,JAMMU & KASHMIR,BARAMULLA,SRINAGAR HQ,JAMMUKASHMIR
Garkote B.O,Branch Post Office,193123,,URI,BARAMULLA,JAMMU & KASHMIR,BARAMULLA,SRINAGAR HQ,JAMMUKASHMIR
Gingle B.O,Branch Post Office,193122,,URI,BARAMULLA,JAMMU & KASHMIR,BARAMULLA,SRINAGAR HQ,JAMMUKASHMIR
Ijara B.O,Branch Post Office,193122,,URI,BARAMULLA,JAMMU & KASHMIR,BARAMULLA,SRINAGAR HQ,JAMMUKASHMIR
Isham B.O,Branch Post Office,193123,,URI,BARAMULLA,JAMMU & KASHMIR,BARAMULLA,SRINAGAR HQ,JAMMUKASHMIR
Jabla B.O,Branch Post Office,193123,,URI,BARAMULLA,JAMMU & KASHMIR,BARAMULLA,SRINAGAR HQ,JAMMUKASHMIR
Kamalkote B.O,Branch Post Office,193123,,URI,BARAMULLA,JAMMU & KASHMIR,BARAMULLA,SRINAGAR HQ,JAMMUKASHMIR
Lachipora B.O,Branch Post Office,193122,,URI,BARAMULLA,JAMMU & KASHMIR,BARAMULLA,SRINAGAR HQ,JAMMUKASHMIR
Mohara S.O,Sub Post Office,193122,,URI,BARAMULLA,JAMMU & KASHMIR,BARAMULLA,SRINAGAR HQ,JAMMUKASHMIR
Nambla B.O,Branch Post Office,193123,,URI,BARAMULLA,JAMMU & KASHMIR,BARAMULLA,SRINAGAR HQ,JAMMUKASHMIR
Nowshera B.O,Branch Post Office,193122,,URI,BARAMULLA,JAMMU & KASHMIR,BARAMULLA,SRINAGAR HQ,JAMMUKASHMIR
Parampilla B.O,Branch Post Office,193123,,URI,BARAMULLA,JAMMU & KASHMIR,BARAMULLA,SRINAGAR HQ,JAMMUKASHMIR
Pringal B.O,Branch Post Office,193122,,URI,BARAMULLA,JAMMU & KASHMIR,BARAMULLA,SRINAGAR HQ,JAMMUKASHMIR
Salamabad B.O,Branch Post Office,193123,,URI,BARAMULLA,JAMMU & KASHMIR,BARAMULLA,SRINAGAR HQ,JAMMUKASHMIR
Salamabad B.O,Branch Post Office,193122,,URI,BARAMULLA,JAMMU & KASHMIR,BARAMULLA,SRINAGAR HQ,JAMMUKASHMIR
Sultan Daki B.O,Branch Post Office,193123,,URI,BARAMULLA,JAMMU & KASHMIR,BARAMULLA,SRINAGAR HQ,JAMMUKASHMIR
Tarzoo B.O,Branch Post Office,193202,,URI,BARAMULLA,JAMMU & KASHMIR,BARAMULLA,SRINAGAR HQ,JAMMUKASHMIR
Trikanjan B.O,Branch Post Office,193122,,URI,BARAMULLA,JAMMU & KASHMIR,BARAMULLA,SRINAGAR HQ,JAMMUKASHMIR
Uri S.O,Sub Post Office,193123,,URI,BARAMULLA,JAMMU & KASHMIR,BARAMULLA,SRINAGAR HQ,JAMMUKASHMIR
Arigam B.O,Branch Post Office,191111,,.,BUDGAM,JAMMU & KASHMIR,SRINAGAR,SRINAGAR HQ,JAMMUKASHMIR
Bandipora B.O,Branch Post Office,191113,,.,BUDGAM,JAMMU & KASHMIR,SRINAGAR,SRINAGAR HQ,JAMMUKASHMIR
Bogam Batapora B.O,Branch Post Office,191113,,.,BUDGAM,JAMMU & KASHMIR,SRINAGAR,SRINAGAR HQ,JAMMUKASHMIR
Brinjan B.O,Branch Post Office,191113,,.,BUDGAM,JAMMU & KASHMIR,SRINAGAR,SRINAGAR HQ,JAMMUKASHMIR
Chattergam B.O,Branch Post Office,191113,,.,BUDGAM,JAMMU & KASHMIR,SRINAGAR,SRINAGAR HQ,JAMMUKASHMIR
Gogjipathri B.O,Branch Post Office,191113,,.,BUDGAM,JAMMU & KASHMIR,SRINAGAR,SRINAGAR HQ,JAMMUKASHMIR
Hamhama S.O,Sub Post Office,190021,,.,BUDGAM,JAMMU & KASHMIR,SRINAGAR,SRINAGAR HQ,JAMMUKASHMIR
Hanjura B.O,Branch Post Office,191113,,.,BUDGAM,JAMMU & KASHMIR,SRINAGAR,SRINAGAR HQ,JAMMUKASHMIR
Hayatpora B.O,Branch Post Office,191113,,.,BUDGAM,JAMMU & KASHMIR,SRINAGAR,SRINAGAR HQ,JAMMUKASHMIR
Khan Shaib B.O,Branch Post Office,191111,,.,BUDGAM,JAMMU & KASHMIR,SRINAGAR,SRINAGAR HQ,JAMMUKASHMIR
Nowgam S.O,Sub Post Office,190015,,.,BUDGAM,JAMMU & KASHMIR,SRINAGAR,SRINAGAR HQ,JAMMUKASHMIR
Rangreth S.O,Sub Post Office,190007,,.,BUDGAM,JAMMU & KASHMIR,SRINAGAR,SRINAGAR HQ,JAMMUKASHMIR
Wathura B.O,Branch Post Office,191113,,.,BUDGAM,JAMMU & KASHMIR,SRINAGAR,SRINAGAR HQ,JAMMUKASHMIR
Abhama B.O,Branch Post Office,191112,,ABHAMA,BUDGAM,JAMMU & KASHMIR,SRINAGAR,SRINAGAR HQ,JAMMUKASHMIR
Arath B.O,Branch Post Office,191111,,ARATH,BUDGAM,JAMMU & KASHMIR,SRINAGAR,SRINAGAR HQ,JAMMUKASHMIR
Kralpora B.O,Branch Post Office,190019,,BADGAM,BUDGAM,JAMMU & KASHMIR,SRINAGAR,SRINAGAR HQ,JAMMUKASHMIR
Bandgam B.O,Branch Post Office,191111,,BANDGAM,BUDGAM,JAMMU & KASHMIR,SRINAGAR,SRINAGAR HQ,JAMMUKASHMIR
Beerwah S.O,Sub Post Office,193411,01951-275225,BEERWAH,BUDGAM,JAMMU & KASHMIR,SRINAGAR,SRINAGAR HQ,JAMMUKASHMIR
Chanthan Checkpora B.O,Branch Post Office,193411,,BEERWAH,BUDGAM,JAMMU & KASHMIR,SRINAGAR,SRINAGAR HQ,JAMMUKASHMIR
Chewdarah B.O,Branch Post Office,193411,,BEERWAH,BUDGAM,JAMMU & KASHMIR,SRINAGAR,SRINAGAR HQ,JAMMUKASHMIR
Dachan B.O,Branch Post Office,193411,,BEERWAH,BUDGAM,JAMMU & KASHMIR,SRINAGAR,SRINAGAR HQ,JAMMUKASHMIR
H Panzu B.O,Branch Post Office,193411,,BEERWAH,BUDGAM,JAMMU & KASHMIR,SRINAGAR,SRINAGAR HQ,JAMMUKASHMIR
Iskanderpora B.O,Branch Post Office,193411,,BEERWAH,BUDGAM,JAMMU & KASHMIR,SRINAGAR,SRINAGAR HQ,JAMMUKASHMIR
Kandoora B.O,Branch Post Office,193411,,BEERWAH,BUDGAM,JAMMU & KASHMIR,SRINAGAR,SRINAGAR HQ,JAMMUKASHMIR
Kanihama B.O,Branch Post Office,193401,,BEERWAH,BUDGAM,JAMMU & KASHMIR,SRINAGAR,SRINAGAR HQ,JAMMUKASHMIR
Kawoosa Khalisa B.O,Branch Post Office,193401,,BEERWAH,BUDGAM,JAMMU & KASHMIR,SRINAGAR,SRINAGAR HQ,JAMMUKASHMIR
Khag B.O,Branch Post Office,193411,,BEERWAH,BUDGAM,JAMMU & KASHMIR,SRINAGAR,SRINAGAR HQ,JAMMUKASHMIR
Lalpora B.O,Branch Post Office,193411,,BEERWAH,BUDGAM,JAMMU & KASHMIR,SRINAGAR,SRINAGAR HQ,JAMMUKASHMIR
Narhal B.O,Branch Post Office,193401,,BEERWAH,BUDGAM,JAMMU & KASHMIR,SRINAGAR,SRINAGAR HQ,JAMMUKASHMIR
Otligam B.O,Branch Post Office,193411,,BEERWAH,BUDGAM,JAMMU & KASHMIR,SRINAGAR,SRINAGAR HQ,JAMMUKASHMIR
Peth Kanihama B.O,Branch Post Office,193401,,BEERWAH,BUDGAM,JAMMU & KASHMIR,SRINAGAR,SRINAGAR HQ,JAMMUKASHMIR
Peth Makhama B.O,Branch Post Office,193401,,BEERWAH,BUDGAM,JAMMU & KASHMIR,SRINAGAR,SRINAGAR HQ,JAMMUKASHMIR
Poshkar B.O,Branch Post Office,193411,,BEERWAH,BUDGAM,JAMMU & KASHMIR,SRINAGAR,SRINAGAR HQ,JAMMUKASHMIR
Qumroo B.O,Branch Post Office,193411,,BEERWAH,BUDGAM,JAMMU & KASHMIR,SRINAGAR,SRINAGAR HQ,JAMMUKASHMIR
Raiyar B.O,Branch Post Office,193411,,BEERWAH,BUDGAM,JAMMU & KASHMIR,SRINAGAR,SRINAGAR HQ,JAMMUKASHMIR
Ratsoon B.O,Branch Post Office,193401,,BEERWAH,BUDGAM,JAMMU & KASHMIR,SRINAGAR,SRINAGAR HQ,JAMMUKASHMIR
Sail B.O,Branch Post Office,193411,,BEERWAH,BUDGAM,JAMMU & KASHMIR,SRINAGAR,SRINAGAR HQ,JAMMUKASHMIR
Sanoorkalipora B.O,Branch Post Office,193401,,BEERWAH,BUDGAM,JAMMU & KASHMIR,SRINAGAR,SRINAGAR HQ,JAMMUKASHMIR
Shonglipora B.O,Branch Post Office,193411,,BEERWAH,BUDGAM,JAMMU & KASHMIR,SRINAGAR,SRINAGAR HQ,JAMMUKASHMIR
Zugu Khyran B.O,Branch Post Office,193411,,BEERWAH,BUDGAM,JAMMU & KASHMIR,SRINAGAR,SRINAGAR HQ,JAMMUKASHMIR
Budgam S.O,Sub Post Office,191111,01951-255225,BUDGAM,BUDGAM,JAMMU & KASHMIR,SRINAGAR,SRINAGAR HQ,JAMMUKASHMIR
Sk Airport S.O,Sub Post Office,190007,0194-2303130,BUDGAM,BUDGAM,JAMMU & KASHMIR,SRINAGAR,SRINAGAR HQ,JAMMUKASHMIR
Chadoora S.O,Sub Post Office,191113,01951-230225,CHADOORA,BUDGAM,JAMMU & KASHMIR,SRINAGAR,SRINAGAR HQ,JAMMUKASHMIR
Pahroo B.O,Branch Post Office,192121,,CHADURA,BUDGAM,JAMMU & KASHMIR,SRINAGAR,SRINAGAR HQ,JAMMUKASHMIR
Char-sharief S.O,Sub Post Office,191112,01951-243225,CHAR-SHARIEF,BUDGAM,JAMMU & KASHMIR,SRINAGAR,SRINAGAR HQ,JAMMUKASHMIR
Darwan Nawgam B.O,Branch Post Office,191112,,DARWAN NAWGAM,BUDGAM,JAMMU & KASHMIR,SRINAGAR,SRINAGAR HQ,JAMMUKASHMIR
Gariend B.O,Branch Post Office,191111,,GAREND,BUDGAM,JAMMU & KASHMIR,SRINAGAR,SRINAGAR HQ,JAMMUKASHMIR
Hardudalwan B.O,Branch Post Office,191112,,HARDUDALWAN,BUDGAM,JAMMU & KASHMIR,SRINAGAR,SRINAGAR HQ,JAMMUKASHMIR
Hyderpora S.O,Sub Post Office,190014,0194-2431693,HYDERPORA,BUDGAM,JAMMU & KASHMIR,SRINAGAR,SRINAGAR HQ,JAMMUKASHMIR
Ichgam B.O,Branch Post Office,191111,,ICHGAM,BUDGAM,JAMMU & KASHMIR,SRINAGAR,SRINAGAR HQ,JAMMUKASHMIR
Jawalapora B.O,Branch Post Office,191111,,JAWALAPORA,BUDGAM,JAMMU & KASHMIR,SRINAGAR,SRINAGAR HQ,JAMMUKASHMIR
Kachwari B.O,Branch Post Office,191111,,KACHWARI,BUDGAM,JAMMU & KASHMIR,SRINAGAR,SRINAGAR HQ,JAMMUKASHMIR
Kenidajan B.O,Branch Post Office,191112,,KANIDAGAN,BUDGAM,JAMMU & KASHMIR,SRINAGAR,SRINAGAR HQ,JAMMUKASHMIR
Kenihama B.O,Branch Post Office,191515,,KANIHAMA,BUDGAM,JAMMU & KASHMIR,SRINAGAR,SRINAGAR HQ,JAMMUKASHMIR
Krim Shore B.O,Branch Post Office,191111,,KREM SHORA,BUDGAM,JAMMU & KASHMIR,SRINAGAR,SRINAGAR HQ,JAMMUKASHMIR
Lalgam B.O,Branch Post Office,191113,,LALGAM,BUDGAM,JAMMU & KASHMIR,SRINAGAR,SRINAGAR HQ,JAMMUKASHMIR
Later Chadoora B.O,Branch Post Office,191111,,LATER CHADOORA,BUDGAM,JAMMU & KASHMIR,SRINAGAR,SRINAGAR HQ,JAMMUKASHMIR
Nagam B.O,Branch Post Office,191113,,NAGAM,BUDGAM,JAMMU & KASHMIR,SRINAGAR,SRINAGAR HQ,JAMMUKASHMIR
Natipora S.O,Sub Post Office,191515,0194-2438374,NATIPORA,BUDGAM,JAMMU & KASHMIR,SRINAGAR,SRINAGAR HQ,JAMMUKASHMIR
Nowgam B.O,Branch Post Office,191515,,NOWGAM,BUDGAM,JAMMU & KASHMIR,SRINAGAR,SRINAGAR HQ,JAMMUKASHMIR
Ompora B.O,Branch Post Office,191111,,OMPORA,BUDGAM,JAMMU & KASHMIR,SRINAGAR,SRINAGAR HQ,JAMMUKASHMIR
Pakherpora B.O,Branch Post Office,191112,,PAKHERPORA,BUDGAM,JAMMU & KASHMIR,SRINAGAR,SRINAGAR HQ,JAMMUKASHMIR
R N Hall B.O,Branch Post Office,191113,,R H HALL,BUDGAM,JAMMU & KASHMIR,SRINAGAR,SRINAGAR HQ,JAMMUKASHMIR
Raithan B.O,Branch Post Office,191111,,RAITHAN,BUDGAM,JAMMU & KASHMIR,SRINAGAR,SRINAGAR HQ,JAMMUKASHMIR
Rangar B.O,Branch Post Office,191113,,RANGAR,BUDGAM,JAMMU & KASHMIR,SRINAGAR,SRINAGAR HQ,JAMMUKASHMIR
Sagam B.O,Branch Post Office,191113,,SAGAM,BUDGAM,JAMMU & KASHMIR,SRINAGAR,SRINAGAR HQ,JAMMUKASHMIR
Soibugh B.O,Branch Post Office,191111,,SAIBUGH,BUDGAM,JAMMU & KASHMIR,SRINAGAR,SRINAGAR HQ,JAMMUKASHMIR
Sanat Nagar S.O,Sub Post Office,190005,0194-2431134,SANAT NAGAR,BUDGAM,JAMMU & KASHMIR,SRINAGAR,SRINAGAR HQ,JAMMUKASHMIR
Shogapora B.O,Branch Post Office,191111,,SHOGAPORA,BUDGAM,JAMMU & KASHMIR,SRINAGAR,SRINAGAR HQ,JAMMUKASHMIR
Sholipora B.O,Branch Post Office,191111,,SHOLIPORA,BUDGAM,JAMMU & KASHMIR,SRINAGAR,SRINAGAR HQ,JAMMUKASHMIR
Suraryan B.O,Branch Post Office,191113,,SURARYAN,BUDGAM,JAMMU & KASHMIR,SRINAGAR,SRINAGAR HQ,JAMMUKASHMIR
Wanpora B.O,Branch Post Office,191113,,WANPORA,BUDGAM,JAMMU & KASHMIR,SRINAGAR,SRINAGAR HQ,JAMMUKASHMIR
Watakala B.O,Branch Post Office,191113,,WATAKALA,BUDGAM,JAMMU & KASHMIR,SRINAGAR,SRINAGAR HQ,JAMMUKASHMIR
Watterhail B.O,Branch Post Office,191111,,WATRIHAAL,BUDGAM,JAMMU & KASHMIR,SRINAGAR,SRINAGAR HQ,JAMMUKASHMIR
Bhaderwah S.O,Sub Post Office,182200,,BHADERWAH,DODA,JAMMU & KASHMIR,UDHAMPUR,SRINAGAR HQ,JAMMUKASHMIR
Bhalla B.O,Branch Post Office,182221,,BHADERWAH,DODA,JAMMU & KASHMIR,UDHAMPUR,SRINAGAR HQ,JAMMUKASHMIR
Bhalra B.O,Branch Post Office,182221,,BHADERWAH,DODA,JAMMU & KASHMIR,UDHAMPUR,SRINAGAR HQ,JAMMUKASHMIR
Chanichinta B.O,Branch Post Office,182200,,BHADERWAH,DODA,JAMMU & KASHMIR,UDHAMPUR,SRINAGAR HQ,JAMMUKASHMIR
Chattarsori B.O,Branch Post Office,182221,,BHADERWAH,DODA,JAMMU & KASHMIR,UDHAMPUR,SRINAGAR HQ,JAMMUKASHMIR
Kursari B.O,Branch Post Office,182221,,BHADERWAH,DODA,JAMMU & KASHMIR,UDHAMPUR,SRINAGAR HQ,JAMMUKASHMIR
Malhoti B.O,Branch Post Office,182221,,BHADERWAH,DODA,JAMMU & KASHMIR,UDHAMPUR,SRINAGAR HQ,JAMMUKASHMIR
Sungli Sartingal B.O,Branch Post Office,182200,,BHADERWAH,DODA,JAMMU & KASHMIR,UDHAMPUR,SRINAGAR HQ,JAMMUKASHMIR
Udrana S.O,Sub Post Office,182221,,BHADERWAH,DODA,JAMMU & KASHMIR,UDHAMPUR,SRINAGAR HQ,JAMMUKASHMIR
Bajarni B.O,Branch Post Office,182202,,DODA,DODA,JAMMU & KASHMIR,UDHAMPUR,SRINAGAR HQ,JAMMUKASHMIR
Beoli B.O,Branch Post Office,182202,,DODA,DODA,JAMMU & KASHMIR,UDHAMPUR,SRINAGAR HQ,JAMMUKASHMIR
Bhagwa B.O,Branch Post Office,182202,,DODA,DODA,JAMMU & KASHMIR,UDHAMPUR,SRINAGAR HQ,JAMMUKASHMIR
Bhalla B.O,Branch Post Office,182201,,DODA,DODA,JAMMU & KASHMIR,UDHAMPUR,SRINAGAR HQ,JAMMUKASHMIR
Bhatni B.O,Branch Post Office,182144,,DODA,DODA,JAMMU & KASHMIR,UDHAMPUR,SRINAGAR HQ,JAMMUKASHMIR
Chachwa B.O,Branch Post Office,182144,,DODA,DODA,JAMMU & KASHMIR,UDHAMPUR,SRINAGAR HQ,JAMMUKASHMIR
Chirala B.O,Branch Post Office,182201,,DODA,DODA,JAMMU & KASHMIR,UDHAMPUR,SRINAGAR HQ,JAMMUKASHMIR
Dachhan B.O,Branch Post Office,182202,,DODA,DODA,JAMMU & KASHMIR,UDHAMPUR,SRINAGAR HQ,JAMMUKASHMIR
Dalwah B.O,Branch Post Office,182144,,DODA,DODA,JAMMU & KASHMIR,UDHAMPUR,SRINAGAR HQ,JAMMUKASHMIR
Deedah B.O,Branch Post Office,182144,,DODA,DODA,JAMMU & KASHMIR,UDHAMPUR,SRINAGAR HQ,JAMMUKASHMIR
Dessa B.O,Branch Post Office,182202,,DODA,DODA,JAMMU & KASHMIR,UDHAMPUR,SRINAGAR HQ,JAMMUKASHMIR
Dhandal B.O,Branch Post Office,182147,,DODA,DODA,JAMMU & KASHMIR,UDHAMPUR,SRINAGAR HQ,JAMMUKASHMIR
Dhara B.O,Branch Post Office,182201,,DODA,DODA,JAMMU & KASHMIR,UDHAMPUR,SRINAGAR HQ,JAMMUKASHMIR
Dharamkund B.O,Branch Post Office,182144,,DODA,DODA,JAMMU & KASHMIR,UDHAMPUR,SRINAGAR HQ,JAMMUKASHMIR
Doda S.O,Sub Post Office,182202,01996-233012,DODA,DODA,JAMMU & KASHMIR,UDHAMPUR,SRINAGAR HQ,JAMMUKASHMIR
Gandri B.O,Branch Post Office,182144,,DODA,DODA,JAMMU & KASHMIR,UDHAMPUR,SRINAGAR HQ,JAMMUKASHMIR
Ganika B.O,Branch Post Office,182147,,DODA,DODA,JAMMU & KASHMIR,UDHAMPUR,SRINAGAR HQ,JAMMUKASHMIR
Ghat B.O,Branch Post Office,182202,,DODA,DODA,JAMMU & KASHMIR,UDHAMPUR,SRINAGAR HQ,JAMMUKASHMIR
Goha B.O,Branch Post Office,182201,,DODA,DODA,JAMMU & KASHMIR,UDHAMPUR,SRINAGAR HQ,JAMMUKASHMIR
Gool B.O,Branch Post Office,182144,,DODA,DODA,JAMMU & KASHMIR,UDHAMPUR,SRINAGAR HQ,JAMMUKASHMIR
Gundna B.O,Branch Post Office,182202,,DODA,DODA,JAMMU & KASHMIR,UDHAMPUR,SRINAGAR HQ,JAMMUKASHMIR
Humble B.O,Branch Post Office,182201,,DODA,DODA,JAMMU & KASHMIR,UDHAMPUR,SRINAGAR HQ,JAMMUKASHMIR
Ind B.O,Branch Post Office,182144,,DODA,DODA,JAMMU & KASHMIR,UDHAMPUR,SRINAGAR HQ,JAMMUKASHMIR
Jodhpur B.O,Branch Post Office,182202,,DODA,DODA,JAMMU & KASHMIR,UDHAMPUR,SRINAGAR HQ,JAMMUKASHMIR
Jogote B.O,Branch Post Office,182201,,DODA,DODA,JAMMU & KASHMIR,UDHAMPUR,SRINAGAR HQ,JAMMUKASHMIR
Kanga B.O,Branch Post Office,182144,,DODA,DODA,JAMMU & KASHMIR,UDHAMPUR,SRINAGAR HQ,JAMMUKASHMIR
Kastigarh S.O,Sub Post Office,182147,,DODA,DODA,JAMMU & KASHMIR,UDHAMPUR,SRINAGAR HQ,JAMMUKASHMIR
Khalaini B.O,Branch Post Office,182201,,DODA,DODA,JAMMU & KASHMIR,UDHAMPUR,SRINAGAR HQ,JAMMUKASHMIR
Maitra Bazar B.O,Branch Post Office,182144,,DODA,DODA,JAMMU & KASHMIR,UDHAMPUR,SRINAGAR HQ,JAMMUKASHMIR
Malhori B.O,Branch Post Office,182201,,DODA,DODA,JAMMU & KASHMIR,UDHAMPUR,SRINAGAR HQ,JAMMUKASHMIR
Malhota B.O,Branch Post Office,182201,,DODA,DODA,JAMMU & KASHMIR,UDHAMPUR,SRINAGAR HQ,JAMMUKASHMIR
Malindal B.O,Branch Post Office,182201,,DODA,DODA,JAMMU & KASHMIR,UDHAMPUR,SRINAGAR HQ,JAMMUKASHMIR
Mangota B.O,Branch Post Office,182201,,DODA,DODA,JAMMU & KASHMIR,UDHAMPUR,SRINAGAR HQ,JAMMUKASHMIR
Manlnai B.O,Branch Post Office,182201,,DODA,DODA,JAMMU & KASHMIR,UDHAMPUR,SRINAGAR HQ,JAMMUKASHMIR
Mohalla B.O,Branch Post Office,182201,,DODA,DODA,JAMMU & KASHMIR,UDHAMPUR,SRINAGAR HQ,JAMMUKASHMIR
Mundhar B.O,Branch Post Office,182147,,DODA,DODA,JAMMU & KASHMIR,UDHAMPUR,SRINAGAR HQ,JAMMUKASHMIR
Nai Bhalara B.O,Branch Post Office,182201,,DODA,DODA,JAMMU & KASHMIR,UDHAMPUR,SRINAGAR HQ,JAMMUKASHMIR
Premnagar B.O,Branch Post Office,182201,,DODA,DODA,JAMMU & KASHMIR,UDHAMPUR,SRINAGAR HQ,JAMMUKASHMIR
Puldoda S.O,Sub Post Office,182201,,DODA,DODA,JAMMU & KASHMIR,UDHAMPUR,SRINAGAR HQ,JAMMUKASHMIR
Ramban Kutchery B.O,Branch Post Office,182144,,DODA,DODA,JAMMU & KASHMIR,UDHAMPUR,SRINAGAR HQ,JAMMUKASHMIR
Roat B.O,Branch Post Office,182201,,DODA,DODA,JAMMU & KASHMIR,UDHAMPUR,SRINAGAR HQ,JAMMUKASHMIR
Rukali B.O,Branch Post Office,182201,,DODA,DODA,JAMMU & KASHMIR,UDHAMPUR,SRINAGAR HQ,JAMMUKASHMIR
Sangaldhan B.O,Branch Post Office,182144,,DODA,DODA,JAMMU & KASHMIR,UDHAMPUR,SRINAGAR HQ,JAMMUKASHMIR
Shiva B.O,Branch Post Office,182201,,DODA,DODA,JAMMU & KASHMIR,UDHAMPUR,SRINAGAR HQ,JAMMUKASHMIR
Sindra B.O,Branch Post Office,182201,,DODA,DODA,JAMMU & KASHMIR,UDHAMPUR,SRINAGAR HQ,JAMMUKASHMIR
Thatharka B.O,Branch Post Office,182144,,DODA,DODA,JAMMU & KASHMIR,UDHAMPUR,SRINAGAR HQ,JAMMUKASHMIR
Trewan B.O,Branch Post Office,182201,,DODA,DODA,JAMMU & KASHMIR,UDHAMPUR,SRINAGAR HQ,JAMMUKASHMIR
Udyanpur B.O,Branch Post Office,182202,,DODA,DODA,JAMMU & KASHMIR,UDHAMPUR,SRINAGAR HQ,JAMMUKASHMIR
Aftee B.O,Branch Post Office,182205,,KISHTWAR,DODA,JAMMU & KASHMIR,UDHAMPUR,SRINAGAR HQ,JAMMUKASHMIR
Badhat B.O,Branch Post Office,182204,,KISHTWAR,DODA,JAMMU & KASHMIR,UDHAMPUR,SRINAGAR HQ,JAMMUKASHMIR
Chhatroo B.O,Branch Post Office,182205,,KISHTWAR,DODA,JAMMU & KASHMIR,UDHAMPUR,SRINAGAR HQ,JAMMUKASHMIR
Chingam B.O,Branch Post Office,182205,,KISHTWAR,DODA,JAMMU & KASHMIR,UDHAMPUR,SRINAGAR HQ,JAMMUKASHMIR
Dachhan B.O,Branch Post Office,182205,,KISHTWAR,DODA,JAMMU & KASHMIR,UDHAMPUR,SRINAGAR HQ,JAMMUKASHMIR
Dool B.O,Branch Post Office,182204,,KISHTWAR,DODA,JAMMU & KASHMIR,UDHAMPUR,SRINAGAR HQ,JAMMUKASHMIR
Dul Hasti Project S.O,Sub Post Office,182206,,KISHTWAR,DODA,JAMMU & KASHMIR,UDHAMPUR,SRINAGAR HQ,JAMMUKASHMIR
Galhar B.O,Branch Post Office,182204,,KISHTWAR,DODA,JAMMU & KASHMIR,UDHAMPUR,SRINAGAR HQ,JAMMUKASHMIR
Gulabgarh B.O,Branch Post Office,182204,,KISHTWAR,DODA,JAMMU & KASHMIR,UDHAMPUR,SRINAGAR HQ,JAMMUKASHMIR
Inderwal B.O,Branch Post Office,182205,,KISHTWAR,DODA,JAMMU & KASHMIR,UDHAMPUR,SRINAGAR HQ,JAMMUKASHMIR
Kandni B.O,Branch Post Office,182204,,KISHTWAR,DODA,JAMMU & KASHMIR,UDHAMPUR,SRINAGAR HQ,JAMMUKASHMIR
Kishtwar S.O,Sub Post Office,182204,,KISHTWAR,DODA,JAMMU & KASHMIR,UDHAMPUR,SRINAGAR HQ,JAMMUKASHMIR
Kukerwas B.O,Branch Post Office,182204,,KISHTWAR,DODA,JAMMU & KASHMIR,UDHAMPUR,SRINAGAR HQ,JAMMUKASHMIR
Kutal B.O,Branch Post Office,182204,,KISHTWAR,DODA,JAMMU & KASHMIR,UDHAMPUR,SRINAGAR HQ,JAMMUKASHMIR
Mandel B.O,Branch Post Office,182204,,KISHTWAR,DODA,JAMMU & KASHMIR,UDHAMPUR,SRINAGAR HQ,JAMMUKASHMIR
Mugal Maidan B.O,Branch Post Office,182205,,KISHTWAR,DODA,JAMMU & KASHMIR,UDHAMPUR,SRINAGAR HQ,JAMMUKASHMIR
Nowpachi B.O,Branch Post Office,182205,,KISHTWAR,DODA,JAMMU & KASHMIR,UDHAMPUR,SRINAGAR HQ,JAMMUKASHMIR
Padar B.O,Branch Post Office,182204,,KISHTWAR,DODA,JAMMU & KASHMIR,UDHAMPUR,SRINAGAR HQ,JAMMUKASHMIR
Palmar S.O,Sub Post Office,182205,,KISHTWAR,DODA,JAMMU & KASHMIR,UDHAMPUR,SRINAGAR HQ,JAMMUKASHMIR
Pechhal B.O,Branch Post Office,182204,,KISHTWAR,DODA,JAMMU & KASHMIR,UDHAMPUR,SRINAGAR HQ,JAMMUKASHMIR
Sarthal B.O,Branch Post Office,182204,,KISHTWAR,DODA,JAMMU & KASHMIR,UDHAMPUR,SRINAGAR HQ,JAMMUKASHMIR
Sidgi B.O,Branch Post Office,182205,,KISHTWAR,DODA,JAMMU & KASHMIR,UDHAMPUR,SRINAGAR HQ,JAMMUKASHMIR
Tagood B.O,Branch Post Office,182205,,KISHTWAR,DODA,JAMMU & KASHMIR,UDHAMPUR,SRINAGAR HQ,JAMMUKASHMIR
Thakrai B.O,Branch Post Office,182205,,KISHTWAR,DODA,JAMMU & KASHMIR,UDHAMPUR,SRINAGAR HQ,JAMMUKASHMIR
Alambas B.O,Branch Post Office,182145,,RAMBAN,DODA,JAMMU & KASHMIR,UDHAMPUR,SRINAGAR HQ,JAMMUKASHMIR
Assar B.O,Branch Post Office,182143,,RAMBAN,DODA,JAMMU & KASHMIR,UDHAMPUR,SRINAGAR HQ,JAMMUKASHMIR
Baggar B.O,Branch Post Office,182143,,RAMBAN,DODA,JAMMU & KASHMIR,UDHAMPUR,SRINAGAR HQ,JAMMUKASHMIR
Banihal S.O,Sub Post Office,182146,,RAMBAN,DODA,JAMMU & KASHMIR,UDHAMPUR,SRINAGAR HQ,JAMMUKASHMIR
Batote S.O,Sub Post Office,182143,01992-244526,RAMBAN,DODA,JAMMU & KASHMIR,UDHAMPUR,SRINAGAR HQ,JAMMUKASHMIR
Batroo B.O,Branch Post Office,182145,,RAMBAN,DODA,JAMMU & KASHMIR,UDHAMPUR,SRINAGAR HQ,JAMMUKASHMIR
Bhartund B.O,Branch Post Office,182148,,RAMBAN,DODA,JAMMU & KASHMIR,UDHAMPUR,SRINAGAR HQ,JAMMUKASHMIR
Chakka B.O,Branch Post Office,182143,,RAMBAN,DODA,JAMMU & KASHMIR,UDHAMPUR,SRINAGAR HQ,JAMMUKASHMIR
Chambalwas B.O,Branch Post Office,182146,,RAMBAN,DODA,JAMMU & KASHMIR,UDHAMPUR,SRINAGAR HQ,JAMMUKASHMIR
Chanderkot S.O,Sub Post Office,182148,,RAMBAN,DODA,JAMMU & KASHMIR,UDHAMPUR,SRINAGAR HQ,JAMMUKASHMIR
Chareel B.O,Branch Post Office,182146,,RAMBAN,DODA,JAMMU & KASHMIR,UDHAMPUR,SRINAGAR HQ,JAMMUKASHMIR
Duligam B.O,Branch Post Office,182146,,RAMBAN,DODA,JAMMU & KASHMIR,UDHAMPUR,SRINAGAR HQ,JAMMUKASHMIR
Halla B.O,Branch Post Office,182148,,RAMBAN,DODA,JAMMU & KASHMIR,UDHAMPUR,SRINAGAR HQ,JAMMUKASHMIR
Hoochak B.O,Branch Post Office,182145,,RAMBAN,DODA,JAMMU & KASHMIR,UDHAMPUR,SRINAGAR HQ,JAMMUKASHMIR
Kainthi B.O,Branch Post Office,182148,,RAMBAN,DODA,JAMMU & KASHMIR,UDHAMPUR,SRINAGAR HQ,JAMMUKASHMIR
Kaskoot B.O,Branch Post Office,182146,,RAMBAN,DODA,JAMMU & KASHMIR,UDHAMPUR,SRINAGAR HQ,JAMMUKASHMIR
Katyara B.O,Branch Post Office,182200,,RAMBAN,DODA,JAMMU & KASHMIR,UDHAMPUR,SRINAGAR HQ,JAMMUKASHMIR
Khari B.O,Branch Post Office,182145,,RAMBAN,DODA,JAMMU & KASHMIR,UDHAMPUR,SRINAGAR HQ,JAMMUKASHMIR
Khorial B.O,Branch Post Office,182145,,RAMBAN,DODA,JAMMU & KASHMIR,UDHAMPUR,SRINAGAR HQ,JAMMUKASHMIR
Kundi Karol B.O,Branch Post Office,182148,,RAMBAN,DODA,JAMMU & KASHMIR,UDHAMPUR,SRINAGAR HQ,JAMMUKASHMIR
Mahu B.O,Branch Post Office,182146,,RAMBAN,DODA,JAMMU & KASHMIR,UDHAMPUR,SRINAGAR HQ,JAMMUKASHMIR
Maligam B.O,Branch Post Office,182145,,RAMBAN,DODA,JAMMU & KASHMIR,UDHAMPUR,SRINAGAR HQ,JAMMUKASHMIR
Mangat B.O,Branch Post Office,182146,,RAMBAN,DODA,JAMMU & KASHMIR,UDHAMPUR,SRINAGAR HQ,JAMMUKASHMIR
Neel B.O,Branch Post Office,182146,,RAMBAN,DODA,JAMMU & KASHMIR,UDHAMPUR,SRINAGAR HQ,JAMMUKASHMIR
Neera B.O,Branch Post Office,182148,,RAMBAN,DODA,JAMMU & KASHMIR,UDHAMPUR,SRINAGAR HQ,JAMMUKASHMIR
Paristan B.O,Branch Post Office,182145,,RAMBAN,DODA,JAMMU & KASHMIR,UDHAMPUR,SRINAGAR HQ,JAMMUKASHMIR
Peera B.O,Branch Post Office,182148,,RAMBAN,DODA,JAMMU & KASHMIR,UDHAMPUR,SRINAGAR HQ,JAMMUKASHMIR
Pogal B.O,Branch Post Office,182145,,RAMBAN,DODA,JAMMU & KASHMIR,UDHAMPUR,SRINAGAR HQ,JAMMUKASHMIR
Porandhar B.O,Branch Post Office,182146,,RAMBAN,DODA,JAMMU & KASHMIR,UDHAMPUR,SRINAGAR HQ,JAMMUKASHMIR
Ramban S.O,Sub Post Office,182144,,RAMBAN,DODA,JAMMU & KASHMIR,UDHAMPUR,SRINAGAR HQ,JAMMUKASHMIR
Ramsu S.O,Sub Post Office,182145,,RAMBAN,DODA,JAMMU & KASHMIR,UDHAMPUR,SRINAGAR HQ,JAMMUKASHMIR
Ranka B.O,Branch Post Office,182143,,RAMBAN,DODA,JAMMU & KASHMIR,UDHAMPUR,SRINAGAR HQ,JAMMUKASHMIR
Samthi B.O,Branch Post Office,182143,,RAMBAN,DODA,JAMMU & KASHMIR,UDHAMPUR,SRINAGAR HQ,JAMMUKASHMIR
Sanasar B.O,Branch Post Office,182143,,RAMBAN,DODA,JAMMU & KASHMIR,UDHAMPUR,SRINAGAR HQ,JAMMUKASHMIR
Sawni B.O,Branch Post Office,182148,,RAMBAN,DODA,JAMMU & KASHMIR,UDHAMPUR,SRINAGAR HQ,JAMMUKASHMIR
Tarigam B.O,Branch Post Office,182145,,RAMBAN,DODA,JAMMU & KASHMIR,UDHAMPUR,SRINAGAR HQ,JAMMUKASHMIR
Thathar B.O,Branch Post Office,182146,,RAMBAN,DODA,JAMMU & KASHMIR,UDHAMPUR,SRINAGAR HQ,JAMMUKASHMIR
Thopal B.O,Branch Post Office,182143,,RAMBAN,DODA,JAMMU & KASHMIR,UDHAMPUR,SRINAGAR HQ,JAMMUKASHMIR
Topnel Chuchter B.O,Branch Post Office,182143,,RAMBAN,DODA,JAMMU & KASHMIR,UDHAMPUR,SRINAGAR HQ,JAMMUKASHMIR
Tringla B.O,Branch Post Office,182143,,RAMBAN,DODA,JAMMU & KASHMIR,UDHAMPUR,SRINAGAR HQ,JAMMUKASHMIR
Trungal B.O,Branch Post Office,182143,,RAMBAN,DODA,JAMMU & KASHMIR,UDHAMPUR,SRINAGAR HQ,JAMMUKASHMIR
Banoon B.O,Branch Post Office,182203,,THATHRI,DODA,JAMMU & KASHMIR,UDHAMPUR,SRINAGAR HQ,JAMMUKASHMIR
Chilli B.O,Branch Post Office,182203,,THATHRI,DODA,JAMMU & KASHMIR,UDHAMPUR,SRINAGAR HQ,JAMMUKASHMIR
Chouri B.O,Branch Post Office,182203,,THATHRI,DODA,JAMMU & KASHMIR,UDHAMPUR,SRINAGAR HQ,JAMMUKASHMIR
Dhesa B.O,Branch Post Office,182203,,THATHRI,DODA,JAMMU & KASHMIR,UDHAMPUR,SRINAGAR HQ,JAMMUKASHMIR
Gandoh B.O,Branch Post Office,182203,,THATHRI,DODA,JAMMU & KASHMIR,UDHAMPUR,SRINAGAR HQ,JAMMUKASHMIR
Inharrah B.O,Branch Post Office,182203,,THATHRI,DODA,JAMMU & KASHMIR,UDHAMPUR,SRINAGAR HQ,JAMMUKASHMIR
Jakyas B.O,Branch Post Office,182203,,THATHRI,DODA,JAMMU & KASHMIR,UDHAMPUR,SRINAGAR HQ,JAMMUKASHMIR
Jora B.O,Branch Post Office,182203,,THATHRI,DODA,JAMMU & KASHMIR,UDHAMPUR,SRINAGAR HQ,JAMMUKASHMIR
Kaljugasar B.O,Branch Post Office,182203,,THATHRI,DODA,JAMMU & KASHMIR,UDHAMPUR,SRINAGAR HQ,JAMMUKASHMIR
Kilhotran B.O,Branch Post Office,182203,,THATHRI,DODA,JAMMU & KASHMIR,UDHAMPUR,SRINAGAR HQ,JAMMUKASHMIR
Malanoo B.O,Branch Post Office,182203,,THATHRI,DODA,JAMMU & KASHMIR,UDHAMPUR,SRINAGAR HQ,JAMMUKASHMIR
Nodinalla B.O,Branch Post Office,182203,,THATHRI,DODA,JAMMU & KASHMIR,UDHAMPUR,SRINAGAR HQ,JAMMUKASHMIR
Thathri S.O,Sub Post Office,182203,,THATHRI,DODA,JAMMU & KASHMIR,UDHAMPUR,SRINAGAR HQ,JAMMUKASHMIR
Bain Bajalta B.O,Branch Post Office,180017,,.,JAMMU,JAMMU & KASHMIR,JAMMU,SRINAGAR HQ,JAMMUKASHMIR
Chak Salaria B.O,Branch Post Office,184120,,.,JAMMU,JAMMU & KASHMIR,JAMMU,SRINAGAR HQ,JAMMUKASHMIR
Chandu Chak B.O,Branch Post Office,181102,,.,JAMMU,JAMMU & KASHMIR,JAMMU,SRINAGAR HQ,JAMMUKASHMIR
Extra S.O,Sub Post Office,181206,,.,JAMMU,JAMMU & KASHMIR,JAMMU,SRINAGAR HQ,JAMMUKASHMIR
Gharana B.O,Branch Post Office,181102,,.,JAMMU,JAMMU & KASHMIR,JAMMU,SRINAGAR HQ,JAMMUKASHMIR
Guo Brahmna B.O,Branch Post Office,184120,,.,JAMMU,JAMMU & KASHMIR,JAMMU,SRINAGAR HQ,JAMMUKASHMIR
Jammu Market S.O,Sub Post Office,180001,0191-2579582,.,JAMMU,JAMMU & KASHMIR,JAMMU,SRINAGAR HQ,JAMMUKASHMIR
Khour Devian B.O,Branch Post Office,181101,,.,JAMMU,JAMMU & KASHMIR,JAMMU,SRINAGAR HQ,JAMMUKASHMIR
Koulpur B.O,Branch Post Office,184120,,.,JAMMU,JAMMU & KASHMIR,JAMMU,SRINAGAR HQ,JAMMUKASHMIR
Majeen S.O,Sub Post Office,180017,,.,JAMMU,JAMMU & KASHMIR,JAMMU,SRINAGAR HQ,JAMMUKASHMIR
Sidhra Housing Colony S.O,Sub Post Office,180019,,.,JAMMU,JAMMU & KASHMIR,JAMMU,SRINAGAR HQ,JAMMUKASHMIR
A.G.Office S.O,Sub Post Office,180001,,JAMMU,JAMMU,JAMMU & KASHMIR,JAMMU,SRINAGAR HQ,JAMMUKASHMIR
Abtal B.O,Branch Post Office,181141,,JAMMU,JAMMU,JAMMU & KASHMIR,JAMMU,SRINAGAR HQ,JAMMUKASHMIR
Adlehar B.O,Branch Post Office,181131,,JAMMU,JAMMU,JAMMU & KASHMIR,JAMMU,SRINAGAR HQ,JAMMUKASHMIR
Agra Chak B.O,Branch Post Office,181102,,JAMMU,JAMMU,JAMMU & KASHMIR,JAMMU,SRINAGAR HQ,JAMMUKASHMIR
Aitham B.O,Branch Post Office,180017,,JAMMU,JAMMU,JAMMU & KASHMIR,JAMMU,SRINAGAR HQ,JAMMUKASHMIR
Akalpur B.O,Branch Post Office,180002,,JAMMU,JAMMU,JAMMU & KASHMIR,JAMMU,SRINAGAR HQ,JAMMUKASHMIR
Akhnoor S.O,Sub Post Office,181201,01924-254156,JAMMU,JAMMU,JAMMU & KASHMIR,JAMMU,SRINAGAR HQ,JAMMUKASHMIR
Allah B.O,Branch Post Office,181131,,JAMMU,JAMMU,JAMMU & KASHMIR,JAMMU,SRINAGAR HQ,JAMMUKASHMIR
Ambaran B.O,Branch Post Office,181201,,JAMMU,JAMMU,JAMMU & KASHMIR,JAMMU,SRINAGAR HQ,JAMMUKASHMIR
Arnia S.O,Sub Post Office,181131,01923-272226,JAMMU,JAMMU,JAMMU & KASHMIR,JAMMU,SRINAGAR HQ,JAMMUKASHMIR
Badyal Brahmna S.O,Sub Post Office,181103,,JAMMU,JAMMU,JAMMU & KASHMIR,JAMMU,SRINAGAR HQ,JAMMUKASHMIR
Bain Bajalta B.O,Branch Post Office,180006,,JAMMU,JAMMU,JAMMU & KASHMIR,JAMMU,SRINAGAR HQ,JAMMUKASHMIR
Bakore B.O,Branch Post Office,181202,,JAMMU,JAMMU,JAMMU & KASHMIR,JAMMU,SRINAGAR HQ,JAMMUKASHMIR
Bakshinagar S.O,Sub Post Office,180001,0191-2581525,JAMMU,JAMMU,JAMMU & KASHMIR,JAMMU,SRINAGAR HQ,JAMMUKASHMIR
Bala B.O,Branch Post Office,181201,,JAMMU,JAMMU,JAMMU & KASHMIR,JAMMU,SRINAGAR HQ,JAMMUKASHMIR
Bamal Colony B.O,Branch Post Office,181201,,JAMMU,JAMMU,JAMMU & KASHMIR,JAMMU,SRINAGAR HQ,JAMMUKASHMIR
Banachak B.O,Branch Post Office,181132,,JAMMU,JAMMU,JAMMU & KASHMIR,JAMMU,SRINAGAR HQ,JAMMUKASHMIR
Bantalab S.O,Sub Post Office,181123,0191-2592285,JAMMU,JAMMU,JAMMU & KASHMIR,JAMMU,SRINAGAR HQ,JAMMUKASHMIR
Baran B.O,Branch Post Office,181122,,JAMMU,JAMMU,JAMMU & KASHMIR,JAMMU,SRINAGAR HQ,JAMMUKASHMIR
Bardoh B.O,Branch Post Office,181204,,JAMMU,JAMMU,JAMMU & KASHMIR,JAMMU,SRINAGAR HQ,JAMMUKASHMIR
Bari Brahmna I/complex S.O,Sub Post Office,181133,01923-220480,JAMMU,JAMMU,JAMMU & KASHMIR,JAMMU,SRINAGAR HQ,JAMMUKASHMIR
Bari Brahmna S.O,Sub Post Office,181133,01923-220226,JAMMU,JAMMU,JAMMU & KASHMIR,JAMMU,SRINAGAR HQ,JAMMUKASHMIR
Barigarh B.O,Branch Post Office,184121,,JAMMU,JAMMU,JAMMU & KASHMIR,JAMMU,SRINAGAR HQ,JAMMUKASHMIR
Batehra B.O,Branch Post Office,181206,,JAMMU,JAMMU,JAMMU & KASHMIR,JAMMU,SRINAGAR HQ,JAMMUKASHMIR
Bhadrod B.O,Branch Post Office,180002,,JAMMU,JAMMU,JAMMU & KASHMIR,JAMMU,SRINAGAR HQ,JAMMUKASHMIR
Bhalwal Brahmna B.O,Branch Post Office,181202,,JAMMU,JAMMU,JAMMU & KASHMIR,JAMMU,SRINAGAR HQ,JAMMUKASHMIR
Bhalwal S.O,Sub Post Office,181122,,JAMMU,JAMMU,JAMMU & KASHMIR,JAMMU,SRINAGAR HQ,JAMMUKASHMIR
Bhatyari B.O,Branch Post Office,181224,,JAMMU,JAMMU,JAMMU & KASHMIR,JAMMU,SRINAGAR HQ,JAMMUKASHMIR
Bhour Camp S.O,Sub Post Office,180009,,JAMMU,JAMMU,JAMMU & KASHMIR,JAMMU,SRINAGAR HQ,JAMMUKASHMIR
Birpur B.O,Branch Post Office,181133,,JAMMU,JAMMU,JAMMU & KASHMIR,JAMMU,SRINAGAR HQ,JAMMUKASHMIR
Bishnah Adda S.O,Sub Post Office,181132,01923-236426,JAMMU,JAMMU,JAMMU & KASHMIR,JAMMU,SRINAGAR HQ,JAMMUKASHMIR
Bishnah S.O,Sub Post Office,181132,01923-236026,JAMMU,JAMMU,JAMMU & KASHMIR,JAMMU,SRINAGAR HQ,JAMMUKASHMIR
Brui B.O,Branch Post Office,181201,,JAMMU,JAMMU,JAMMU & KASHMIR,JAMMU,SRINAGAR HQ,JAMMUKASHMIR
Bsf Camp Paloura S.O,Sub Post Office,181124,,JAMMU,JAMMU,JAMMU & KASHMIR,JAMMU,SRINAGAR HQ,JAMMUKASHMIR
Chak Chimna B.O,Branch Post Office,181141,,JAMMU,JAMMU,JAMMU & KASHMIR,JAMMU,SRINAGAR HQ,JAMMUKASHMIR
Chak Kirpalpur B.O,Branch Post Office,181202,,JAMMU,JAMMU,JAMMU & KASHMIR,JAMMU,SRINAGAR HQ,JAMMUKASHMIR
Chak Malal B.O,Branch Post Office,181203,,JAMMU,JAMMU,JAMMU & KASHMIR,JAMMU,SRINAGAR HQ,JAMMUKASHMIR
Chak Shama B.O,Branch Post Office,181206,,JAMMU,JAMMU,JAMMU & KASHMIR,JAMMU,SRINAGAR HQ,JAMMUKASHMIR
Chak Umrah B.O,Branch Post Office,181132,,JAMMU,JAMMU,JAMMU & KASHMIR,JAMMU,SRINAGAR HQ,JAMMUKASHMIR
Chakrohi B.O,Branch Post Office,181102,,JAMMU,JAMMU,JAMMU & KASHMIR,JAMMU,SRINAGAR HQ,JAMMUKASHMIR
Chani Himat S.O,Sub Post Office,180015,0191-2460424,JAMMU,JAMMU,JAMMU & KASHMIR,JAMMU,SRINAGAR HQ,JAMMUKASHMIR
Chohala B.O,Branch Post Office,181102,,JAMMU,JAMMU,JAMMU & KASHMIR,JAMMU,SRINAGAR HQ,JAMMUKASHMIR
Chowadi B.O,Branch Post Office,180011,,JAMMU,JAMMU,JAMMU & KASHMIR,JAMMU,SRINAGAR HQ,JAMMUKASHMIR
Chowki Choura S.O,Sub Post Office,185154,,JAMMU,JAMMU,JAMMU & KASHMIR,JAMMU,SRINAGAR HQ,JAMMUKASHMIR
Dablehar S.O,Sub Post Office,181111,,JAMMU,JAMMU,JAMMU & KASHMIR,JAMMU,SRINAGAR HQ,JAMMUKASHMIR
Dansal S.O,Sub Post Office,181224,0191-2669039,JAMMU,JAMMU,JAMMU & KASHMIR,JAMMU,SRINAGAR HQ,JAMMUKASHMIR
Danwal B.O,Branch Post Office,181203,,JAMMU,JAMMU,JAMMU & KASHMIR,JAMMU,SRINAGAR HQ,JAMMUKASHMIR
Darap B.O,Branch Post Office,181132,,JAMMU,JAMMU,JAMMU & KASHMIR,JAMMU,SRINAGAR HQ,JAMMUKASHMIR
Darbargarh S.O,Sub Post Office,180001,0191-2579524,JAMMU,JAMMU,JAMMU & KASHMIR,JAMMU,SRINAGAR HQ,JAMMUKASHMIR
Datial B.O,Branch Post Office,181202,,JAMMU,JAMMU,JAMMU & KASHMIR,JAMMU,SRINAGAR HQ,JAMMUKASHMIR
Deoli B.O,Branch Post Office,181132,,JAMMU,JAMMU,JAMMU & KASHMIR,JAMMU,SRINAGAR HQ,JAMMUKASHMIR
Devipur B.O,Branch Post Office,181202,,JAMMU,JAMMU,JAMMU & KASHMIR,JAMMU,SRINAGAR HQ,JAMMUKASHMIR
Dhana Dhanean B.O,Branch Post Office,185154,,JAMMU,JAMMU,JAMMU & KASHMIR,JAMMU,SRINAGAR HQ,JAMMUKASHMIR
Dhiani B.O,Branch Post Office,184121,,JAMMU,JAMMU,JAMMU & KASHMIR,JAMMU,SRINAGAR HQ,JAMMUKASHMIR
Dhoke Khalsa B.O,Branch Post Office,181202,,JAMMU,JAMMU,JAMMU & KASHMIR,JAMMU,SRINAGAR HQ,JAMMUKASHMIR
Dhounthly Bazar S.O,Sub Post Office,180001,0191-2547675,JAMMU,JAMMU,JAMMU & KASHMIR,JAMMU,SRINAGAR HQ,JAMMUKASHMIR
Doori Dugar B.O,Branch Post Office,185154,,JAMMU,JAMMU,JAMMU & KASHMIR,JAMMU,SRINAGAR HQ,JAMMUKASHMIR
Dumana S.O,Sub Post Office,181206,,JAMMU,JAMMU,JAMMU & KASHMIR,JAMMU,SRINAGAR HQ,JAMMUKASHMIR
Faloura B.O,Branch Post Office,181102,,JAMMU,JAMMU,JAMMU & KASHMIR,JAMMU,SRINAGAR HQ,JAMMUKASHMIR
Gadigarh B.O,Branch Post Office,181101,,JAMMU,JAMMU,JAMMU & KASHMIR,JAMMU,SRINAGAR HQ,JAMMUKASHMIR
Gajansoo B.O,Branch Post Office,181206,,JAMMU,JAMMU,JAMMU & KASHMIR,JAMMU,SRINAGAR HQ,JAMMUKASHMIR
Gandharwan B.O,Branch Post Office,181201,,JAMMU,JAMMU,JAMMU & KASHMIR,JAMMU,SRINAGAR HQ,JAMMUKASHMIR
Gandhinagar H.O,Head Post Office,180004,0191-2435646,JAMMU,JAMMU,JAMMU & KASHMIR,JAMMU,SRINAGAR HQ,JAMMUKASHMIR
Gangyal S.O,Sub Post Office,180010,0191-2482328,JAMMU,JAMMU,JAMMU & KASHMIR,JAMMU,SRINAGAR HQ,JAMMUKASHMIR
Garkhal B.O,Branch Post Office,181206,,JAMMU,JAMMU,JAMMU & KASHMIR,JAMMU,SRINAGAR HQ,JAMMUKASHMIR
General Bus Stand S.O,Sub Post Office,180016,0191-2573439,JAMMU,JAMMU,JAMMU & KASHMIR,JAMMU,SRINAGAR HQ,JAMMUKASHMIR
Ghar Majoor B.O,Branch Post Office,185154,,JAMMU,JAMMU,JAMMU & KASHMIR,JAMMU,SRINAGAR HQ,JAMMUKASHMIR
Gharatal B.O,Branch Post Office,181201,,JAMMU,JAMMU,JAMMU & KASHMIR,JAMMU,SRINAGAR HQ,JAMMUKASHMIR
Gharota B.O,Branch Post Office,181122,,JAMMU,JAMMU,JAMMU & KASHMIR,JAMMU,SRINAGAR HQ,JAMMUKASHMIR
Gho Manhasan S.O,Sub Post Office,181008,,JAMMU,JAMMU,JAMMU & KASHMIR,JAMMU,SRINAGAR HQ,JAMMUKASHMIR
Gigrial B.O,Branch Post Office,181203,,JAMMU,JAMMU,JAMMU & KASHMIR,JAMMU,SRINAGAR HQ,JAMMUKASHMIR
Gol Gujral B.O,Branch Post Office,180002,,JAMMU,JAMMU,JAMMU & KASHMIR,JAMMU,SRINAGAR HQ,JAMMUKASHMIR
Goondla B.O,Branch Post Office,181111,,JAMMU,JAMMU,JAMMU & KASHMIR,JAMMU,SRINAGAR HQ,JAMMUKASHMIR
Goran B.O,Branch Post Office,184121,,JAMMU,JAMMU,JAMMU & KASHMIR,JAMMU,SRINAGAR HQ,JAMMUKASHMIR
Gura Manhasan B.O,Branch Post Office,181207,,JAMMU,JAMMU,JAMMU & KASHMIR,JAMMU,SRINAGAR HQ,JAMMUKASHMIR
Gurah Salathia S.O,Sub Post Office,181143,,JAMMU,JAMMU,JAMMU & KASHMIR,JAMMU,SRINAGAR HQ,JAMMUKASHMIR
Gurha Brahmna B.O,Branch Post Office,181201,,JAMMU,JAMMU,JAMMU & KASHMIR,JAMMU,SRINAGAR HQ,JAMMUKASHMIR
Guru Nanak Nagar S.O,Sub Post Office,180004,,JAMMU,JAMMU,JAMMU & KASHMIR,JAMMU,SRINAGAR HQ,JAMMUKASHMIR
Halqa S.O,Sub Post Office,181208,,JAMMU,JAMMU,JAMMU & KASHMIR,JAMMU,SRINAGAR HQ,JAMMUKASHMIR
Hamirpur Sidhar S.O,Sub Post Office,181209,,JAMMU,JAMMU,JAMMU & KASHMIR,JAMMU,SRINAGAR HQ,JAMMUKASHMIR
Industrial Estate S.O,Sub Post Office,180003,,JAMMU,JAMMU,JAMMU & KASHMIR,JAMMU,SRINAGAR HQ,JAMMUKASHMIR
J.Kotli B.O,Branch Post Office,181221,,JAMMU,JAMMU,JAMMU & KASHMIR,JAMMU,SRINAGAR HQ,JAMMUKASHMIR
J.N.V. Nud B.O,Branch Post Office,184121,,JAMMU,JAMMU,JAMMU & KASHMIR,JAMMU,SRINAGAR HQ,JAMMUKASHMIR
Jagti B.O,Branch Post Office,181221,,JAMMU,JAMMU,JAMMU & KASHMIR,JAMMU,SRINAGAR HQ,JAMMUKASHMIR
Jakh S.O,Sub Post Office,181134,,JAMMU,JAMMU,JAMMU & KASHMIR,JAMMU,SRINAGAR HQ,JAMMUKASHMIR
Jammu Cantt S.O,Sub Post Office,180003,0191-2435708,JAMMU,JAMMU,JAMMU & KASHMIR,JAMMU,SRINAGAR HQ,JAMMUKASHMIR
Jammu H.O,Head Post Office,180001,0191-2546147,JAMMU,JAMMU,JAMMU & KASHMIR,JAMMU,SRINAGAR HQ,JAMMUKASHMIR
Jandial B.O,Branch Post Office,181122,,JAMMU,JAMMU,JAMMU & KASHMIR,JAMMU,SRINAGAR HQ,JAMMUKASHMIR
Janipur S.O,Sub Post Office,180007,0191-2535980,JAMMU,JAMMU,JAMMU & KASHMIR,JAMMU,SRINAGAR HQ,JAMMUKASHMIR
Jassore B.O,Branch Post Office,181102,,JAMMU,JAMMU,JAMMU & KASHMIR,JAMMU,SRINAGAR HQ,JAMMUKASHMIR
Jindrah B.O,Branch Post Office,181224,,JAMMU,JAMMU,JAMMU & KASHMIR,JAMMU,SRINAGAR HQ,JAMMUKASHMIR
Jourian S.O,Sub Post Office,181202,01924-242026,JAMMU,JAMMU,JAMMU & KASHMIR,JAMMU,SRINAGAR HQ,JAMMUKASHMIR
Kachi Chowni S.O,Sub Post Office,180001,0191-2543746,JAMMU,JAMMU,JAMMU & KASHMIR,JAMMU,SRINAGAR HQ,JAMMUKASHMIR
Kaink Jagir B.O,Branch Post Office,181201,,JAMMU,JAMMU,JAMMU & KASHMIR,JAMMU,SRINAGAR HQ,JAMMUKASHMIR
Kakrai B.O,Branch Post Office,184121,,JAMMU,JAMMU,JAMMU & KASHMIR,JAMMU,SRINAGAR HQ,JAMMUKASHMIR
Kaleetg B.O,Branch Post Office,181203,,JAMMU,JAMMU,JAMMU & KASHMIR,JAMMU,SRINAGAR HQ,JAMMUKASHMIR
Kalibari B.O,Branch Post Office,184121,,JAMMU,JAMMU,JAMMU & KASHMIR,JAMMU,SRINAGAR HQ,JAMMUKASHMIR
Kalu Chak B.O,Branch Post Office,180010,,JAMMU,JAMMU,JAMMU & KASHMIR,JAMMU,SRINAGAR HQ,JAMMUKASHMIR
Kalyana B.O,Branch Post Office,181131,,JAMMU,JAMMU,JAMMU & KASHMIR,JAMMU,SRINAGAR HQ,JAMMUKASHMIR
Kanachak B.O,Branch Post Office,181206,,JAMMU,JAMMU,JAMMU & KASHMIR,JAMMU,SRINAGAR HQ,JAMMUKASHMIR
Kanachirgal B.O,Branch Post Office,180017,,JAMMU,JAMMU,JAMMU & KASHMIR,JAMMU,SRINAGAR HQ,JAMMUKASHMIR
Kandoli Nagrota S.O,Sub Post Office,181221,0191-2673026,JAMMU,JAMMU,JAMMU & KASHMIR,JAMMU,SRINAGAR HQ,JAMMUKASHMIR
Kangrial B.O,Branch Post Office,181206,,JAMMU,JAMMU,JAMMU & KASHMIR,JAMMU,SRINAGAR HQ,JAMMUKASHMIR
Kanhal B.O,Branch Post Office,181132,,JAMMU,JAMMU,JAMMU & KASHMIR,JAMMU,SRINAGAR HQ,JAMMUKASHMIR
Kanyala B.O,Branch Post Office,181224,,JAMMU,JAMMU,JAMMU & KASHMIR,JAMMU,SRINAGAR HQ,JAMMUKASHMIR
Karan Nagar S.O,Sub Post Office,180005,0191-2549815,JAMMU,JAMMU,JAMMU & KASHMIR,JAMMU,SRINAGAR HQ,JAMMUKASHMIR
Karloop B.O,Branch Post Office,181206,,JAMMU,JAMMU,JAMMU & KASHMIR,JAMMU,SRINAGAR HQ,JAMMUKASHMIR
Kathar B.O,Branch Post Office,181201,,JAMMU,JAMMU,JAMMU & KASHMIR,JAMMU,SRINAGAR HQ,JAMMUKASHMIR
Kesomanhasan B.O,Branch Post Office,181141,,JAMMU,JAMMU,JAMMU & KASHMIR,JAMMU,SRINAGAR HQ,JAMMUKASHMIR
Khara Madana B.O,Branch Post Office,181145,,JAMMU,JAMMU,JAMMU & KASHMIR,JAMMU,SRINAGAR HQ,JAMMUKASHMIR
Kharah B.O,Branch Post Office,181203,,JAMMU,JAMMU,JAMMU & KASHMIR,JAMMU,SRINAGAR HQ,JAMMUKASHMIR
Kheri B.O,Branch Post Office,181132,,JAMMU,JAMMU,JAMMU & KASHMIR,JAMMU,SRINAGAR HQ,JAMMUKASHMIR
Khour S.O,Sub Post Office,181203,01924-234023,JAMMU,JAMMU,JAMMU & KASHMIR,JAMMU,SRINAGAR HQ,JAMMUKASHMIR
Kirpind B.O,Branch Post Office,181101,,JAMMU,JAMMU,JAMMU & KASHMIR,JAMMU,SRINAGAR HQ,JAMMUKASHMIR
Kishanpur B.O,Branch Post Office,181224,,JAMMU,JAMMU,JAMMU & KASHMIR,JAMMU,SRINAGAR HQ,JAMMUKASHMIR
Kool Kalan B.O,Branch Post Office,181131,,JAMMU,JAMMU,JAMMU & KASHMIR,JAMMU,SRINAGAR HQ,JAMMUKASHMIR
Kot B.O,Branch Post Office,181122,,JAMMU,JAMMU,JAMMU & KASHMIR,JAMMU,SRINAGAR HQ,JAMMUKASHMIR
Kot Maira B.O,Branch Post Office,181204,,JAMMU,JAMMU,JAMMU & KASHMIR,JAMMU,SRINAGAR HQ,JAMMUKASHMIR
Kothar B.O,Branch Post Office,181224,,JAMMU,JAMMU,JAMMU & KASHMIR,JAMMU,SRINAGAR HQ,JAMMUKASHMIR
Kotli Colony S.O,Sub Post Office,180005,0191-2584547,JAMMU,JAMMU,JAMMU & KASHMIR,JAMMU,SRINAGAR HQ,JAMMUKASHMIR
Kotli Mian Fateh B.O,Branch Post Office,181132,,JAMMU,JAMMU,JAMMU & KASHMIR,JAMMU,SRINAGAR HQ,JAMMUKASHMIR
Kotlishah Daula B.O,Branch Post Office,181102,,JAMMU,JAMMU,JAMMU & KASHMIR,JAMMU,SRINAGAR HQ,JAMMUKASHMIR
Krishna Nagar S.O,Sub Post Office,180016,,JAMMU,JAMMU,JAMMU & KASHMIR,JAMMU,SRINAGAR HQ,JAMMUKASHMIR
Langotian B.O,Branch Post Office,181101,,JAMMU,JAMMU,JAMMU & KASHMIR,JAMMU,SRINAGAR HQ,JAMMUKASHMIR
Lehar B.O,Branch Post Office,181201,,JAMMU,JAMMU,JAMMU & KASHMIR,JAMMU,SRINAGAR HQ,JAMMUKASHMIR
Link Road S.O,Sub Post Office,180001,,JAMMU,JAMMU,JAMMU & KASHMIR,JAMMU,SRINAGAR HQ,JAMMUKASHMIR
Magowali B.O,Branch Post Office,181111,,JAMMU,JAMMU,JAMMU & KASHMIR,JAMMU,SRINAGAR HQ,JAMMUKASHMIR
Maira B.O,Branch Post Office,181202,,JAMMU,JAMMU,JAMMU & KASHMIR,JAMMU,SRINAGAR HQ,JAMMUKASHMIR
Makwal B.O,Branch Post Office,180003,,JAMMU,JAMMU,JAMMU & KASHMIR,JAMMU,SRINAGAR HQ,JAMMUKASHMIR
Mandal B.O,Branch Post Office,181145,,JAMMU,JAMMU,JAMMU & KASHMIR,JAMMU,SRINAGAR HQ,JAMMUKASHMIR
Mandal B.O,Branch Post Office,180003,,JAMMU,JAMMU,JAMMU & KASHMIR,JAMMU,SRINAGAR HQ,JAMMUKASHMIR
Mandarian B.O,Branch Post Office,181201,,JAMMU,JAMMU,JAMMU & KASHMIR,JAMMU,SRINAGAR HQ,JAMMUKASHMIR
Mansar B.O,Branch Post Office,184121,,JAMMU,JAMMU,JAMMU & KASHMIR,JAMMU,SRINAGAR HQ,JAMMUKASHMIR
Mawa B.O,Branch Post Office,184121,,JAMMU,JAMMU,JAMMU & KASHMIR,JAMMU,SRINAGAR HQ,JAMMUKASHMIR
Mawa Brahmna B.O,Branch Post Office,181201,,JAMMU,JAMMU,JAMMU & KASHMIR,JAMMU,SRINAGAR HQ,JAMMUKASHMIR
Miran Sahib S.O,Sub Post Office,181101,01923-263226,JAMMU,JAMMU,JAMMU & KASHMIR,JAMMU,SRINAGAR HQ,JAMMUKASHMIR
Misriwala B.O,Branch Post Office,181206,,JAMMU,JAMMU,JAMMU & KASHMIR,JAMMU,SRINAGAR HQ,JAMMUKASHMIR
Muthi S.O,Sub Post Office,181205,,JAMMU,JAMMU,JAMMU & KASHMIR,JAMMU,SRINAGAR HQ,JAMMUKASHMIR
Nadore B.O,Branch Post Office,181221,,JAMMU,JAMMU,JAMMU & KASHMIR,JAMMU,SRINAGAR HQ,JAMMUKASHMIR
Nagbani B.O,Branch Post Office,181206,,JAMMU,JAMMU,JAMMU & KASHMIR,JAMMU,SRINAGAR HQ,JAMMUKASHMIR
Nai Kali B.O,Branch Post Office,184121,,JAMMU,JAMMU,JAMMU & KASHMIR,JAMMU,SRINAGAR HQ,JAMMUKASHMIR
Nanak Chak B.O,Branch Post Office,184121,,JAMMU,JAMMU,JAMMU & KASHMIR,JAMMU,SRINAGAR HQ,JAMMUKASHMIR
Nandpur B.O,Branch Post Office,181141,,JAMMU,JAMMU,JAMMU & KASHMIR,JAMMU,SRINAGAR HQ,JAMMUKASHMIR
Nanga B.O,Branch Post Office,181141,,JAMMU,JAMMU,JAMMU & KASHMIR,JAMMU,SRINAGAR HQ,JAMMUKASHMIR
Naryana B.O,Branch Post Office,181203,,JAMMU,JAMMU,JAMMU & KASHMIR,JAMMU,SRINAGAR HQ,JAMMUKASHMIR
NATC S.O,Sub Post Office,180003,0191-220226,JAMMU,JAMMU,JAMMU & KASHMIR,JAMMU,SRINAGAR HQ,JAMMUKASHMIR
Nathal B.O,Branch Post Office,181203,,JAMMU,JAMMU,JAMMU & KASHMIR,JAMMU,SRINAGAR HQ,JAMMUKASHMIR
New Fruit Market S.O,Sub Post Office,180012,,JAMMU,JAMMU,JAMMU & KASHMIR,JAMMU,SRINAGAR HQ,JAMMUKASHMIR
New Sectt.Jammu S.O,Sub Post Office,180001,0191-2573498,JAMMU,JAMMU,JAMMU & KASHMIR,JAMMU,SRINAGAR HQ,JAMMUKASHMIR
New University Campus S.O,Sub Post Office,180006,0191-2430958,JAMMU,JAMMU,JAMMU & KASHMIR,JAMMU,SRINAGAR HQ,JAMMUKASHMIR
Nikkian B.O,Branch Post Office,181203,,JAMMU,JAMMU,JAMMU & KASHMIR,JAMMU,SRINAGAR HQ,JAMMUKASHMIR
O.H.Road S.O,Sub Post Office,180001,0191-2573392,JAMMU,JAMMU,JAMMU & KASHMIR,JAMMU,SRINAGAR HQ,JAMMUKASHMIR
Pacca Danga Akhnoor S.O,Sub Post Office,181201,01924-252258,JAMMU,JAMMU,JAMMU & KASHMIR,JAMMU,SRINAGAR HQ,JAMMUKASHMIR
Pallanwala S.O,Sub Post Office,181204,,JAMMU,JAMMU,JAMMU & KASHMIR,JAMMU,SRINAGAR HQ,JAMMUKASHMIR
Palli B.O,Branch Post Office,181132,,JAMMU,JAMMU,JAMMU & KASHMIR,JAMMU,SRINAGAR HQ,JAMMUKASHMIR
Paloura S.O,Sub Post Office,181121,0191-2531029,JAMMU,JAMMU,JAMMU & KASHMIR,JAMMU,SRINAGAR HQ,JAMMUKASHMIR
Pandorian Manhasan B.O,Branch Post Office,181132,,JAMMU,JAMMU,JAMMU & KASHMIR,JAMMU,SRINAGAR HQ,JAMMUKASHMIR
Pangdour B.O,Branch Post Office,184121,,JAMMU,JAMMU,JAMMU & KASHMIR,JAMMU,SRINAGAR HQ,JAMMUKASHMIR
Panjgrain B.O,Branch Post Office,181221,,JAMMU,JAMMU,JAMMU & KASHMIR,JAMMU,SRINAGAR HQ,JAMMUKASHMIR
Pargwal S.O,Sub Post Office,181207,,JAMMU,JAMMU,JAMMU & KASHMIR,JAMMU,SRINAGAR HQ,JAMMUKASHMIR
Parlah B.O,Branch Post Office,181131,,JAMMU,JAMMU,JAMMU & KASHMIR,JAMMU,SRINAGAR HQ,JAMMUKASHMIR
Paryal B.O,Branch Post Office,181206,,JAMMU,JAMMU,JAMMU & KASHMIR,JAMMU,SRINAGAR HQ,JAMMUKASHMIR
Peermitha S.O,Sub Post Office,180001,0191-2577632,JAMMU,JAMMU,JAMMU & KASHMIR,JAMMU,SRINAGAR HQ,JAMMUKASHMIR
Pindicharka Kalan B.O,Branch Post Office,181131,,JAMMU,JAMMU,JAMMU & KASHMIR,JAMMU,SRINAGAR HQ,JAMMUKASHMIR
Puran Nagar S.O,Sub Post Office,180005,0191-2548685,JAMMU,JAMMU,JAMMU & KASHMIR,JAMMU,SRINAGAR HQ,JAMMUKASHMIR
Purmandal S.O,Sub Post Office,181145,,JAMMU,JAMMU,JAMMU & KASHMIR,JAMMU,SRINAGAR HQ,JAMMUKASHMIR
Qilla Bahu S.O,Sub Post Office,180006,,JAMMU,JAMMU,JAMMU & KASHMIR,JAMMU,SRINAGAR HQ,JAMMUKASHMIR
R.N.Bazar S.O,Sub Post Office,180001,0191-2577659,JAMMU,JAMMU,JAMMU & KASHMIR,JAMMU,SRINAGAR HQ,JAMMUKASHMIR
R.S.Pura Adda S.O,Sub Post Office,181102,01923-252313,JAMMU,JAMMU,JAMMU & KASHMIR,JAMMU,SRINAGAR HQ,JAMMUKASHMIR
R.S.Pura S.O,Sub Post Office,181102,01923-252313,JAMMU,JAMMU,JAMMU & KASHMIR,JAMMU,SRINAGAR HQ,JAMMUKASHMIR
Rabta B.O,Branch Post Office,181122,,JAMMU,JAMMU,JAMMU & KASHMIR,JAMMU,SRINAGAR HQ,JAMMUKASHMIR
Rahya B.O,Branch Post Office,181143,,JAMMU,JAMMU,JAMMU & KASHMIR,JAMMU,SRINAGAR HQ,JAMMUKASHMIR
Raika S.O,Sub Post Office,181151,,JAMMU,JAMMU,JAMMU & KASHMIR,JAMMU,SRINAGAR HQ,JAMMUKASHMIR
Railway Station S.O,Sub Post Office,180012,0191-2473419,JAMMU,JAMMU,JAMMU & KASHMIR,JAMMU,SRINAGAR HQ,JAMMUKASHMIR
Raipur B.O,Branch Post Office,181123,,JAMMU,JAMMU,JAMMU & KASHMIR,JAMMU,SRINAGAR HQ,JAMMUKASHMIR
Rajinderpura B.O,Branch Post Office,181143,,JAMMU,JAMMU,JAMMU & KASHMIR,JAMMU,SRINAGAR HQ,JAMMUKASHMIR
Ramgarh S.O,Sub Post Office,181141,01923-234326,JAMMU,JAMMU,JAMMU & KASHMIR,JAMMU,SRINAGAR HQ,JAMMUKASHMIR
Rangpur Malania B.O,Branch Post Office,181102,,JAMMU,JAMMU,JAMMU & KASHMIR,JAMMU,SRINAGAR HQ,JAMMUKASHMIR
Rangpur Trewa B.O,Branch Post Office,181131,,JAMMU,JAMMU,JAMMU & KASHMIR,JAMMU,SRINAGAR HQ,JAMMUKASHMIR
Ranjan B.O,Branch Post Office,181122,,JAMMU,JAMMU,JAMMU & KASHMIR,JAMMU,SRINAGAR HQ,JAMMUKASHMIR
Rathana B.O,Branch Post Office,181111,,JAMMU,JAMMU,JAMMU & KASHMIR,JAMMU,SRINAGAR HQ,JAMMUKASHMIR
Rattisn B.O,Branch Post Office,181101,,JAMMU,JAMMU,JAMMU & KASHMIR,JAMMU,SRINAGAR HQ,JAMMUKASHMIR
Rehal B.O,Branch Post Office,181132,,JAMMU,JAMMU,JAMMU & KASHMIR,JAMMU,SRINAGAR HQ,JAMMUKASHMIR
Rehari Mohalla S.O,Sub Post Office,180005,0191-2577014,JAMMU,JAMMU,JAMMU & KASHMIR,JAMMU,SRINAGAR HQ,JAMMUKASHMIR
Rehiyan B.O,Branch Post Office,184121,,JAMMU,JAMMU,JAMMU & KASHMIR,JAMMU,SRINAGAR HQ,JAMMUKASHMIR
Roopnagar Jammu Tawi S.O,Sub Post Office,180013,,JAMMU,JAMMU,JAMMU & KASHMIR,JAMMU,SRINAGAR HQ,JAMMUKASHMIR
Sadhoti B.O,Branch Post Office,185154,,JAMMU,JAMMU,JAMMU & KASHMIR,JAMMU,SRINAGAR HQ,JAMMUKASHMIR
Sai Kalan B.O,Branch Post Office,181131,,JAMMU,JAMMU,JAMMU & KASHMIR,JAMMU,SRINAGAR HQ,JAMMUKASHMIR
Sainik Colony S.O,Sub Post Office,180011,,JAMMU,JAMMU,JAMMU & KASHMIR,JAMMU,SRINAGAR HQ,JAMMUKASHMIR
Sainth B.O,Branch Post Office,181203,,JAMMU,JAMMU,JAMMU & KASHMIR,JAMMU,SRINAGAR HQ,JAMMUKASHMIR
Salehar B.O,Branch Post Office,181111,,JAMMU,JAMMU,JAMMU & KASHMIR,JAMMU,SRINAGAR HQ,JAMMUKASHMIR
Samba Adda S.O,Sub Post Office,184121,01923-243230,JAMMU,JAMMU,JAMMU & KASHMIR,JAMMU,SRINAGAR HQ,JAMMUKASHMIR
Samba S.O,Sub Post Office,184121,01923-243526,JAMMU,JAMMU,JAMMU & KASHMIR,JAMMU,SRINAGAR HQ,JAMMUKASHMIR
Sangrampur B.O,Branch Post Office,180002,,JAMMU,JAMMU,JAMMU & KASHMIR,JAMMU,SRINAGAR HQ,JAMMUKASHMIR
Sanjwan B.O,Branch Post Office,184120,,JAMMU,JAMMU,JAMMU & KASHMIR,JAMMU,SRINAGAR HQ,JAMMUKASHMIR
Sarna B.O,Branch Post Office,184121,,JAMMU,JAMMU,JAMMU & KASHMIR,JAMMU,SRINAGAR HQ,JAMMUKASHMIR
Sarore B.O,Branch Post Office,181133,,JAMMU,JAMMU,JAMMU & KASHMIR,JAMMU,SRINAGAR HQ,JAMMUKASHMIR
Sarote B.O,Branch Post Office,181122,,JAMMU,JAMMU,JAMMU & KASHMIR,JAMMU,SRINAGAR HQ,JAMMUKASHMIR
Satrayan B.O,Branch Post Office,181102,,JAMMU,JAMMU,JAMMU & KASHMIR,JAMMU,SRINAGAR HQ,JAMMUKASHMIR
Seri Panditan B.O,Branch Post Office,181122,,JAMMU,JAMMU,JAMMU & KASHMIR,JAMMU,SRINAGAR HQ,JAMMUKASHMIR
Shaheedi Chowk Jammu S.O,Sub Post Office,180001,,JAMMU,JAMMU,JAMMU & KASHMIR,JAMMU,SRINAGAR HQ,JAMMUKASHMIR
Shaktinagar Jammu S.O,Sub Post Office,180001,,JAMMU,JAMMU,JAMMU & KASHMIR,JAMMU,SRINAGAR HQ,JAMMUKASHMIR
Shamka B.O,Branch Post Office,181102,,JAMMU,JAMMU,JAMMU & KASHMIR,JAMMU,SRINAGAR HQ,JAMMUKASHMIR
Shiba B.O,Branch Post Office,181221,,JAMMU,JAMMU,JAMMU & KASHMIR,JAMMU,SRINAGAR HQ,JAMMUKASHMIR
Simble Camp S.O,Sub Post Office,181104,,JAMMU,JAMMU,JAMMU & KASHMIR,JAMMU,SRINAGAR HQ,JAMMUKASHMIR
Smailpur B.O,Branch Post Office,181133,,JAMMU,JAMMU,JAMMU & KASHMIR,JAMMU,SRINAGAR HQ,JAMMUKASHMIR
Sohanjana B.O,Branch Post Office,180003,,JAMMU,JAMMU,JAMMU & KASHMIR,JAMMU,SRINAGAR HQ,JAMMUKASHMIR
Subash Nagar Jammu S.O,Sub Post Office,180005,,JAMMU,JAMMU,JAMMU & KASHMIR,JAMMU,SRINAGAR HQ,JAMMUKASHMIR
Suchetgarh B.O,Branch Post Office,181102,,JAMMU,JAMMU,JAMMU & KASHMIR,JAMMU,SRINAGAR HQ,JAMMUKASHMIR
Sumb B.O,Branch Post Office,184121,,JAMMU,JAMMU,JAMMU & KASHMIR,JAMMU,SRINAGAR HQ,JAMMUKASHMIR
Sungal B.O,Branch Post Office,181201,,JAMMU,JAMMU,JAMMU & KASHMIR,JAMMU,SRINAGAR HQ,JAMMUKASHMIR
Sunjwan B.O,Branch Post Office,180011,,JAMMU,JAMMU,JAMMU & KASHMIR,JAMMU,SRINAGAR HQ,JAMMUKASHMIR
Surinsar B.O,Branch Post Office,180017,,JAMMU,JAMMU,JAMMU & KASHMIR,JAMMU,SRINAGAR HQ,JAMMUKASHMIR
Suryavihar B.O,Branch Post Office,180002,,JAMMU,JAMMU,JAMMU & KASHMIR,JAMMU,SRINAGAR HQ,JAMMUKASHMIR
Swankha B.O,Branch Post Office,184120,,JAMMU,JAMMU,JAMMU & KASHMIR,JAMMU,SRINAGAR HQ,JAMMUKASHMIR
Tahra B.O,Branch Post Office,181224,,JAMMU,JAMMU,JAMMU & KASHMIR,JAMMU,SRINAGAR HQ,JAMMUKASHMIR
Talab Tillo S.O,Sub Post Office,180002,0191-2554629,JAMMU,JAMMU,JAMMU & KASHMIR,JAMMU,SRINAGAR HQ,JAMMUKASHMIR
Talhar B.O,Branch Post Office,181131,,JAMMU,JAMMU,JAMMU & KASHMIR,JAMMU,SRINAGAR HQ,JAMMUKASHMIR
Taloor B.O,Branch Post Office,184121,,JAMMU,JAMMU,JAMMU & KASHMIR,JAMMU,SRINAGAR HQ,JAMMUKASHMIR
Tarore B.O,Branch Post Office,181133,,JAMMU,JAMMU,JAMMU & KASHMIR,JAMMU,SRINAGAR HQ,JAMMUKASHMIR
Topsherkhania B.O,Branch Post Office,181121,,JAMMU,JAMMU,JAMMU & KASHMIR,JAMMU,SRINAGAR HQ,JAMMUKASHMIR
Transport Yard S.O,Sub Post Office,180004,0191-2452799,JAMMU,JAMMU,JAMMU & KASHMIR,JAMMU,SRINAGAR HQ,JAMMUKASHMIR
Trikuta Nagar S.O,Sub Post Office,180012,0191-2474324,JAMMU,JAMMU,JAMMU & KASHMIR,JAMMU,SRINAGAR HQ,JAMMUKASHMIR
University Campus S.O,Sub Post Office,180016,0191-2573085,JAMMU,JAMMU,JAMMU & KASHMIR,JAMMU,SRINAGAR HQ,JAMMUKASHMIR
Utter Behni B.O,Branch Post Office,181145,,JAMMU,JAMMU,JAMMU & KASHMIR,JAMMU,SRINAGAR HQ,JAMMUKASHMIR
Vijaypur S.O,Sub Post Office,184120,01923-231026,JAMMU,JAMMU,JAMMU & KASHMIR,JAMMU,SRINAGAR HQ,JAMMUKASHMIR
Vinaik Bazar S.O,Sub Post Office,180016,0191-2549638,JAMMU,JAMMU,JAMMU & KASHMIR,JAMMU,SRINAGAR HQ,JAMMUKASHMIR
Drass S.O,Sub Post Office,194102,,Drass,KARGIL,JAMMU & KASHMIR,LEH,SRINAGAR HQ,JAMMUKASHMIR
Akchamal B.O,Branch Post Office,194103,,Kargil,KARGIL,JAMMU & KASHMIR,LEH,SRINAGAR HQ,JAMMUKASHMIR
Baroo S.O,Sub Post Office,194105,,Kargil,KARGIL,JAMMU & KASHMIR,LEH,SRINAGAR HQ,JAMMUKASHMIR
Barsoo B.O,Branch Post Office,194301,,Kargil,KARGIL,JAMMU & KASHMIR,LEH,SRINAGAR HQ,JAMMUKASHMIR
Batalik B.O,Branch Post Office,194103,,Kargil,KARGIL,JAMMU & KASHMIR,LEH,SRINAGAR HQ,JAMMUKASHMIR
Bhimbat B.O,Branch Post Office,194102,,Kargil,KARGIL,JAMMU & KASHMIR,LEH,SRINAGAR HQ,JAMMUKASHMIR
Chanigund B.O,Branch Post Office,194103,,Kargil,KARGIL,JAMMU & KASHMIR,LEH,SRINAGAR HQ,JAMMUKASHMIR
Chiktan B.O,Branch Post Office,194109,,Kargil,KARGIL,JAMMU & KASHMIR,LEH,SRINAGAR HQ,JAMMUKASHMIR
Chokiyal B.O,Branch Post Office,194102,,Kargil,KARGIL,JAMMU & KASHMIR,LEH,SRINAGAR HQ,JAMMUKASHMIR
Garkon B.O,Branch Post Office,194103,,Kargil,KARGIL,JAMMU & KASHMIR,LEH,SRINAGAR HQ,JAMMUKASHMIR
Hardas B.O,Branch Post Office,194103,,Kargil,KARGIL,JAMMU & KASHMIR,LEH,SRINAGAR HQ,JAMMUKASHMIR
Karamba B.O,Branch Post Office,194109,,Kargil,KARGIL,JAMMU & KASHMIR,LEH,SRINAGAR HQ,JAMMUKASHMIR
Kargil S.O,Sub Post Office,194103,,Kargil,KARGIL,JAMMU & KASHMIR,LEH,SRINAGAR HQ,JAMMUKASHMIR
Karkitchoo B.O,Branch Post Office,194103,,Kargil,KARGIL,JAMMU & KASHMIR,LEH,SRINAGAR HQ,JAMMUKASHMIR
Lankarchey B.O,Branch Post Office,194301,,Kargil,KARGIL,JAMMU & KASHMIR,LEH,SRINAGAR HQ,JAMMUKASHMIR
Lochum B.O,Branch Post Office,194109,,Kargil,KARGIL,JAMMU & KASHMIR,LEH,SRINAGAR HQ,JAMMUKASHMIR
Matayan B.O,Branch Post Office,194102,,KaRGIL,KARGIL,JAMMU & KASHMIR,LEH,SRINAGAR HQ,JAMMUKASHMIR
Minji B.O,Branch Post Office,194105,,Kargil,KARGIL,JAMMU & KASHMIR,LEH,SRINAGAR HQ,JAMMUKASHMIR
Mushkoo B.O,Branch Post Office,194102,,Kargil,KARGIL,JAMMU & KASHMIR,LEH,SRINAGAR HQ,JAMMUKASHMIR
Namsuru B.O,Branch Post Office,194301,,Kargil,KARGIL,JAMMU & KASHMIR,LEH,SRINAGAR HQ,JAMMUKASHMIR
Pandrass B.O,Branch Post Office,194102,,Kargil,KARGIL,JAMMU & KASHMIR,LEH,SRINAGAR HQ,JAMMUKASHMIR
Panikhar B.O,Branch Post Office,194301,,Kargil,KARGIL,JAMMU & KASHMIR,LEH,SRINAGAR HQ,JAMMUKASHMIR
Parkachik B.O,Branch Post Office,194301,,Kargil,KARGIL,JAMMU & KASHMIR,LEH,SRINAGAR HQ,JAMMUKASHMIR
Pashkum B.O,Branch Post Office,194103,,Kargil,KARGIL,JAMMU & KASHMIR,LEH,SRINAGAR HQ,JAMMUKASHMIR
Purthikchey B.O,Branch Post Office,194301,,Kargil,KARGIL,JAMMU & KASHMIR,LEH,SRINAGAR HQ,JAMMUKASHMIR
Safi B.O,Branch Post Office,194109,,Kargil,KARGIL,JAMMU & KASHMIR,LEH,SRINAGAR HQ,JAMMUKASHMIR
Saliskot B.O,Branch Post Office,194105,,Kargil,KARGIL,JAMMU & KASHMIR,LEH,SRINAGAR HQ,JAMMUKASHMIR
Samray B.O,Branch Post Office,194109,,Kargil,KARGIL,JAMMU & KASHMIR,LEH,SRINAGAR HQ,JAMMUKASHMIR
Shaimshakharboo B.O,Branch Post Office,194103,,Kargil,KARGIL,JAMMU & KASHMIR,LEH,SRINAGAR HQ,JAMMUKASHMIR
Shakar B.O,Branch Post Office,194109,,Kargil,KARGIL,JAMMU & KASHMIR,LEH,SRINAGAR HQ,JAMMUKASHMIR
Shargol B.O,Branch Post Office,194109,,Kargil,KARGIL,JAMMU & KASHMIR,LEH,SRINAGAR HQ,JAMMUKASHMIR
Silmoh B.O,Branch Post Office,194103,,kargil,KARGIL,JAMMU & KASHMIR,LEH,SRINAGAR HQ,JAMMUKASHMIR
Tache B.O,Branch Post Office,194109,,Kargil,KARGIL,JAMMU & KASHMIR,LEH,SRINAGAR HQ,JAMMUKASHMIR
Tambis B.O,Branch Post Office,194105,,Kargil,KARGIL,JAMMU & KASHMIR,LEH,SRINAGAR HQ,JAMMUKASHMIR
Thasgam B.O,Branch Post Office,194103,,Kargil,KARGIL,JAMMU & KASHMIR,LEH,SRINAGAR HQ,JAMMUKASHMIR
Tikat B.O,Branch Post Office,194301,,Kargil,KARGIL,JAMMU & KASHMIR,LEH,SRINAGAR HQ,JAMMUKASHMIR
Trespon B.O,Branch Post Office,194105,,Kargil,KARGIL,JAMMU & KASHMIR,LEH,SRINAGAR HQ,JAMMUKASHMIR
Trespon B.O,Branch Post Office,194105,,Kargil,KARGIL,JAMMU & KASHMIR,LEH,SRINAGAR HQ,JAMMUKASHMIR
Tumail B.O,Branch Post Office,194103,,Kargil,KARGIL,JAMMU & KASHMIR,LEH,SRINAGAR HQ,JAMMUKASHMIR
Tumail Colony B.O,Branch Post Office,194103,,KARGIL,KARGIL,JAMMU & KASHMIR,LEH,SRINAGAR HQ,JAMMUKASHMIR
Yuljuk B.O,Branch Post Office,194301,,Kargil,KARGIL,JAMMU & KASHMIR,LEH,SRINAGAR HQ,JAMMUKASHMIR
Yurbaltik B.O,Branch Post Office,194103,,Kargil,KARGIL,JAMMU & KASHMIR,LEH,SRINAGAR HQ,JAMMUKASHMIR
Bodhkharboo B.O,Branch Post Office,194109,,Kargil Kargil,KARGIL,JAMMU & KASHMIR,LEH,SRINAGAR HQ,JAMMUKASHMIR
Khasgam Thuina B.O,Branch Post Office,194301,,Kargil Kargil,KARGIL,JAMMU & KASHMIR,LEH,SRINAGAR HQ,JAMMUKASHMIR
Omba B.O,Branch Post Office,194301,,Kargil Kargil,KARGIL,JAMMU & KASHMIR,LEH,SRINAGAR HQ,JAMMUKASHMIR
Wakha B.O,Branch Post Office,194109,,Kargil; Kargil,KARGIL,JAMMU & KASHMIR,LEH,SRINAGAR HQ,JAMMUKASHMIR
Choskor B.O,Branch Post Office,194105,,Kargilr,KARGIL,JAMMU & KASHMIR,LEH,SRINAGAR HQ,JAMMUKASHMIR
Sangra B.O,Branch Post Office,194301,,Kargl,KARGIL,JAMMU & KASHMIR,LEH,SRINAGAR HQ,JAMMUKASHMIR
Pashkum B.O,Branch Post Office,194103,,Katrgil,KARGIL,JAMMU & KASHMIR,LEH,SRINAGAR HQ,JAMMUKASHMIR
Mulbek S.O,Sub Post Office,194109,,Mulbek,KARGIL,JAMMU & KASHMIR,LEH,SRINAGAR HQ,JAMMUKASHMIR
Sankoo S.O,Sub Post Office,194301,,Sankoo,KARGIL,JAMMU & KASHMIR,LEH,SRINAGAR HQ,JAMMUKASHMIR
Karsha B.O,Branch Post Office,194302,,Zanskar,KARGIL,JAMMU & KASHMIR,LEH,SRINAGAR HQ,JAMMUKASHMIR
Padum S.O,Sub Post Office,194302,,Zanskar,KARGIL,JAMMU & KASHMIR,LEH,SRINAGAR HQ,JAMMUKASHMIR
Zangla B.O,Branch Post Office,194302,,Zanskar,KARGIL,JAMMU & KASHMIR,LEH,SRINAGAR HQ,JAMMUKASHMIR
Dilwan B.O,Branch Post Office,184102,,.,KATHUA,JAMMU & KASHMIR,UDHAMPUR,SRINAGAR HQ,JAMMUKASHMIR
Kothera B.O,Branch Post Office,184104,,.,KATHUA,JAMMU & KASHMIR,UDHAMPUR,SRINAGAR HQ,JAMMUKASHMIR
Bandhar B.O,Branch Post Office,184206,,BANI,KATHUA,JAMMU & KASHMIR,UDHAMPUR,SRINAGAR HQ,JAMMUKASHMIR
Bani S.O,Sub Post Office,184206,,BANI,KATHUA,JAMMU & KASHMIR,UDHAMPUR,SRINAGAR HQ,JAMMUKASHMIR
Chalog B.O,Branch Post Office,184206,,BANI,KATHUA,JAMMU & KASHMIR,UDHAMPUR,SRINAGAR HQ,JAMMUKASHMIR
Daggar B.O,Branch Post Office,184206,,BANI,KATHUA,JAMMU & KASHMIR,UDHAMPUR,SRINAGAR HQ,JAMMUKASHMIR
Duggan B.O,Branch Post Office,184206,,BANI,KATHUA,JAMMU & KASHMIR,UDHAMPUR,SRINAGAR HQ,JAMMUKASHMIR
Dulangal B.O,Branch Post Office,184206,,BANI,KATHUA,JAMMU & KASHMIR,UDHAMPUR,SRINAGAR HQ,JAMMUKASHMIR
Fatehpur B.O,Branch Post Office,184206,,BANI,KATHUA,JAMMU & KASHMIR,UDHAMPUR,SRINAGAR HQ,JAMMUKASHMIR
Gitti B.O,Branch Post Office,184206,,BANI,KATHUA,JAMMU & KASHMIR,UDHAMPUR,SRINAGAR HQ,JAMMUKASHMIR
Kanthal B.O,Branch Post Office,184206,,BANI,KATHUA,JAMMU & KASHMIR,UDHAMPUR,SRINAGAR HQ,JAMMUKASHMIR
Lowang B.O,Branch Post Office,184206,,BANI,KATHUA,JAMMU & KASHMIR,UDHAMPUR,SRINAGAR HQ,JAMMUKASHMIR
Roulka B.O,Branch Post Office,184206,,BANI,KATHUA,JAMMU & KASHMIR,UDHAMPUR,SRINAGAR HQ,JAMMUKASHMIR
Sitti B.O,Branch Post Office,184206,,BANI,KATHUA,JAMMU & KASHMIR,UDHAMPUR,SRINAGAR HQ,JAMMUKASHMIR
Banhore B.O,Branch Post Office,184202,,BASOLI,KATHUA,JAMMU & KASHMIR,UDHAMPUR,SRINAGAR HQ,JAMMUKASHMIR
Banjal B.O,Branch Post Office,184201,,BASOLI,KATHUA,JAMMU & KASHMIR,UDHAMPUR,SRINAGAR HQ,JAMMUKASHMIR
Basoli S.O,Sub Post Office,184201,,BASOLI,KATHUA,JAMMU & KASHMIR,UDHAMPUR,SRINAGAR HQ,JAMMUKASHMIR
Bhoond B.O,Branch Post Office,184201,,BASOLI,KATHUA,JAMMU & KASHMIR,UDHAMPUR,SRINAGAR HQ,JAMMUKASHMIR
Dhar Mahanpur B.O,Branch Post Office,184202,,BASOLI,KATHUA,JAMMU & KASHMIR,UDHAMPUR,SRINAGAR HQ,JAMMUKASHMIR
Draman B.O,Branch Post Office,184201,,BASOLI,KATHUA,JAMMU & KASHMIR,UDHAMPUR,SRINAGAR HQ,JAMMUKASHMIR
Farnot B.O,Branch Post Office,184201,,BASOLI,KATHUA,JAMMU & KASHMIR,UDHAMPUR,SRINAGAR HQ,JAMMUKASHMIR
Hutt B.O,Branch Post Office,184201,,BASOLI,KATHUA,JAMMU & KASHMIR,UDHAMPUR,SRINAGAR HQ,JAMMUKASHMIR
Jandrota B.O,Branch Post Office,184201,,BASOLI,KATHUA,JAMMU & KASHMIR,UDHAMPUR,SRINAGAR HQ,JAMMUKASHMIR
Karanwara B.O,Branch Post Office,184202,,BASOLI,KATHUA,JAMMU & KASHMIR,UDHAMPUR,SRINAGAR HQ,JAMMUKASHMIR
Mahanpur S.O,Sub Post Office,184202,,BASOLI,KATHUA,JAMMU & KASHMIR,UDHAMPUR,SRINAGAR HQ,JAMMUKASHMIR
Marapatti B.O,Branch Post Office,184202,,BASOLI,KATHUA,JAMMU & KASHMIR,UDHAMPUR,SRINAGAR HQ,JAMMUKASHMIR
Dhyangarh B.O,Branch Post Office,182312,,REASI,UDHAMPUR,JAMMU & KASHMIR,UDHAMPUR,SRINAGAR HQ,JAMMUKASHMIR
Gelhan B.O,Branch Post Office,185203,,REASI,UDHAMPUR,JAMMU & KASHMIR,UDHAMPUR,SRINAGAR HQ,JAMMUKASHMIR
Jyotipuram S.O,Sub Post Office,182312,,REASI,UDHAMPUR,JAMMU & KASHMIR,UDHAMPUR,SRINAGAR HQ,JAMMUKASHMIR
Katra S.O,Sub Post Office,182301,,REASI,UDHAMPUR,JAMMU & KASHMIR,UDHAMPUR,SRINAGAR HQ,JAMMUKASHMIR
Khairal B.O,Branch Post Office,182311,,REASI,UDHAMPUR,JAMMU & KASHMIR,UDHAMPUR,SRINAGAR HQ,JAMMUKASHMIR
Khairlarh B.O,Branch Post Office,185203,,REASI,UDHAMPUR,JAMMU & KASHMIR,UDHAMPUR,SRINAGAR HQ,JAMMUKASHMIR
Kund Kantari B.O,Branch Post Office,185203,,REASI,UDHAMPUR,JAMMU & KASHMIR,UDHAMPUR,SRINAGAR HQ,JAMMUKASHMIR
Mangal B.O,Branch Post Office,182301,,REASI,UDHAMPUR,JAMMU & KASHMIR,UDHAMPUR,SRINAGAR HQ,JAMMUKASHMIR
Mari B.O,Branch Post Office,182311,,REASI,UDHAMPUR,JAMMU & KASHMIR,UDHAMPUR,SRINAGAR HQ,JAMMUKASHMIR
Nomain B.O,Branch Post Office,182301,,REASI,UDHAMPUR,JAMMU & KASHMIR,UDHAMPUR,SRINAGAR HQ,JAMMUKASHMIR
Poni S.O,Sub Post Office,185203,,REASI,UDHAMPUR,JAMMU & KASHMIR,UDHAMPUR,SRINAGAR HQ,JAMMUKASHMIR
Porakotla B.O,Branch Post Office,185203,,REASI,UDHAMPUR,JAMMU & KASHMIR,UDHAMPUR,SRINAGAR HQ,JAMMUKASHMIR
Ransoo B.O,Branch Post Office,185203,,REASI,UDHAMPUR,JAMMU & KASHMIR,UDHAMPUR,SRINAGAR HQ,JAMMUKASHMIR
Reasi S.O,Sub Post Office,182311,,REASI,UDHAMPUR,JAMMU & KASHMIR,UDHAMPUR,SRINAGAR HQ,JAMMUKASHMIR
Salal B.O,Branch Post Office,182312,,REASI,UDHAMPUR,JAMMU & KASHMIR,UDHAMPUR,SRINAGAR HQ,JAMMUKASHMIR
Sarhoti B.O,Branch Post Office,185203,,REASI,UDHAMPUR,JAMMU & KASHMIR,UDHAMPUR,SRINAGAR HQ,JAMMUKASHMIR
Sila B.O,Branch Post Office,182311,,REASI,UDHAMPUR,JAMMU & KASHMIR,UDHAMPUR,SRINAGAR HQ,JAMMUKASHMIR
Sukhalghar B.O,Branch Post Office,182311,,REASI,UDHAMPUR,JAMMU & KASHMIR,UDHAMPUR,SRINAGAR HQ,JAMMUKASHMIR
Surjan Dhar B.O,Branch Post Office,182311,,REASI,UDHAMPUR,JAMMU & KASHMIR,UDHAMPUR,SRINAGAR HQ,JAMMUKASHMIR
Talwara Colony S.O,Sub Post Office,182320,,REASI,UDHAMPUR,JAMMU & KASHMIR,UDHAMPUR,SRINAGAR HQ,JAMMUKASHMIR
Taryath B.O,Branch Post Office,185203,,REASI,UDHAMPUR,JAMMU & KASHMIR,UDHAMPUR,SRINAGAR HQ,JAMMUKASHMIR
Tote B.O,Branch Post Office,182311,,REASI,UDHAMPUR,JAMMU & KASHMIR,UDHAMPUR,SRINAGAR HQ,JAMMUKASHMIR
Vaishno Devi B.O,Branch Post Office,182301,,REASI,UDHAMPUR,JAMMU & KASHMIR,UDHAMPUR,SRINAGAR HQ,JAMMUKASHMIR
Vijaypur B.O,Branch Post Office,182311,,REASI,UDHAMPUR,JAMMU & KASHMIR,UDHAMPUR,SRINAGAR HQ,JAMMUKASHMIR
Bainsta B.O,Branch Post Office,182125,,UDHAMPUR,UDHAMPUR,JAMMU & KASHMIR,UDHAMPUR,SRINAGAR HQ,JAMMUKASHMIR
Bali B.O,Branch Post Office,182101,,UDHAMPUR,UDHAMPUR,JAMMU & KASHMIR,UDHAMPUR,SRINAGAR HQ,JAMMUKASHMIR
Barerian B.O,Branch Post Office,182125,,UDHAMPUR,UDHAMPUR,JAMMU & KASHMIR,UDHAMPUR,SRINAGAR HQ,JAMMUKASHMIR
Barmeen B.O,Branch Post Office,182124,,UDHAMPUR,UDHAMPUR,JAMMU & KASHMIR,UDHAMPUR,SRINAGAR HQ,JAMMUKASHMIR
Barola B.O,Branch Post Office,182121,,UDHAMPUR,UDHAMPUR,JAMMU & KASHMIR,UDHAMPUR,SRINAGAR HQ,JAMMUKASHMIR
Bhatiari B.O,Branch Post Office,182125,,UDHAMPUR,UDHAMPUR,JAMMU & KASHMIR,UDHAMPUR,SRINAGAR HQ,JAMMUKASHMIR
Chak Rakhwalan B.O,Branch Post Office,182101,,UDHAMPUR,UDHAMPUR,JAMMU & KASHMIR,UDHAMPUR,SRINAGAR HQ,JAMMUKASHMIR
Chanunta B.O,Branch Post Office,182124,,UDHAMPUR,UDHAMPUR,JAMMU & KASHMIR,UDHAMPUR,SRINAGAR HQ,JAMMUKASHMIR
Charyari B.O,Branch Post Office,182121,,UDHAMPUR,UDHAMPUR,JAMMU & KASHMIR,UDHAMPUR,SRINAGAR HQ,JAMMUKASHMIR
Chenani S.O,Sub Post Office,182141,,UDHAMPUR,UDHAMPUR,JAMMU & KASHMIR,UDHAMPUR,SRINAGAR HQ,JAMMUKASHMIR
Damnet B.O,Branch Post Office,182125,,UDHAMPUR,UDHAMPUR,JAMMU & KASHMIR,UDHAMPUR,SRINAGAR HQ,JAMMUKASHMIR
Dhandal B.O,Branch Post Office,182124,,UDHAMPUR,UDHAMPUR,JAMMU & KASHMIR,UDHAMPUR,SRINAGAR HQ,JAMMUKASHMIR
Galiote B.O,Branch Post Office,182125,,UDHAMPUR,UDHAMPUR,JAMMU & KASHMIR,UDHAMPUR,SRINAGAR HQ,JAMMUKASHMIR
Gandala B.O,Branch Post Office,182101,,UDHAMPUR,UDHAMPUR,JAMMU & KASHMIR,UDHAMPUR,SRINAGAR HQ,JAMMUKASHMIR
Garhi S.O,Sub Post Office,182121,,UDHAMPUR,UDHAMPUR,JAMMU & KASHMIR,UDHAMPUR,SRINAGAR HQ,JAMMUKASHMIR
Garnai B.O,Branch Post Office,182121,,UDHAMPUR,UDHAMPUR,JAMMU & KASHMIR,UDHAMPUR,SRINAGAR HQ,JAMMUKASHMIR
Hartrian B.O,Branch Post Office,182124,,UDHAMPUR,UDHAMPUR,JAMMU & KASHMIR,UDHAMPUR,SRINAGAR HQ,JAMMUKASHMIR
Hartriyan B.O,Branch Post Office,182121,,UDHAMPUR,UDHAMPUR,JAMMU & KASHMIR,UDHAMPUR,SRINAGAR HQ,JAMMUKASHMIR
Jaganoo S.O,Sub Post Office,182124,01992-244527,UDHAMPUR,UDHAMPUR,JAMMU & KASHMIR,UDHAMPUR,SRINAGAR HQ,JAMMUKASHMIR
Jakhani B.O,Branch Post Office,182101,,UDHAMPUR,UDHAMPUR,JAMMU & KASHMIR,UDHAMPUR,SRINAGAR HQ,JAMMUKASHMIR
Jangalgali B.O,Branch Post Office,182121,,UDHAMPUR,UDHAMPUR,JAMMU & KASHMIR,UDHAMPUR,SRINAGAR HQ,JAMMUKASHMIR
Jib B.O,Branch Post Office,182121,,UDHAMPUR,UDHAMPUR,JAMMU & KASHMIR,UDHAMPUR,SRINAGAR HQ,JAMMUKASHMIR
Johnu B.O,Branch Post Office,182124,,UDHAMPUR,UDHAMPUR,JAMMU & KASHMIR,UDHAMPUR,SRINAGAR HQ,JAMMUKASHMIR
Kaghote B.O,Branch Post Office,182125,,UDHAMPUR,UDHAMPUR,JAMMU & KASHMIR,UDHAMPUR,SRINAGAR HQ,JAMMUKASHMIR
Kainthgali B.O,Branch Post Office,182125,,UDHAMPUR,UDHAMPUR,JAMMU & KASHMIR,UDHAMPUR,SRINAGAR HQ,JAMMUKASHMIR
Kakrial B.O,Branch Post Office,182121,,UDHAMPUR,UDHAMPUR,JAMMU & KASHMIR,UDHAMPUR,SRINAGAR HQ,JAMMUKASHMIR
Kaldi B.O,Branch Post Office,182124,,UDHAMPUR,UDHAMPUR,JAMMU & KASHMIR,UDHAMPUR,SRINAGAR HQ,JAMMUKASHMIR
Kalsote B.O,Branch Post Office,182125,,UDHAMPUR,UDHAMPUR,JAMMU & KASHMIR,UDHAMPUR,SRINAGAR HQ,JAMMUKASHMIR
Karlah B.O,Branch Post Office,182142,,UDHAMPUR,UDHAMPUR,JAMMU & KASHMIR,UDHAMPUR,SRINAGAR HQ,JAMMUKASHMIR
Krimchi B.O,Branch Post Office,182101,,UDHAMPUR,UDHAMPUR,JAMMU & KASHMIR,UDHAMPUR,SRINAGAR HQ,JAMMUKASHMIR
Kud S.O,Sub Post Office,182142,01992-288106,UDHAMPUR,UDHAMPUR,JAMMU & KASHMIR,UDHAMPUR,SRINAGAR HQ,JAMMUKASHMIR
Kuddal B.O,Branch Post Office,182125,,UDHAMPUR,UDHAMPUR,JAMMU & KASHMIR,UDHAMPUR,SRINAGAR HQ,JAMMUKASHMIR
Kuhritti B.O,Branch Post Office,182125,,UDHAMPUR,UDHAMPUR,JAMMU & KASHMIR,UDHAMPUR,SRINAGAR HQ,JAMMUKASHMIR
Ladha B.O,Branch Post Office,182125,,UDHAMPUR,UDHAMPUR,JAMMU & KASHMIR,UDHAMPUR,SRINAGAR HQ,JAMMUKASHMIR
Landhar B.O,Branch Post Office,182125,,UDHAMPUR,UDHAMPUR,JAMMU & KASHMIR,UDHAMPUR,SRINAGAR HQ,JAMMUKASHMIR
Madha B.O,Branch Post Office,182142,,UDHAMPUR,UDHAMPUR,JAMMU & KASHMIR,UDHAMPUR,SRINAGAR HQ,JAMMUKASHMIR
Malhar B.O,Branch Post Office,182121,,UDHAMPUR,UDHAMPUR,JAMMU & KASHMIR,UDHAMPUR,SRINAGAR HQ,JAMMUKASHMIR
Mand B.O,Branch Post Office,182121,,UDHAMPUR,UDHAMPUR,JAMMU & KASHMIR,UDHAMPUR,SRINAGAR HQ,JAMMUKASHMIR
Mantalai S.O,Sub Post Office,182161,,UDHAMPUR,UDHAMPUR,JAMMU & KASHMIR,UDHAMPUR,SRINAGAR HQ,JAMMUKASHMIR
Mir S.O,Sub Post Office,182125,,UDHAMPUR,UDHAMPUR,JAMMU & KASHMIR,UDHAMPUR,SRINAGAR HQ,JAMMUKASHMIR
Mj Road Nd S.O,Sub Post Office,182101,01992-270702,UDHAMPUR,UDHAMPUR,JAMMU & KASHMIR,UDHAMPUR,SRINAGAR HQ,JAMMUKASHMIR
Mongri B.O,Branch Post Office,182125,,UDHAMPUR,UDHAMPUR,JAMMU & KASHMIR,UDHAMPUR,SRINAGAR HQ,JAMMUKASHMIR
Omara Morh S.O,Sub Post Office,182101,,UDHAMPUR,UDHAMPUR,JAMMU & KASHMIR,UDHAMPUR,SRINAGAR HQ,JAMMUKASHMIR
Panjar B.O,Branch Post Office,182125,,UDHAMPUR,UDHAMPUR,JAMMU & KASHMIR,UDHAMPUR,SRINAGAR HQ,JAMMUKASHMIR
Panthal B.O,Branch Post Office,182121,,UDHAMPUR,UDHAMPUR,JAMMU & KASHMIR,UDHAMPUR,SRINAGAR HQ,JAMMUKASHMIR
PTC Udhampur S.O,Sub Post Office,182104,01992-275048,UDHAMPUR,UDHAMPUR,JAMMU & KASHMIR,UDHAMPUR,SRINAGAR HQ,JAMMUKASHMIR
PTS Udhampur S.O,Sub Post Office,182103,,UDHAMPUR,UDHAMPUR,JAMMU & KASHMIR,UDHAMPUR,SRINAGAR HQ,JAMMUKASHMIR
Rambal S.O,Sub Post Office,182121,,UDHAMPUR,UDHAMPUR,JAMMU & KASHMIR,UDHAMPUR,SRINAGAR HQ,JAMMUKASHMIR
Roan S.O,Sub Post Office,182125,,UDHAMPUR,UDHAMPUR,JAMMU & KASHMIR,UDHAMPUR,SRINAGAR HQ,JAMMUKASHMIR
Salmeri B.O,Branch Post Office,182101,,UDHAMPUR,UDHAMPUR,JAMMU & KASHMIR,UDHAMPUR,SRINAGAR HQ,JAMMUKASHMIR
Sangote B.O,Branch Post Office,182142,,UDHAMPUR,UDHAMPUR,JAMMU & KASHMIR,UDHAMPUR,SRINAGAR HQ,JAMMUKASHMIR
Seen Bhramena B.O,Branch Post Office,182121,,UDHAMPUR,UDHAMPUR,JAMMU & KASHMIR,UDHAMPUR,SRINAGAR HQ,JAMMUKASHMIR
Seen Thakrian B.O,Branch Post Office,182121,,UDHAMPUR,UDHAMPUR,JAMMU & KASHMIR,UDHAMPUR,SRINAGAR HQ,JAMMUKASHMIR
Sermanjla B.O,Branch Post Office,182124,,UDHAMPUR,UDHAMPUR,JAMMU & KASHMIR,UDHAMPUR,SRINAGAR HQ,JAMMUKASHMIR
Shaktinagar S.O,Sub Post Office,182101,,UDHAMPUR,UDHAMPUR,JAMMU & KASHMIR,UDHAMPUR,SRINAGAR HQ,JAMMUKASHMIR
Tikri B.O,Branch Post Office,182121,,UDHAMPUR,UDHAMPUR,JAMMU & KASHMIR,UDHAMPUR,SRINAGAR HQ,JAMMUKASHMIR
Udhampur District Court S.O,Sub Post Office,182101,01992-270706,UDHAMPUR,UDHAMPUR,JAMMU & KASHMIR,UDHAMPUR,SRINAGAR HQ,JAMMUKASHMIR
Udhampur H.O,Head Post Office,182101,01992-270705,UDHAMPUR,UDHAMPUR,JAMMU & KASHMIR,UDHAMPUR,SRINAGAR HQ,JAMMUKASHMIR
