OFFICE NAME,OFFICE STATUS,PINCODE,TELEPHONE NO.,TALUK,DISTRICT,STATE/U.T.,POSTAL DIVISION,POSTAL REGION,POSTAL CIRCLE
                                                                                                            ,,                                          (THE INFORMATION IS SORTED DISTRICT AND TALUK WISE),,,,,,,
,,,,,,,,,
Lakrakhanda B.O,Branch Post Office,827010,,.,BOKARO,JHARKHAND,DHANBAD,RANCHI,JHARKHAND
Makdumpur B.O,Branch Post Office,827010,,.,BOKARO,JHARKHAND,DHANBAD,RANCHI,JHARKHAND
Maliachak B.O,Branch Post Office,814155,,.,BOKARO,JHARKHAND,SANTHAL PARGANAS,RANCHI,JHARKHAND
Sibandih B.O,Branch Post Office,827010,,.,BOKARO,JHARKHAND,DHANBAD,RANCHI,JHARKHAND
Turio B.O,Branch Post Office,829132,,.,BOKARO,JHARKHAND,GIRIDIH,RANCHI,JHARKHAND
Amlo B.O,Branch Post Office,829104,,Bermo,BOKARO,JHARKHAND,GIRIDIH,RANCHI,JHARKHAND
Angwali B.O,Branch Post Office,825102,,Bermo,BOKARO,JHARKHAND,GIRIDIH,RANCHI,JHARKHAND
Argamo B.O,Branch Post Office,829114,,Bermo,BOKARO,JHARKHAND,GIRIDIH,RANCHI,JHARKHAND
Bedkaro B.O,Branch Post Office,829127,,Bermo,BOKARO,JHARKHAND,GIRIDIH,RANCHI,JHARKHAND
Chalkari B.O,Branch Post Office,829114,,Bermo,BOKARO,JHARKHAND,GIRIDIH,RANCHI,JHARKHAND
Guniato B.O,Branch Post Office,829107,,Bermo,BOKARO,JHARKHAND,GIRIDIH,RANCHI,JHARKHAND
Gunjardih B.O,Branch Post Office,829132,,Bermo,BOKARO,JHARKHAND,GIRIDIH,RANCHI,JHARKHAND
Hazari B.O,Branch Post Office,829128,,Bermo,BOKARO,JHARKHAND,GIRIDIH,RANCHI,JHARKHAND
Jaina S.O,Sub Post Office,829301,06542-250430,BERMO,BOKARO,JHARKHAND,DHANBAD,RANCHI,JHARKHAND
Kanjkiro B.O,Branch Post Office,829107,,Bermo,BOKARO,JHARKHAND,GIRIDIH,RANCHI,JHARKHAND
Kasmar S.O,Sub Post Office,827302,,BERMO,BOKARO,JHARKHAND,DHANBAD,RANCHI,JHARKHAND
Khetko B.O,Branch Post Office,829113,,Bermo,BOKARO,JHARKHAND,GIRIDIH,RANCHI,JHARKHAND
Kurumba B.O,Branch Post Office,828403,,Bermo,BOKARO,JHARKHAND,GIRIDIH,RANCHI,JHARKHAND
Makoli B.O,Branch Post Office,829114,,Bermo,BOKARO,JHARKHAND,GIRIDIH,RANCHI,JHARKHAND
Narayanpur B.O,Branch Post Office,829107,,Bermo,BOKARO,JHARKHAND,GIRIDIH,RANCHI,JHARKHAND
Narra B.O,Branch Post Office,828403,,Bermo,BOKARO,JHARKHAND,GIRIDIH,RANCHI,JHARKHAND
Palamu B.O,Branch Post Office,825102,,Bermo,BOKARO,JHARKHAND,GIRIDIH,RANCHI,JHARKHAND
Parasbani B.O,Branch Post Office,828403,,Bermo,BOKARO,JHARKHAND,GIRIDIH,RANCHI,JHARKHAND
Pichari B.O,Branch Post Office,829114,,Bermo,BOKARO,JHARKHAND,GIRIDIH,RANCHI,JHARKHAND
Potso B.O,Branch Post Office,829114,,Bermo,BOKARO,JHARKHAND,GIRIDIH,RANCHI,JHARKHAND
Tantri B.O,Branch Post Office,829114,,Bermo,BOKARO,JHARKHAND,GIRIDIH,RANCHI,JHARKHAND
Taranari B.O,Branch Post Office,828403,,Bermo,BOKARO,JHARKHAND,GIRIDIH,RANCHI,JHARKHAND
Taranga B.O,Branch Post Office,828403,,Bermo,BOKARO,JHARKHAND,GIRIDIH,RANCHI,JHARKHAND
Telo B.O,Branch Post Office,828403,,Bermo,BOKARO,JHARKHAND,GIRIDIH,RANCHI,JHARKHAND
Adrakuri B.O,Branch Post Office,827013,,BOKARO,BOKARO,JHARKHAND,DHANBAD,RANCHI,JHARKHAND
Alkusa B.O,Branch Post Office,827013,,BOKARO,BOKARO,JHARKHAND,DHANBAD,RANCHI,JHARKHAND
Amdiha B.O,Branch Post Office,828134,,BOKARO,BOKARO,JHARKHAND,DHANBAD,RANCHI,JHARKHAND
Arajoo B.O,Branch Post Office,829301,,BOKARO,BOKARO,JHARKHAND,DHANBAD,RANCHI,JHARKHAND
Artah B.O,Branch Post Office,828134,,BOKARO,BOKARO,JHARKHAND,DHANBAD,RANCHI,JHARKHAND
B.Pindragoria B.O,Branch Post Office,827013,,BOKARO,BOKARO,JHARKHAND,DHANBAD,RANCHI,JHARKHAND
Bagda B.O,Branch Post Office,827302,,BOKARO,BOKARO,JHARKHAND,DHANBAD,RANCHI,JHARKHAND
Bahadurpur B.O,Branch Post Office,829301,,BOKARO,BOKARO,JHARKHAND,DHANBAD,RANCHI,JHARKHAND
Baidmara B.O,Branch Post Office,827009,,BOKARO,BOKARO,JHARKHAND,DHANBAD,RANCHI,JHARKHAND
Bandhdih B.O,Branch Post Office,829301,,BOKARO,BOKARO,JHARKHAND,DHANBAD,RANCHI,JHARKHAND
Banstore B.O,Branch Post Office,828134,,BOKARO,BOKARO,JHARKHAND,DHANBAD,RANCHI,JHARKHAND
Barmasia B.O,Branch Post Office,828134,,BOKARO,BOKARO,JHARKHAND,DHANBAD,RANCHI,JHARKHAND
Baroo B.O,Branch Post Office,829301,,BOKARO,BOKARO,JHARKHAND,DHANBAD,RANCHI,JHARKHAND
Batbinore B.O,Branch Post Office,827013,,BOKARO,BOKARO,JHARKHAND,DHANBAD,RANCHI,JHARKHAND
Bermo S.O,Sub Post Office,829104,06549-220231,Bokaro,BOKARO,JHARKHAND,GIRIDIH,RANCHI,JHARKHAND
Bhandaridah S.O,Sub Post Office,829132,,Bokaro,BOKARO,JHARKHAND,GIRIDIH,RANCHI,JHARKHAND
Bhaski B.O,Branch Post Office,827302,,BOKARO,BOKARO,JHARKHAND,DHANBAD,RANCHI,JHARKHAND
Bijulia B.O,Branch Post Office,827013,,BOKARO,BOKARO,JHARKHAND,DHANBAD,RANCHI,JHARKHAND
Bokaro Steel City H.O,Head Post Office,827001,06542-247781,BOKARO,BOKARO,JHARKHAND,DHANBAD,RANCHI,JHARKHAND
Bokaro Thermal S.O,Sub Post Office,829107,06549-266456,Bokaro,BOKARO,JHARKHAND,GIRIDIH,RANCHI,JHARKHAND
Chando B.O,Branch Post Office,829301,,BOKARO,BOKARO,JHARKHAND,DHANBAD,RANCHI,JHARKHAND
Chandra B.O,Branch Post Office,828134,,BOKARO,BOKARO,JHARKHAND,DHANBAD,RANCHI,JHARKHAND
Chandrapura S.O,Sub Post Office,828403,06549-242251,Bokaro,BOKARO,JHARKHAND,GIRIDIH,RANCHI,JHARKHAND
Chas Bazar B.O,Branch Post Office,827013,,BOKARO,BOKARO,JHARKHAND,DHANBAD,RANCHI,JHARKHAND
Chiksia B.O,Branch Post Office,827013,,BOKARO,BOKARO,JHARKHAND,DHANBAD,RANCHI,JHARKHAND
Chilgada B.O,Branch Post Office,829301,,BOKARO,BOKARO,JHARKHAND,DHANBAD,RANCHI,JHARKHAND
Dhori S.O,Sub Post Office,825102,06549-220230,Bokaro,BOKARO,JHARKHAND,GIRIDIH,RANCHI,JHARKHAND
Dudhigajar B.O,Branch Post Office,827013,,BOKARO,BOKARO,JHARKHAND,DHANBAD,RANCHI,JHARKHAND
Durgapur B.O,Branch Post Office,827302,,BOKARO,BOKARO,JHARKHAND,DHANBAD,RANCHI,JHARKHAND
Galgaltand B.O,Branch Post Office,828134,,BOKARO,BOKARO,JHARKHAND,DHANBAD,RANCHI,JHARKHAND
Gamhariya B.O,Branch Post Office,828134,,BOKARO,BOKARO,JHARKHAND,DHANBAD,RANCHI,JHARKHAND
Gangjori B.O,Branch Post Office,829301,,BOKARO,BOKARO,JHARKHAND,DHANBAD,RANCHI,JHARKHAND
Ghagri B.O,Branch Post Office,828134,,BOKARO,BOKARO,JHARKHAND,DHANBAD,RANCHI,JHARKHAND
Ghatiali B.O,Branch Post Office,827010,,BOKARO,BOKARO,JHARKHAND,DHANBAD,RANCHI,JHARKHAND
Gomia S.O,Sub Post Office,829111,06544-261816,Bokaro,BOKARO,JHARKHAND,GIRIDIH,RANCHI,JHARKHAND
Hissim B.O,Branch Post Office,827302,,BOKARO,BOKARO,JHARKHAND,DHANBAD,RANCHI,JHARKHAND
I.E.Gomia S.O,Sub Post Office,829112,06544-261736,Bokaro,BOKARO,JHARKHAND,GIRIDIH,RANCHI,JHARKHAND
Jamagoria B.O,Branch Post Office,827013,,BOKARO,BOKARO,JHARKHAND,DHANBAD,RANCHI,JHARKHAND
Jarangdih Colliery S.O,Sub Post Office,829113,,Bokaro,BOKARO,JHARKHAND,GIRIDIH,RANCHI,JHARKHAND
Jaridih B.O,Branch Post Office,827010,,BOKARO,BOKARO,JHARKHAND,DHANBAD,RANCHI,JHARKHAND
Jaridih Bazar S.O,Sub Post Office,829114,06549-220366,Bokaro,BOKARO,JHARKHAND,GIRIDIH,RANCHI,JHARKHAND
Jhalbarda B.O,Branch Post Office,828134,,BOKARO,BOKARO,JHARKHAND,DHANBAD,RANCHI,JHARKHAND
K.R.Centre B.O,Branch Post Office,827013,,BOKARO,BOKARO,JHARKHAND,DHANBAD,RANCHI,JHARKHAND
Kanak Chas B.O,Branch Post Office,828134,,BOKARO,BOKARO,JHARKHAND,DHANBAD,RANCHI,JHARKHAND
Karma B.O,Branch Post Office,827302,,BOKARO,BOKARO,JHARKHAND,DHANBAD,RANCHI,JHARKHAND
Karmatand B.O,Branch Post Office,828307,,BOKARO,BOKARO,JHARKHAND,DHANBAD,RANCHI,JHARKHAND
Kashi Jharia B.O,Branch Post Office,827013,,BOKARO,BOKARO,JHARKHAND,DHANBAD,RANCHI,JHARKHAND
Kathara S.O,Sub Post Office,829116,06549-235004,Bokaro,BOKARO,JHARKHAND,GIRIDIH,RANCHI,JHARKHAND
Khaira Chatar B.O,Branch Post Office,827302,,BOKARO,BOKARO,JHARKHAND,DHANBAD,RANCHI,JHARKHAND
Khamarbendi B.O,Branch Post Office,827013,,BOKARO,BOKARO,JHARKHAND,DHANBAD,RANCHI,JHARKHAND
Kharkharee B.O,Branch Post Office,828125,,BOKARO,BOKARO,JHARKHAND,DHANBAD,RANCHI,JHARKHAND
Koria B.O,Branch Post Office,828134,,BOKARO,BOKARO,JHARKHAND,DHANBAD,RANCHI,JHARKHAND
Kumar Daga B.O,Branch Post Office,828134,,BOKARO,BOKARO,JHARKHAND,DHANBAD,RANCHI,JHARKHAND
Kumirdoba B.O,Branch Post Office,828134,,BOKARO,BOKARO,JHARKHAND,DHANBAD,RANCHI,JHARKHAND
Kunduari B.O,Branch Post Office,827010,,BOKARO,BOKARO,JHARKHAND,DHANBAD,RANCHI,JHARKHAND
Kurra B.O,Branch Post Office,827013,,BOKARO,BOKARO,JHARKHAND,DHANBAD,RANCHI,JHARKHAND
Manjura B.O,Branch Post Office,827302,,BOKARO,BOKARO,JHARKHAND,DHANBAD,RANCHI,JHARKHAND
Narayanpur B.O,Branch Post Office,827013,,BOKARO,BOKARO,JHARKHAND,DHANBAD,RANCHI,JHARKHAND
Olgora B.O,Branch Post Office,827013,,BOKARO,BOKARO,JHARKHAND,DHANBAD,RANCHI,JHARKHAND
Pathuria B.O,Branch Post Office,829301,,BOKARO,BOKARO,JHARKHAND,DHANBAD,RANCHI,JHARKHAND
Peterbar S.O,Sub Post Office,829121,06542-265620,Bokaro,BOKARO,JHARKHAND,GIRIDIH,RANCHI,JHARKHAND
Phusro Bazar S.O,Sub Post Office,829114,06549-220229,Bokaro,BOKARO,JHARKHAND,GIRIDIH,RANCHI,JHARKHAND
Pindrajora B.O,Branch Post Office,827013,,BOKARO,BOKARO,JHARKHAND,DHANBAD,RANCHI,JHARKHAND
Pirgul B.O,Branch Post Office,827302,,BOKARO,BOKARO,JHARKHAND,DHANBAD,RANCHI,JHARKHAND
Ponda B.O,Branch Post Office,827302,,BOKARO,BOKARO,JHARKHAND,DHANBAD,RANCHI,JHARKHAND
Pundru B.O,Branch Post Office,828134,,BOKARO,BOKARO,JHARKHAND,DHANBAD,RANCHI,JHARKHAND
Pupunkee Ashram B.O,Branch Post Office,827013,,BOKARO,BOKARO,JHARKHAND,DHANBAD,RANCHI,JHARKHAND
Radhanagar B.O,Branch Post Office,827010,,BOKARO,BOKARO,JHARKHAND,DHANBAD,RANCHI,JHARKHAND
Rangamatia B.O,Branch Post Office,828134,,BOKARO,BOKARO,JHARKHAND,DHANBAD,RANCHI,JHARKHAND
Right Bank Tenughat S.O,Sub Post Office,829123,06549-230642,Bokaro,BOKARO,JHARKHAND,GIRIDIH,RANCHI,JHARKHAND
Sardaha B.O,Branch Post Office,827013,,BOKARO,BOKARO,JHARKHAND,DHANBAD,RANCHI,JHARKHAND
Satanpur B.O,Branch Post Office,827013,,BOKARO,BOKARO,JHARKHAND,DHANBAD,RANCHI,JHARKHAND
Silphore B.O,Branch Post Office,828134,,BOKARO,BOKARO,JHARKHAND,DHANBAD,RANCHI,JHARKHAND
Sunday Bazar S.O,Sub Post Office,829127,06559-260253,Bokaro,BOKARO,JHARKHAND,GIRIDIH,RANCHI,JHARKHAND
Swang Colliery S.O,Sub Post Office,829128,,Bokaro,BOKARO,JHARKHAND,GIRIDIH,RANCHI,JHARKHAND
T.T.P.S.Lalpania S.O,Sub Post Office,829149,,Bokaro,BOKARO,JHARKHAND,GIRIDIH,RANCHI,JHARKHAND
Tangtona B.O,Branch Post Office,827302,,BOKARO,BOKARO,JHARKHAND,DHANBAD,RANCHI,JHARKHAND
Tenughat Dam S.O,Sub Post Office,829123,,Bokaro,BOKARO,JHARKHAND,GIRIDIH,RANCHI,JHARKHAND
Amlabad Colliery S.O,Sub Post Office,828311,0326-2460001,CHAS,BOKARO,JHARKHAND,DHANBAD,RANCHI,JHARKHAND
B.M.P. IV S.O,Sub Post Office,827001,06542-258771,CHAS,BOKARO,JHARKHAND,DHANBAD,RANCHI,JHARKHAND
B.S.City Plant S.O,Sub Post Office,827011,06542-247730,CHAS,BOKARO,JHARKHAND,DHANBAD,RANCHI,JHARKHAND
B.S.City R.S. S.O,Sub Post Office,827010,06542-253724,CHAS,BOKARO,JHARKHAND,DHANBAD,RANCHI,JHARKHAND
Balidih S.O,Sub Post Office,827014,06542-253540,CHAS,BOKARO,JHARKHAND,DHANBAD,RANCHI,JHARKHAND
Chandan Kiyari S.O,Sub Post Office,828134,,CHAS,BOKARO,JHARKHAND,DHANBAD,RANCHI,JHARKHAND
Chandore S.O,Sub Post Office,828121,,CHAS,BOKARO,JHARKHAND,DHANBAD,RANCHI,JHARKHAND
Chas S.O,Sub Post Office,827013,06542-265823,CHAS,BOKARO,JHARKHAND,DHANBAD,RANCHI,JHARKHAND
Garga Check Post S.O,Sub Post Office,827013,06542-235842,CHAS,BOKARO,JHARKHAND,DHANBAD,RANCHI,JHARKHAND
Marafari Colony S.O,Sub Post Office,827012,06542-257888,CHAS,BOKARO,JHARKHAND,DHANBAD,RANCHI,JHARKHAND
Sector- III S.O,Sub Post Office,827003,06542-247773,CHAS,BOKARO,JHARKHAND,DHANBAD,RANCHI,JHARKHAND
Sector- IV S.O,Sub Post Office,827004,06542-231020,CHAS,BOKARO,JHARKHAND,DHANBAD,RANCHI,JHARKHAND
Sector- IX S.O,Sub Post Office,827009,06542-262701,CHAS,BOKARO,JHARKHAND,DHANBAD,RANCHI,JHARKHAND
Sector-I S.O,Sub Post Office,827001,06542-247740,CHAS,BOKARO,JHARKHAND,DHANBAD,RANCHI,JHARKHAND
Sector-VI S.O,Sub Post Office,827006,06542-277754,CHAS,BOKARO,JHARKHAND,DHANBAD,RANCHI,JHARKHAND
Barkipunu B.O,Branch Post Office,829112,,Gomia,BOKARO,JHARKHAND,GIRIDIH,RANCHI,JHARKHAND
Dania B.O,Branch Post Office,829112,,Gomia,BOKARO,JHARKHAND,GIRIDIH,RANCHI,JHARKHAND
Hardiamo B.O,Branch Post Office,829111,,Gomia,BOKARO,JHARKHAND,GIRIDIH,RANCHI,JHARKHAND
Hossir B.O,Branch Post Office,829111,,Gomia,BOKARO,JHARKHAND,GIRIDIH,RANCHI,JHARKHAND
Kharki B.O,Branch Post Office,829112,,Gomia,BOKARO,JHARKHAND,GIRIDIH,RANCHI,JHARKHAND
Nerki B.O,Branch Post Office,829112,,Gomia,BOKARO,JHARKHAND,GIRIDIH,RANCHI,JHARKHAND
Penk B.O,Branch Post Office,829112,,Gomia,BOKARO,JHARKHAND,GIRIDIH,RANCHI,JHARKHAND
Saram B.O,Branch Post Office,829111,,Gomia,BOKARO,JHARKHAND,GIRIDIH,RANCHI,JHARKHAND
Birni B.O,Branch Post Office,829114,,Nawadih,BOKARO,JHARKHAND,GIRIDIH,RANCHI,JHARKHAND
Chapri B.O,Branch Post Office,829114,,Nawadih,BOKARO,JHARKHAND,GIRIDIH,RANCHI,JHARKHAND
Chirudih B.O,Branch Post Office,829114,,Nawadih,BOKARO,JHARKHAND,GIRIDIH,RANCHI,JHARKHAND
Nawadih B.O,Branch Post Office,829114,,Nawadih,BOKARO,JHARKHAND,GIRIDIH,RANCHI,JHARKHAND
Surhi B.O,Branch Post Office,829114,,Nawadih,BOKARO,JHARKHAND,GIRIDIH,RANCHI,JHARKHAND
Arjuwa B.O,Branch Post Office,829121,,Peterbar,BOKARO,JHARKHAND,GIRIDIH,RANCHI,JHARKHAND
Chandipur B.O,Branch Post Office,829121,,Peterbar,BOKARO,JHARKHAND,GIRIDIH,RANCHI,JHARKHAND
Chargi B.O,Branch Post Office,829121,,Peterbar,BOKARO,JHARKHAND,GIRIDIH,RANCHI,JHARKHAND
Dantoo B.O,Branch Post Office,829121,,Peterbar,BOKARO,JHARKHAND,GIRIDIH,RANCHI,JHARKHAND
Mirzapur B.O,Branch Post Office,829121,,Peterbar,BOKARO,JHARKHAND,GIRIDIH,RANCHI,JHARKHAND
Mungasarla B.O,Branch Post Office,829121,,Peterbar,BOKARO,JHARKHAND,GIRIDIH,RANCHI,JHARKHAND
Rohar B.O,Branch Post Office,829121,,Peterbar,BOKARO,JHARKHAND,GIRIDIH,RANCHI,JHARKHAND
Uttasara B.O,Branch Post Office,829121,,Peterbar,BOKARO,JHARKHAND,GIRIDIH,RANCHI,JHARKHAND
Champi B.O,Branch Post Office,829123,,Tenughat,BOKARO,JHARKHAND,GIRIDIH,RANCHI,JHARKHAND
Ulgada B.O,Branch Post Office,829123,,Tenughat,BOKARO,JHARKHAND,GIRIDIH,RANCHI,JHARKHAND
Jogiara B.O,Branch Post Office,825404,,.,CHATRA,JHARKHAND,HAZARIBAGH,RANCHI,JHARKHAND
Bachra S.O,Sub Post Office,829201,06531-260842,BACHRA,CHATRA,JHARKHAND,PALAMAU,RANCHI,JHARKHAND
Bandu B.O,Branch Post Office,829201,,BACHRA,CHATRA,JHARKHAND,PALAMAU,RANCHI,JHARKHAND
Aurugerua B.O,Branch Post Office,825405,,Chatra,CHATRA,JHARKHAND,HAZARIBAGH,RANCHI,JHARKHAND
Baluri B.O,Branch Post Office,825405,,Chatra,CHATRA,JHARKHAND,HAZARIBAGH,RANCHI,JHARKHAND
Baraini B.O,Branch Post Office,825405,,Chatra,CHATRA,JHARKHAND,HAZARIBAGH,RANCHI,JHARKHAND
Chatra Bazar S.O,Sub Post Office,825405,,Chatra,CHATRA,JHARKHAND,HAZARIBAGH,RANCHI,JHARKHAND
Chatra S.O,Sub Post Office,825405,06541-222556,Chatra,CHATRA,JHARKHAND,HAZARIBAGH,RANCHI,JHARKHAND
Haphuwa B.O,Branch Post Office,825405,,Chatra,CHATRA,JHARKHAND,HAZARIBAGH,RANCHI,JHARKHAND
Jajlo B.O,Branch Post Office,825405,,Chatra,CHATRA,JHARKHAND,HAZARIBAGH,RANCHI,JHARKHAND
Kamta B.O,Branch Post Office,825405,,Chatra,CHATRA,JHARKHAND,HAZARIBAGH,RANCHI,JHARKHAND
Kanhachatti B.O,Branch Post Office,825405,,Chatra,CHATRA,JHARKHAND,HAZARIBAGH,RANCHI,JHARKHAND
Kolhaiya B.O,Branch Post Office,825405,,Chatra,CHATRA,JHARKHAND,HAZARIBAGH,RANCHI,JHARKHAND
Kuba B.O,Branch Post Office,825405,,Chatra,CHATRA,JHARKHAND,HAZARIBAGH,RANCHI,JHARKHAND
Laralutudag B.O,Branch Post Office,825405,,Chatra,CHATRA,JHARKHAND,HAZARIBAGH,RANCHI,JHARKHAND
Mktama B.O,Branch Post Office,825405,,Chatra,CHATRA,JHARKHAND,HAZARIBAGH,RANCHI,JHARKHAND
Nawadih Panari B.O,Branch Post Office,825405,,Chatra,CHATRA,JHARKHAND,HAZARIBAGH,RANCHI,JHARKHAND
Pandepura B.O,Branch Post Office,825405,,Chatra,CHATRA,JHARKHAND,HAZARIBAGH,RANCHI,JHARKHAND
Tapej B.O,Branch Post Office,825405,,Chatra,CHATRA,JHARKHAND,HAZARIBAGH,RANCHI,JHARKHAND
Tatra B.O,Branch Post Office,825405,,Chatra,CHATRA,JHARKHAND,HAZARIBAGH,RANCHI,JHARKHAND
Tikar B.O,Branch Post Office,825405,,Chatra,CHATRA,JHARKHAND,HAZARIBAGH,RANCHI,JHARKHAND
Tulbul B.O,Branch Post Office,825405,,Chatra,CHATRA,JHARKHAND,HAZARIBAGH,RANCHI,JHARKHAND
Unta B.O,Branch Post Office,825405,,Chatra,CHATRA,JHARKHAND,HAZARIBAGH,RANCHI,JHARKHAND
Gidhour B.O,Branch Post Office,825408,,Gidhaur,CHATRA,JHARKHAND,HAZARIBAGH,RANCHI,JHARKHAND
Karni B.O,Branch Post Office,825408,,Gidhaur,CHATRA,JHARKHAND,HAZARIBAGH,RANCHI,JHARKHAND
Bihiasarhachiya B.O,Branch Post Office,825403,,Hunterganj,CHATRA,JHARKHAND,HAZARIBAGH,RANCHI,JHARKHAND
Dantar B.O,Branch Post Office,825403,,Hunterganj,CHATRA,JHARKHAND,HAZARIBAGH,RANCHI,JHARKHAND
Ghanghari B.O,Branch Post Office,825405,,Hunterganj,CHATRA,JHARKHAND,HAZARIBAGH,RANCHI,JHARKHAND
Hiring B.O,Branch Post Office,825403,,Hunterganj,CHATRA,JHARKHAND,HAZARIBAGH,RANCHI,JHARKHAND
Hunterganj S.O,Sub Post Office,825420,06541-255239,Hunterganj,CHATRA,JHARKHAND,HAZARIBAGH,RANCHI,JHARKHAND
Kedlikala B.O,Branch Post Office,825403,,Hunterganj,CHATRA,JHARKHAND,HAZARIBAGH,RANCHI,JHARKHAND
Kobna B.O,Branch Post Office,825403,,Hunterganj,CHATRA,JHARKHAND,HAZARIBAGH,RANCHI,JHARKHAND
Kurkheta B.O,Branch Post Office,825403,,Hunterganj,CHATRA,JHARKHAND,HAZARIBAGH,RANCHI,JHARKHAND
Pandeypura B.O,Branch Post Office,825405,,Hunterganj,CHATRA,JHARKHAND,HAZARIBAGH,RANCHI,JHARKHAND
Pindra B.O,Branch Post Office,825403,,Hunterganj,CHATRA,JHARKHAND,HAZARIBAGH,RANCHI,JHARKHAND
Sahi B.O,Branch Post Office,825403,,Hunterganj,CHATRA,JHARKHAND,HAZARIBAGH,RANCHI,JHARKHAND
Salaiya B.O,Branch Post Office,825403,,Hunterganj,CHATRA,JHARKHAND,HAZARIBAGH,RANCHI,JHARKHAND
Amjhar B.O,Branch Post Office,825408,,Itkhori,CHATRA,JHARKHAND,HAZARIBAGH,RANCHI,JHARKHAND
Bargaon B.O,Branch Post Office,825408,,Itkhori,CHATRA,JHARKHAND,HAZARIBAGH,RANCHI,JHARKHAND
Barisakhi B.O,Branch Post Office,825408,,Itkhori,CHATRA,JHARKHAND,HAZARIBAGH,RANCHI,JHARKHAND
Berhna B.O,Branch Post Office,825408,,Itkhori,CHATRA,JHARKHAND,HAZARIBAGH,RANCHI,JHARKHAND
Daihar B.O,Branch Post Office,825408,,Itkhori,CHATRA,JHARKHAND,HAZARIBAGH,RANCHI,JHARKHAND
Dhauthawa B.O,Branch Post Office,825408,,Itkhori,CHATRA,JHARKHAND,HAZARIBAGH,RANCHI,JHARKHAND
Dwaritelaiya B.O,Branch Post Office,825408,,Itkhori,CHATRA,JHARKHAND,HAZARIBAGH,RANCHI,JHARKHAND
Gangpur B.O,Branch Post Office,825408,,Itkhori,CHATRA,JHARKHAND,HAZARIBAGH,RANCHI,JHARKHAND
Itkhori S.O,Sub Post Office,825408,06541-266201,Itkhori,CHATRA,JHARKHAND,HAZARIBAGH,RANCHI,JHARKHAND
Loram B.O,Branch Post Office,825408,,Itkhori,CHATRA,JHARKHAND,HAZARIBAGH,RANCHI,JHARKHAND
Mandhania B.O,Branch Post Office,825408,,Itkhori,CHATRA,JHARKHAND,HAZARIBAGH,RANCHI,JHARKHAND
Mayapur B.O,Branch Post Office,825408,,Itkhori,CHATRA,JHARKHAND,HAZARIBAGH,RANCHI,JHARKHAND
Mayurhand B.O,Branch Post Office,825408,,Itkhori,CHATRA,JHARKHAND,HAZARIBAGH,RANCHI,JHARKHAND
Navadih Damol B.O,Branch Post Office,825408,,Itkhori,CHATRA,JHARKHAND,HAZARIBAGH,RANCHI,JHARKHAND
Parsauni B.O,Branch Post Office,825408,,Itkhori,CHATRA,JHARKHAND,HAZARIBAGH,RANCHI,JHARKHAND
Pathalgada B.O,Branch Post Office,825408,,Itkhori,CHATRA,JHARKHAND,HAZARIBAGH,RANCHI,JHARKHAND
Pathra B.O,Branch Post Office,825408,,Itkhori,CHATRA,JHARKHAND,HAZARIBAGH,RANCHI,JHARKHAND
Peltol B.O,Branch Post Office,825408,,Itkhori,CHATRA,JHARKHAND,HAZARIBAGH,RANCHI,JHARKHAND
Pitiz B.O,Branch Post Office,825408,,Itkhori,CHATRA,JHARKHAND,HAZARIBAGH,RANCHI,JHARKHAND
Jori S.O,Sub Post Office,825403,,Jori,CHATRA,JHARKHAND,HAZARIBAGH,RANCHI,JHARKHAND
Karma B.O,Branch Post Office,825405,,Karma,CHATRA,JHARKHAND,HAZARIBAGH,RANCHI,JHARKHAND
Chandrikala B.O,Branch Post Office,825404,,Patratu,CHATRA,JHARKHAND,HAZARIBAGH,RANCHI,JHARKHAND
Bichkila B.O,Branch Post Office,825404,,Pratappur,CHATRA,JHARKHAND,HAZARIBAGH,RANCHI,JHARKHAND
Chatti Anatpur B.O,Branch Post Office,825404,,Pratappur,CHATRA,JHARKHAND,HAZARIBAGH,RANCHI,JHARKHAND
Gerua B.O,Branch Post Office,825404,,Pratappur,CHATRA,JHARKHAND,HAZARIBAGH,RANCHI,JHARKHAND
Kaura B.O,Branch Post Office,825404,,Pratappur,CHATRA,JHARKHAND,HAZARIBAGH,RANCHI,JHARKHAND
Kunda B.O,Branch Post Office,825404,,Pratappur,CHATRA,JHARKHAND,HAZARIBAGH,RANCHI,JHARKHAND
Narayanpur B.O,Branch Post Office,825404,,Pratappur,CHATRA,JHARKHAND,HAZARIBAGH,RANCHI,JHARKHAND
Pratappur S.O,Sub Post Office,825404,06550-265643,Pratappur,CHATRA,JHARKHAND,HAZARIBAGH,RANCHI,JHARKHAND
Yadavnagar B.O,Branch Post Office,825404,,Pratappur,CHATRA,JHARKHAND,HAZARIBAGH,RANCHI,JHARKHAND
Bagra B.O,Branch Post Office,825103,,Simaria,CHATRA,JHARKHAND,HAZARIBAGH,RANCHI,JHARKHAND
Chopey B.O,Branch Post Office,825103,,Simaria,CHATRA,JHARKHAND,HAZARIBAGH,RANCHI,JHARKHAND
Delho B.O,Branch Post Office,825103,,Simaria,CHATRA,JHARKHAND,HAZARIBAGH,RANCHI,JHARKHAND
Dunduwa B.O,Branch Post Office,825103,,Simaria,CHATRA,JHARKHAND,HAZARIBAGH,RANCHI,JHARKHAND
Edla B.O,Branch Post Office,825103,,Simaria,CHATRA,JHARKHAND,HAZARIBAGH,RANCHI,JHARKHAND
Jabra B.O,Branch Post Office,825103,,Simaria,CHATRA,JHARKHAND,HAZARIBAGH,RANCHI,JHARKHAND
Lawalong B.O,Branch Post Office,825103,,Simaria,CHATRA,JHARKHAND,HAZARIBAGH,RANCHI,JHARKHAND
Piri B.O,Branch Post Office,825103,,Simaria,CHATRA,JHARKHAND,HAZARIBAGH,RANCHI,JHARKHAND
Shila B.O,Branch Post Office,825103,,Simaria,CHATRA,JHARKHAND,HAZARIBAGH,RANCHI,JHARKHAND
Shivrajpur B.O,Branch Post Office,825103,,Simaria,CHATRA,JHARKHAND,HAZARIBAGH,RANCHI,JHARKHAND
Simaria S.O,Sub Post Office,825103,06559-233324,Simaria,CHATRA,JHARKHAND,HAZARIBAGH,RANCHI,JHARKHAND
Tutilawa B.O,Branch Post Office,825103,,Simaria,CHATRA,JHARKHAND,HAZARIBAGH,RANCHI,JHARKHAND
Bahera B.O,Branch Post Office,825321,,Tandwa,CHATRA,JHARKHAND,HAZARIBAGH,RANCHI,JHARKHAND
Chattibariatu B.O,Branch Post Office,825321,,Tandwa,CHATRA,JHARKHAND,HAZARIBAGH,RANCHI,JHARKHAND
Dhangada B.O,Branch Post Office,825321,,Tandwa,CHATRA,JHARKHAND,HAZARIBAGH,RANCHI,JHARKHAND
Kasiadih B.O,Branch Post Office,825321,,Tandwa,CHATRA,JHARKHAND,HAZARIBAGH,RANCHI,JHARKHAND
Khadaiya B.O,Branch Post Office,825321,,Tandwa,CHATRA,JHARKHAND,HAZARIBAGH,RANCHI,JHARKHAND
Manatu B.O,Branch Post Office,825321,,Tandwa,CHATRA,JHARKHAND,HAZARIBAGH,RANCHI,JHARKHAND
Pachra B.O,Branch Post Office,825321,,Tandwa,CHATRA,JHARKHAND,HAZARIBAGH,RANCHI,JHARKHAND
Peto B.O,Branch Post Office,825321,,Tandwa,CHATRA,JHARKHAND,HAZARIBAGH,RANCHI,JHARKHAND
Raham B.O,Branch Post Office,825321,,Tandwa,CHATRA,JHARKHAND,HAZARIBAGH,RANCHI,JHARKHAND
Salga B.O,Branch Post Office,825321,,Tandwa,CHATRA,JHARKHAND,HAZARIBAGH,RANCHI,JHARKHAND
Saradhu B.O,Branch Post Office,825321,,Tandwa,CHATRA,JHARKHAND,HAZARIBAGH,RANCHI,JHARKHAND
Tandwa S.O,Sub Post Office,825321,,Tandwa,CHATRA,JHARKHAND,HAZARIBAGH,RANCHI,JHARKHAND
Banka B.O,Branch Post Office,815552,,.,DEOGHAR,JHARKHAND,SANTHAL PARGANAS,RANCHI,JHARKHAND
Debipur B.O,Branch Post Office,814147,,.,DEOGHAR,JHARKHAND,SANTHAL PARGANAS,RANCHI,JHARKHAND
Debipur B.O,Branch Post Office,814152,,.,DEOGHAR,JHARKHAND,SANTHAL PARGANAS,RANCHI,JHARKHAND
Deopur B.O,Branch Post Office,815552,,.,DEOGHAR,JHARKHAND,SANTHAL PARGANAS,RANCHI,JHARKHAND
Kenman-kathi B.O,Branch Post Office,815552,,.,DEOGHAR,JHARKHAND,SANTHAL PARGANAS,RANCHI,JHARKHAND
Madhopur B.O,Branch Post Office,815552,,.,DEOGHAR,JHARKHAND,SANTHAL PARGANAS,RANCHI,JHARKHAND
Upper Bahiyar B.O,Branch Post Office,815353,,.,DEOGHAR,JHARKHAND,SANTHAL PARGANAS,RANCHI,JHARKHAND
Baghmari B.O,Branch Post Office,814152,,DEBIPUR,DEOGHAR,JHARKHAND,SANTHAL PARGANAS,RANCHI,JHARKHAND
Barkikharkhar B.O,Branch Post Office,814152,,DEBIPUR,DEOGHAR,JHARKHAND,SANTHAL PARGANAS,RANCHI,JHARKHAND
Mathurapur B.O,Branch Post Office,814114,,DEBIPUR,DEOGHAR,JHARKHAND,SANTHAL PARGANAS,RANCHI,JHARKHAND
Punasi B.O,Branch Post Office,814152,,DEBUIPUR,DEOGHAR,JHARKHAND,SANTHAL PARGANAS,RANCHI,JHARKHAND
A.K. Bad B.O,Branch Post Office,814143,,DEOGHAR,DEOGHAR,JHARKHAND,SANTHAL PARGANAS,RANCHI,JHARKHAND
B.Deoghar H.O,Head Post Office,814112,06432-222307,DEOGHAR,DEOGHAR,JHARKHAND,SANTHAL PARGANAS,RANCHI,JHARKHAND
Chanddih B.O,Branch Post Office,814143,,DEOGHAR,DEOGHAR,JHARKHAND,SANTHAL PARGANAS,RANCHI,JHARKHAND
Dabar Gram S.O,Sub Post Office,814122,,DEOGHAR,DEOGHAR,JHARKHAND,SANTHAL PARGANAS,RANCHI,JHARKHAND
Deoghar College S.O,Sub Post Office,814113,,DEOGHAR,DEOGHAR,JHARKHAND,SANTHAL PARGANAS,RANCHI,JHARKHAND
Deosang B.T S.O,Sub Post Office,814114,,DEOGHAR,DEOGHAR,JHARKHAND,SANTHAL PARGANAS,RANCHI,JHARKHAND
Gurukul Vidyapith B.O,Branch Post Office,814114,,DEOGHAR,DEOGHAR,JHARKHAND,SANTHAL PARGANAS,RANCHI,JHARKHAND
Hindipith S.O,Sub Post Office,814115,,DEOGHAR,DEOGHAR,JHARKHAND,SANTHAL PARGANAS,RANCHI,JHARKHAND
Jasidih S.O,Sub Post Office,814142,,DEOGHAR,DEOGHAR,JHARKHAND,SANTHAL PARGANAS,RANCHI,JHARKHAND
Maladih B.O,Branch Post Office,814114,,DEOGHAR,DEOGHAR,JHARKHAND,SANTHAL PARGANAS,RANCHI,JHARKHAND
Rohani S.O,Sub Post Office,814152,,DEOGHAR,DEOGHAR,JHARKHAND,SANTHAL PARGANAS,RANCHI,JHARKHAND
Sakrigali B.O,Branch Post Office,814114,,DEOGHAR,DEOGHAR,JHARKHAND,SANTHAL PARGANAS,RANCHI,JHARKHAND
Sangrampur Lorhiya B.O,Branch Post Office,814114,,DEOGHAR,DEOGHAR,JHARKHAND,SANTHAL PARGANAS,RANCHI,JHARKHAND
Satsang S.O,Sub Post Office,814116,06432-232332,DEOGHAR,DEOGHAR,JHARKHAND,SANTHAL PARGANAS,RANCHI,JHARKHAND
Simra B.O,Branch Post Office,814114,,DEOGHAR,DEOGHAR,JHARKHAND,SANTHAL PARGANAS,RANCHI,JHARKHAND
T. Balasi B.O,Branch Post Office,814113,,DEOGHAR,DEOGHAR,JHARKHAND,SANTHAL PARGANAS,RANCHI,JHARKHAND
Vidyapith B.O,Branch Post Office,814113,,DEOGHAR,DEOGHAR,JHARKHAND,SANTHAL PARGANAS,RANCHI,JHARKHAND
Bhojpur B.O,Branch Post Office,814152,,DEVIPUR,DEOGHAR,JHARKHAND,SANTHAL PARGANAS,RANCHI,JHARKHAND
Ghorlas B.O,Branch Post Office,814152,,DIBIPUR,DEOGHAR,JHARKHAND,SANTHAL PARGANAS,RANCHI,JHARKHAND
K. Banskola B.O,Branch Post Office,814152,,DIBIPUR,DEOGHAR,JHARKHAND,SANTHAL PARGANAS,RANCHI,JHARKHAND
Koiridih B.O,Branch Post Office,814152,,DIBIPUR,DEOGHAR,JHARKHAND,SANTHAL PARGANAS,RANCHI,JHARKHAND
Maniyarpur B.O,Branch Post Office,814152,,DIBIPUR,DEOGHAR,JHARKHAND,SANTHAL PARGANAS,RANCHI,JHARKHAND
Ramudih B.O,Branch Post Office,814152,,DIBIPUR,DEOGHAR,JHARKHAND,SANTHAL PARGANAS,RANCHI,JHARKHAND
Kunda S.O,Sub Post Office,814143,,DOGHAR,DEOGHAR,JHARKHAND,SANTHAL PARGANAS,RANCHI,JHARKHAND
Bargo B.O,Branch Post Office,814120,,JARMUNDI,DEOGHAR,JHARKHAND,SANTHAL PARGANAS,RANCHI,JHARKHAND
Baratanr B.O,Branch Post Office,815357,,KARON,DEOGHAR,JHARKHAND,SANTHAL PARGANAS,RANCHI,JHARKHAND
Baskupi B.O,Branch Post Office,815357,,KARON,DEOGHAR,JHARKHAND,SANTHAL PARGANAS,RANCHI,JHARKHAND
Karanjo B.O,Branch Post Office,815353,,KARON,DEOGHAR,JHARKHAND,SANTHAL PARGANAS,RANCHI,JHARKHAND
Karogram S.O,Sub Post Office,815357,,KARON,DEOGHAR,JHARKHAND,SANTHAL PARGANAS,RANCHI,JHARKHAND
Madankatha B.O,Branch Post Office,815357,,KARON,DEOGHAR,JHARKHAND,SANTHAL PARGANAS,RANCHI,JHARKHAND
Pathrol B.O,Branch Post Office,815353,,KARON,DEOGHAR,JHARKHAND,SANTHAL PARGANAS,RANCHI,JHARKHAND
Margomunda B.O,Branch Post Office,815353,,KORON,DEOGHAR,JHARKHAND,SANTHAL PARGANAS,RANCHI,JHARKHAND
Ranidih B.O,Branch Post Office,815357,,KORON,DEOGHAR,JHARKHAND,SANTHAL PARGANAS,RANCHI,JHARKHAND
Bagjora B.O,Branch Post Office,815353,,MADHUPUR,DEOGHAR,JHARKHAND,SANTHAL PARGANAS,RANCHI,JHARKHAND
Bara Chapra B.O,Branch Post Office,815353,,MADHUPUR,DEOGHAR,JHARKHAND,SANTHAL PARGANAS,RANCHI,JHARKHAND
Barawan B.O,Branch Post Office,815353,,MADHUPUR,DEOGHAR,JHARKHAND,SANTHAL PARGANAS,RANCHI,JHARKHAND
Burhai B.O,Branch Post Office,815353,,MADHUPUR,DEOGHAR,JHARKHAND,SANTHAL PARGANAS,RANCHI,JHARKHAND
Charpa B.O,Branch Post Office,815353,,MADHUPUR,DEOGHAR,JHARKHAND,SANTHAL PARGANAS,RANCHI,JHARKHAND
Dhamni B.O,Branch Post Office,815353,,MADHUPUR,DEOGHAR,JHARKHAND,SANTHAL PARGANAS,RANCHI,JHARKHAND
Haripur Kolwa B.O,Branch Post Office,815353,,MADHUPUR,DEOGHAR,JHARKHAND,SANTHAL PARGANAS,RANCHI,JHARKHAND
Hussainabad B.O,Branch Post Office,815353,,MADHUPUR,DEOGHAR,JHARKHAND,SANTHAL PARGANAS,RANCHI,JHARKHAND
Jagdishpur B.O,Branch Post Office,815353,,MADHUPUR,DEOGHAR,JHARKHAND,SANTHAL PARGANAS,RANCHI,JHARKHAND
Kasathi B.O,Branch Post Office,815353,,MADHUPUR,DEOGHAR,JHARKHAND,SANTHAL PARGANAS,RANCHI,JHARKHAND
Kushmaha B.O,Branch Post Office,815353,,MADHUPUR,DEOGHAR,JHARKHAND,SANTHAL PARGANAS,RANCHI,JHARKHAND
Madhupur S.O,Sub Post Office,815353,06438-224440,MADHUPUR,DEOGHAR,JHARKHAND,SANTHAL PARGANAS,RANCHI,JHARKHAND
Ojhadih B.O,Branch Post Office,815353,,MADHUPUR,DEOGHAR,JHARKHAND,SANTHAL PARGANAS,RANCHI,JHARKHAND
Ramchandrapur B.O,Branch Post Office,815353,,MADHUPUR,DEOGHAR,JHARKHAND,SANTHAL PARGANAS,RANCHI,JHARKHAND
Saptar B.O,Branch Post Office,815353,,MADHUPUR,DEOGHAR,JHARKHAND,SANTHAL PARGANAS,RANCHI,JHARKHAND
Sirsa B.O,Branch Post Office,815353,,MADHUPUR,DEOGHAR,JHARKHAND,SANTHAL PARGANAS,RANCHI,JHARKHAND
Bichgarha Kusumdih B.O,Branch Post Office,814113,,MOHANPUR,DEOGHAR,JHARKHAND,SANTHAL PARGANAS,RANCHI,JHARKHAND
Chulhiya B.O,Branch Post Office,814157,,MOHANPUR,DEOGHAR,JHARKHAND,SANTHAL PARGANAS,RANCHI,JHARKHAND
Dehijore S.O,Sub Post Office,814157,,MOHANPUR,DEOGHAR,JHARKHAND,SANTHAL PARGANAS,RANCHI,JHARKHAND
Ghormara S.O,Sub Post Office,814120,,MOHANPUR,DEOGHAR,JHARKHAND,SANTHAL PARGANAS,RANCHI,JHARKHAND
Jamunia B.O,Branch Post Office,814157,,MOHANPUR,DEOGHAR,JHARKHAND,SANTHAL PARGANAS,RANCHI,JHARKHAND
Jhallar B.O,Branch Post Office,814120,,MOHANPUR,DEOGHAR,JHARKHAND,SANTHAL PARGANAS,RANCHI,JHARKHAND
Jhillighat B.O,Branch Post Office,814157,,MOHANPUR,DEOGHAR,JHARKHAND,SANTHAL PARGANAS,RANCHI,JHARKHAND
Kharagdiha B.O,Branch Post Office,814157,,MOHANPUR,DEOGHAR,JHARKHAND,SANTHAL PARGANAS,RANCHI,JHARKHAND
Kusmaha B.O,Branch Post Office,814113,,MOHANPUR,DEOGHAR,JHARKHAND,SANTHAL PARGANAS,RANCHI,JHARKHAND
Malhara B.O,Branch Post Office,814157,,MOHANPUR,DEOGHAR,JHARKHAND,SANTHAL PARGANAS,RANCHI,JHARKHAND
Mohanpur Hat B.O,Branch Post Office,814157,,MOHANPUR,DEOGHAR,JHARKHAND,SANTHAL PARGANAS,RANCHI,JHARKHAND
Morney B.O,Branch Post Office,814120,,MOHANPUR,DEOGHAR,JHARKHAND,SANTHAL PARGANAS,RANCHI,JHARKHAND
Rarhiya B.O,Branch Post Office,814113,,MOHANPUR,DEOGHAR,JHARKHAND,SANTHAL PARGANAS,RANCHI,JHARKHAND
Rikhiya B.O,Branch Post Office,814113,,MOHANPUR,DEOGHAR,JHARKHAND,SANTHAL PARGANAS,RANCHI,JHARKHAND
Simarjore B.O,Branch Post Office,814120,,MOHANPUR,DEOGHAR,JHARKHAND,SANTHAL PARGANAS,RANCHI,JHARKHAND
T Basdiha B.O,Branch Post Office,814120,,MOHANPUR,DEOGHAR,JHARKHAND,SANTHAL PARGANAS,RANCHI,JHARKHAND
Tapoban B.O,Branch Post Office,814143,,MOHANPUR,DEOGHAR,JHARKHAND,SANTHAL PARGANAS,RANCHI,JHARKHAND
Asna B.O,Branch Post Office,814146,,PALOJORI,DEOGHAR,JHARKHAND,SANTHAL PARGANAS,RANCHI,JHARKHAND
Bansbutia B.O,Branch Post Office,814146,,PALOJORI,DEOGHAR,JHARKHAND,SANTHAL PARGANAS,RANCHI,JHARKHAND
Choudri Nawadih B.O,Branch Post Office,814149,,PALOJORI,DEOGHAR,JHARKHAND,SANTHAL PARGANAS,RANCHI,JHARKHAND
Palojori S.O,Sub Post Office,814146,06438-274610,PALOJORI,DEOGHAR,JHARKHAND,SANTHAL PARGANAS,RANCHI,JHARKHAND
Poraiyahat S.O,Sub Post Office,814153,,PORAIYAHAT,DEOGHAR,JHARKHAND,SANTHAL PARGANAS,RANCHI,JHARKHAND
Daluraidih B.O,Branch Post Office,814152,,ROHNI,DEOGHAR,JHARKHAND,SANTHAL PARGANAS,RANCHI,JHARKHAND
Bamandiha B.O,Branch Post Office,814149,,SARATH,DEOGHAR,JHARKHAND,SANTHAL PARGANAS,RANCHI,JHARKHAND
Bamangama B.O,Branch Post Office,815353,,SARATH,DEOGHAR,JHARKHAND,SANTHAL PARGANAS,RANCHI,JHARKHAND
Baramsoli B.O,Branch Post Office,815357,,SARATH,DEOGHAR,JHARKHAND,SANTHAL PARGANAS,RANCHI,JHARKHAND
Charak Mara B.O,Branch Post Office,814149,,SARATH,DEOGHAR,JHARKHAND,SANTHAL PARGANAS,RANCHI,JHARKHAND
Gopibandh B.O,Branch Post Office,814149,,SARATH,DEOGHAR,JHARKHAND,SANTHAL PARGANAS,RANCHI,JHARKHAND
Jhagrahi B.O,Branch Post Office,814149,,SARATH,DEOGHAR,JHARKHAND,SANTHAL PARGANAS,RANCHI,JHARKHAND
Kukraha B.O,Branch Post Office,815357,,SARATH,DEOGHAR,JHARKHAND,SANTHAL PARGANAS,RANCHI,JHARKHAND
Phulchuan B.O,Branch Post Office,814149,,SARATH,DEOGHAR,JHARKHAND,SANTHAL PARGANAS,RANCHI,JHARKHAND
Sabaijore B.O,Branch Post Office,814149,,SARATH,DEOGHAR,JHARKHAND,SANTHAL PARGANAS,RANCHI,JHARKHAND
Sarath S.O,Sub Post Office,814149,,SARATH,DEOGHAR,JHARKHAND,SANTHAL PARGANAS,RANCHI,JHARKHAND
Siktiya B.O,Branch Post Office,815357,,SARATH,DEOGHAR,JHARKHAND,SANTHAL PARGANAS,RANCHI,JHARKHAND
Baijukura B.O,Branch Post Office,814143,,SARWAN,DEOGHAR,JHARKHAND,SANTHAL PARGANAS,RANCHI,JHARKHAND
Dumaria B.O,Branch Post Office,814149,,SARWAN,DEOGHAR,JHARKHAND,SANTHAL PARGANAS,RANCHI,JHARKHAND
Lakhoria B.O,Branch Post Office,814150,,SARWAN,DEOGHAR,JHARKHAND,SANTHAL PARGANAS,RANCHI,JHARKHAND
Madhuban B.O,Branch Post Office,814150,,SARWAN,DEOGHAR,JHARKHAND,SANTHAL PARGANAS,RANCHI,JHARKHAND
Magdiha B.O,Branch Post Office,814150,,SARWAN,DEOGHAR,JHARKHAND,SANTHAL PARGANAS,RANCHI,JHARKHAND
Manigarhi B.O,Branch Post Office,814150,,SARWAN,DEOGHAR,JHARKHAND,SANTHAL PARGANAS,RANCHI,JHARKHAND
Paharidih B.O,Branch Post Office,814150,,SARWAN,DEOGHAR,JHARKHAND,SANTHAL PARGANAS,RANCHI,JHARKHAND
Pahariya B.O,Branch Post Office,814150,,SARWAN,DEOGHAR,JHARKHAND,SANTHAL PARGANAS,RANCHI,JHARKHAND
Paway B.O,Branch Post Office,814150,,SARWAN,DEOGHAR,JHARKHAND,SANTHAL PARGANAS,RANCHI,JHARKHAND
Purjori B.O,Branch Post Office,814150,,SARWAN,DEOGHAR,JHARKHAND,SANTHAL PARGANAS,RANCHI,JHARKHAND
Rakti B.O,Branch Post Office,814150,,SARWAN,DEOGHAR,JHARKHAND,SANTHAL PARGANAS,RANCHI,JHARKHAND
Sarwan S.O,Sub Post Office,814150,,SARWAN,DEOGHAR,JHARKHAND,SANTHAL PARGANAS,RANCHI,JHARKHAND
Sonaraithari B.O,Branch Post Office,814150,,SARWAN,DEOGHAR,JHARKHAND,SANTHAL PARGANAS,RANCHI,JHARKHAND
Tilakpur B.O,Branch Post Office,814150,,SARWAN,DEOGHAR,JHARKHAND,SANTHAL PARGANAS,RANCHI,JHARKHAND
Patharda B.O,Branch Post Office,815353,,SATATH,DEOGHAR,JHARKHAND,SANTHAL PARGANAS,RANCHI,JHARKHAND
Jhagrahi B.O,Branch Post Office,828125,,BOKARO,DHANBAD,JHARKHAND,DHANBAD,RANCHI,JHARKHAND
Kalimela B.O,Branch Post Office,828112,,BOKARO,DHANBAD,JHARKHAND,DHANBAD,RANCHI,JHARKHAND
Khanoodih B.O,Branch Post Office,828307,,BOKARO,DHANBAD,JHARKHAND,DHANBAD,RANCHI,JHARKHAND
Maheshpur B.O,Branch Post Office,828125,,BOKARO,DHANBAD,JHARKHAND,DHANBAD,RANCHI,JHARKHAND
Bhojudih S.O,Sub Post Office,828303,,CHAS,DHANBAD,JHARKHAND,DHANBAD,RANCHI,JHARKHAND
A.C.C. Colony S.O,Sub Post Office,826124,0326-2245591,DHANBAD,DHANBAD,JHARKHAND,DHANBAD,RANCHI,JHARKHAND
Ambona B.O,Branch Post Office,828201,,DHANBAD,DHANBAD,JHARKHAND,DHANBAD,RANCHI,JHARKHAND
Amlapara Jharia S.O,Sub Post Office,828111,0326-2460001,DHANBAD,DHANBAD,JHARKHAND,DHANBAD,RANCHI,JHARKHAND
Amtal B.O,Branch Post Office,828111,,DHANBAD,DHANBAD,JHARKHAND,DHANBAD,RANCHI,JHARKHAND
Angarpathra B.O,Branch Post Office,828113,,DHANBAD,DHANBAD,JHARKHAND,DHANBAD,RANCHI,JHARKHAND
Ankduara B.O,Branch Post Office,828201,,DHANBAD,DHANBAD,JHARKHAND,DHANBAD,RANCHI,JHARKHAND
B.Polytechnic S.O,Sub Post Office,828130,0326-2205145,DHANBAD,DHANBAD,JHARKHAND,DHANBAD,RANCHI,JHARKHAND
Bagdaha B.O,Branch Post Office,828113,,DHANBAD,DHANBAD,JHARKHAND,DHANBAD,RANCHI,JHARKHAND
Bagdigi B.O,Branch Post Office,828110,,DHANBAD,DHANBAD,JHARKHAND,DHANBAD,RANCHI,JHARKHAND
Baghmara B.O,Branch Post Office,828201,,DHANBAD,DHANBAD,JHARKHAND,DHANBAD,RANCHI,JHARKHAND
Baghmara Bazar B.O,Branch Post Office,828306,,DHANBAD,DHANBAD,JHARKHAND,DHANBAD,RANCHI,JHARKHAND
Bagsuma B.O,Branch Post Office,828109,,DHANBAD,DHANBAD,JHARKHAND,DHANBAD,RANCHI,JHARKHAND
Baliapur S.O,Sub Post Office,828201,0326-2431204,DHANBAD,DHANBAD,JHARKHAND,DHANBAD,RANCHI,JHARKHAND
Balihari B.O,Branch Post Office,828116,,DHANBAD,DHANBAD,JHARKHAND,DHANBAD,RANCHI,JHARKHAND
Bansjora S.O,Sub Post Office,828101,0326-2330614,DHANBAD,DHANBAD,JHARKHAND,DHANBAD,RANCHI,JHARKHAND
Bara Putki S.O,Sub Post Office,828116,,DHANBAD,DHANBAD,JHARKHAND,DHANBAD,RANCHI,JHARKHAND
Barbendia B.O,Branch Post Office,828205,,DHANBAD,DHANBAD,JHARKHAND,DHANBAD,RANCHI,JHARKHAND
Bardohi B.O,Branch Post Office,828109,,DHANBAD,DHANBAD,JHARKHAND,DHANBAD,RANCHI,JHARKHAND
Barwa B.O,Branch Post Office,828205,,DHANBAD,DHANBAD,JHARKHAND,DHANBAD,RANCHI,JHARKHAND
Bastacola B.O,Branch Post Office,828106,,DHANBAD,DHANBAD,JHARKHAND,DHANBAD,RANCHI,JHARKHAND
BCCl Township S.O,Sub Post Office,826005,0326-2230821,DHANBAD,DHANBAD,JHARKHAND,DHANBAD,RANCHI,JHARKHAND
Benagoria B.O,Branch Post Office,828205,,DHANBAD,DHANBAD,JHARKHAND,DHANBAD,RANCHI,JHARKHAND
Benagoria B.O,Branch Post Office,828204,,DHANBAD,DHANBAD,JHARKHAND,DHANBAD,RANCHI,JHARKHAND
Bhadrichak B.O,Branch Post Office,828121,,DHANBAD,DHANBAD,JHARKHAND,DHANBAD,RANCHI,JHARKHAND
Bhaga S.O,Sub Post Office,828301,0326-2461450,DHANBAD,DHANBAD,JHARKHAND,DHANBAD,RANCHI,JHARKHAND
Bhagabandh S.O,Sub Post Office,828102,,DHANBAD,DHANBAD,JHARKHAND,DHANBAD,RANCHI,JHARKHAND
Bhagatdih B.O,Branch Post Office,828111,,DHANBAD,DHANBAD,JHARKHAND,DHANBAD,RANCHI,JHARKHAND
Bhatdih S.O,Sub Post Office,828308,,DHANBAD,DHANBAD,JHARKHAND,DHANBAD,RANCHI,JHARKHAND
Bhelatand S.O,Sub Post Office,828103,0326-2372832,DHANBAD,DHANBAD,JHARKHAND,DHANBAD,RANCHI,JHARKHAND
Bhendra B.O,Branch Post Office,828401,,DHANBAD,DHANBAD,JHARKHAND,DHANBAD,RANCHI,JHARKHAND
Bhitia B.O,Branch Post Office,828109,,DHANBAD,DHANBAD,JHARKHAND,DHANBAD,RANCHI,JHARKHAND
Bhowra S.O,Sub Post Office,828302,0326-2320121,DHANBAD,DHANBAD,JHARKHAND,DHANBAD,RANCHI,JHARKHAND
Bhulan Bararee S.O,Sub Post Office,828133,,DHANBAD,DHANBAD,JHARKHAND,DHANBAD,RANCHI,JHARKHAND
Bhuli S.O,Sub Post Office,828104,0326-2340107,DHANBAD,DHANBAD,JHARKHAND,DHANBAD,RANCHI,JHARKHAND
Bhutgoria B.O,Branch Post Office,828301,,DHANBAD,DHANBAD,JHARKHAND,DHANBAD,RANCHI,JHARKHAND
Birajpur B.O,Branch Post Office,828113,,DHANBAD,DHANBAD,JHARKHAND,DHANBAD,RANCHI,JHARKHAND
Birsinghpur B.O,Branch Post Office,828205,,DHANBAD,DHANBAD,JHARKHAND,DHANBAD,RANCHI,JHARKHAND
Bowakalan B.O,Branch Post Office,828104,,DHANBAD,DHANBAD,JHARKHAND,DHANBAD,RANCHI,JHARKHAND
Brahmandiha B.O,Branch Post Office,828402,,DHANBAD,DHANBAD,JHARKHAND,DHANBAD,RANCHI,JHARKHAND
Burragarh B.O,Branch Post Office,828117,,DHANBAD,DHANBAD,JHARKHAND,DHANBAD,RANCHI,JHARKHAND
Chanchpottery B.O,Branch Post Office,828202,,DHANBAD,DHANBAD,JHARKHAND,DHANBAD,RANCHI,JHARKHAND
Charak B.O,Branch Post Office,828109,,DHANBAD,DHANBAD,JHARKHAND,DHANBAD,RANCHI,JHARKHAND
Chasnalla S.O,Sub Post Office,828135,0326-2461351,DHANBAD,DHANBAD,JHARKHAND,DHANBAD,RANCHI,JHARKHAND
Chipkia B.O,Branch Post Office,828109,,DHANBAD,DHANBAD,JHARKHAND,DHANBAD,RANCHI,JHARKHAND
Chirkunda S.O,Sub Post Office,828202,06540-273128,DHANBAD,DHANBAD,JHARKHAND,DHANBAD,RANCHI,JHARKHAND
Cmpf S.O,Sub Post Office,826001,0326-2209825,DHANBAD,DHANBAD,JHARKHAND,DHANBAD,RANCHI,JHARKHAND
Cmrs S.O,Sub Post Office,826001,0326-2205171,DHANBAD,DHANBAD,JHARKHAND,DHANBAD,RANCHI,JHARKHAND
D.S.E. S.O,Sub Post Office,826001,0326-2203208,DHANBAD,DHANBAD,JHARKHAND,DHANBAD,RANCHI,JHARKHAND
Daldali B.O,Branch Post Office,828204,,DHANBAD,DHANBAD,JHARKHAND,DHANBAD,RANCHI,JHARKHAND
Daludih B.O,Branch Post Office,828113,,DHANBAD,DHANBAD,JHARKHAND,DHANBAD,RANCHI,JHARKHAND
Damodarpur B.O,Branch Post Office,826004,,DHANBAD,DHANBAD,JHARKHAND,DHANBAD,RANCHI,JHARKHAND
Debiana B.O,Branch Post Office,828205,,DHANBAD,DHANBAD,JHARKHAND,DHANBAD,RANCHI,JHARKHAND
Dhanbad Bazar S.O,Sub Post Office,826001,0326-2305112,DHANBAD,DHANBAD,JHARKHAND,DHANBAD,RANCHI,JHARKHAND
Dhanbad H.O,Head Post Office,826001,0326-2220269,DHANBAD,DHANBAD,JHARKHAND,DHANBAD,RANCHI,JHARKHAND
Dhanbad Hirapur S.O,Sub Post Office,826001,0326-2205271,DHANBAD,DHANBAD,JHARKHAND,DHANBAD,RANCHI,JHARKHAND
Dhansar S.O,Sub Post Office,828106,0326-2307537,DHANBAD,DHANBAD,JHARKHAND,DHANBAD,RANCHI,JHARKHAND
Dhoria Mahubani B.O,Branch Post Office,828109,,DHANBAD,DHANBAD,JHARKHAND,DHANBAD,RANCHI,JHARKHAND
Dobari B.O,Branch Post Office,828111,,DHANBAD,DHANBAD,JHARKHAND,DHANBAD,RANCHI,JHARKHAND
Domgarh S.O,Sub Post Office,828107,0326-2350170,DHANBAD,DHANBAD,JHARKHAND,DHANBAD,RANCHI,JHARKHAND
Dumaria B.O,Branch Post Office,828205,,DHANBAD,DHANBAD,JHARKHAND,DHANBAD,RANCHI,JHARKHAND
Dumarkunda B.O,Branch Post Office,828202,,DHANBAD,DHANBAD,JHARKHAND,DHANBAD,RANCHI,JHARKHAND
Dumdumi B.O,Branch Post Office,828402,,DHANBAD,DHANBAD,JHARKHAND,DHANBAD,RANCHI,JHARKHAND
Fatehpur B.O,Branch Post Office,828109,,DHANBAD,DHANBAD,JHARKHAND,DHANBAD,RANCHI,JHARKHAND
Fri S.O,Sub Post Office,828108,0326-2381635,DHANBAD,DHANBAD,JHARKHAND,DHANBAD,RANCHI,JHARKHAND
G. Raghunathpur B.O,Branch Post Office,828109,,DHANBAD,DHANBAD,JHARKHAND,DHANBAD,RANCHI,JHARKHAND
Galfarbari B.O,Branch Post Office,828204,,DHANBAD,DHANBAD,JHARKHAND,DHANBAD,RANCHI,JHARKHAND
Gaukola B.O,Branch Post Office,828109,,DHANBAD,DHANBAD,JHARKHAND,DHANBAD,RANCHI,JHARKHAND
Gharbar B.O,Branch Post Office,828201,,DHANBAD,DHANBAD,JHARKHAND,DHANBAD,RANCHI,JHARKHAND
Ghunghusa B.O,Branch Post Office,828401,,DHANBAD,DHANBAD,JHARKHAND,DHANBAD,RANCHI,JHARKHAND
Gomoh S.O,Sub Post Office,828401,0326-2473186,DHANBAD,DHANBAD,JHARKHAND,DHANBAD,RANCHI,JHARKHAND
Gonudih B.O,Branch Post Office,828116,,DHANBAD,DHANBAD,JHARKHAND,DHANBAD,RANCHI,JHARKHAND
Goplaichak B.O,Branch Post Office,828111,,DHANBAD,DHANBAD,JHARKHAND,DHANBAD,RANCHI,JHARKHAND
Gortoppa B.O,Branch Post Office,828109,,DHANBAD,DHANBAD,JHARKHAND,DHANBAD,RANCHI,JHARKHAND
Govindpur S.O,Sub Post Office,828109,06540-262224,DHANBAD,DHANBAD,JHARKHAND,DHANBAD,RANCHI,JHARKHAND
Hariharpur B.O,Branch Post Office,828401,,DHANBAD,DHANBAD,JHARKHAND,DHANBAD,RANCHI,JHARKHAND
Horladih B.O,Branch Post Office,828301,,DHANBAD,DHANBAD,JHARKHAND,DHANBAD,RANCHI,JHARKHAND
Indian School Of Mines S.O,Sub Post Office,826004,0326-2296682,DHANBAD,DHANBAD,JHARKHAND,DHANBAD,RANCHI,JHARKHAND
Jagjivan Nagar S.O,Sub Post Office,826003,0326-2205177,DHANBAD,DHANBAD,JHARKHAND,DHANBAD,RANCHI,JHARKHAND
Jamadoba S.O,Sub Post Office,828112,0326-2460016,DHANBAD,DHANBAD,JHARKHAND,DHANBAD,RANCHI,JHARKHAND
Jangalpur B.O,Branch Post Office,828109,,DHANBAD,DHANBAD,JHARKHAND,DHANBAD,RANCHI,JHARKHAND
Jealgora S.O,Sub Post Office,828110,0326-2382930,DHANBAD,DHANBAD,JHARKHAND,DHANBAD,RANCHI,JHARKHAND
Jharia Bazar S.O,Sub Post Office,828111,0326-2240106,DHANBAD,DHANBAD,JHARKHAND,DHANBAD,RANCHI,JHARKHAND
Jharia Manbad S.O,Sub Post Office,828111,0326-2460539,DHANBAD,DHANBAD,JHARKHAND,DHANBAD,RANCHI,JHARKHAND
Jharia S.O,Sub Post Office,828111,0326-2460289,DHANBAD,DHANBAD,JHARKHAND,DHANBAD,RANCHI,JHARKHAND
Jhiluwa B.O,Branch Post Office,828109,,DHANBAD,DHANBAD,JHARKHAND,DHANBAD,RANCHI,JHARKHAND
Jhinaki B.O,Branch Post Office,828109,,DHANBAD,DHANBAD,JHARKHAND,DHANBAD,RANCHI,JHARKHAND
Jitpur S.O,Sub Post Office,828309,,DHANBAD,DHANBAD,JHARKHAND,DHANBAD,RANCHI,JHARKHAND
Jogidih B.O,Branch Post Office,828303,,DHANBAD,DHANBAD,JHARKHAND,DHANBAD,RANCHI,JHARKHAND
K.G.Ashram B.O,Branch Post Office,828109,,DHANBAD,DHANBAD,JHARKHAND,DHANBAD,RANCHI,JHARKHAND
Kaliasole B.O,Branch Post Office,828205,,DHANBAD,DHANBAD,JHARKHAND,DHANBAD,RANCHI,JHARKHAND
Kalyanpur B.O,Branch Post Office,826004,,DHANBAD,DHANBAD,JHARKHAND,DHANBAD,RANCHI,JHARKHAND
Kankanee B.O,Branch Post Office,828101,,DHANBAD,DHANBAD,JHARKHAND,DHANBAD,RANCHI,JHARKHAND
Kankomath B.O,Branch Post Office,828113,,DHANBAD,DHANBAD,JHARKHAND,DHANBAD,RANCHI,JHARKHAND
Karitand B.O,Branch Post Office,828129,,DHANBAD,DHANBAD,JHARKHAND,DHANBAD,RANCHI,JHARKHAND
Katania Ojhadih B.O,Branch Post Office,828109,,DHANBAD,DHANBAD,JHARKHAND,DHANBAD,RANCHI,JHARKHAND
Katras Bazar S.O,Sub Post Office,828114,0326-2372826,DHANBAD,DHANBAD,JHARKHAND,DHANBAD,RANCHI,JHARKHAND
Katrasgarh S.O,Sub Post Office,828113,0326-2372840,DHANBAD,DHANBAD,JHARKHAND,DHANBAD,RANCHI,JHARKHAND
Kesarkural B.O,Branch Post Office,828204,,DHANBAD,DHANBAD,JHARKHAND,DHANBAD,RANCHI,JHARKHAND
Keshalpur B.O,Branch Post Office,828114,,DHANBAD,DHANBAD,JHARKHAND,DHANBAD,RANCHI,JHARKHAND
Keska B.O,Branch Post Office,828109,,DHANBAD,DHANBAD,JHARKHAND,DHANBAD,RANCHI,JHARKHAND
Khario B.O,Branch Post Office,828306,,DHANBAD,DHANBAD,JHARKHAND,DHANBAD,RANCHI,JHARKHAND
Kharni B.O,Branch Post Office,828113,,DHANBAD,DHANBAD,JHARKHAND,DHANBAD,RANCHI,JHARKHAND
Khasjeena Gora S.O,Sub Post Office,828115,0326-2001321,DHANBAD,DHANBAD,JHARKHAND,DHANBAD,RANCHI,JHARKHAND
Kirkend B.O,Branch Post Office,828116,,DHANBAD,DHANBAD,JHARKHAND,DHANBAD,RANCHI,JHARKHAND
Kujama B.O,Branch Post Office,828131,,DHANBAD,DHANBAD,JHARKHAND,DHANBAD,RANCHI,JHARKHAND
Kumardhubi S.O,Sub Post Office,828203,06540-273148,DHANBAD,DHANBAD,JHARKHAND,DHANBAD,RANCHI,JHARKHAND
Kustore S.O,Sub Post Office,828117,0326-2330603,DHANBAD,DHANBAD,JHARKHAND,DHANBAD,RANCHI,JHARKHAND
Kusunda S.O,Sub Post Office,828116,0326-2330630,DHANBAD,DHANBAD,JHARKHAND,DHANBAD,RANCHI,JHARKHAND
Lakarka B.O,Branch Post Office,828113,,DHANBAD,DHANBAD,JHARKHAND,DHANBAD,RANCHI,JHARKHAND
Lalpur B.O,Branch Post Office,828129,,DHANBAD,DHANBAD,JHARKHAND,DHANBAD,RANCHI,JHARKHAND
Ledaharia B.O,Branch Post Office,828204,,DHANBAD,DHANBAD,JHARKHAND,DHANBAD,RANCHI,JHARKHAND
Lodna S.O,Sub Post Office,828131,0326-2461874,DHANBAD,DHANBAD,JHARKHAND,DHANBAD,RANCHI,JHARKHAND
Ludharia B.O,Branch Post Office,828109,,DHANBAD,DHANBAD,JHARKHAND,DHANBAD,RANCHI,JHARKHAND
Madaidih B.O,Branch Post Office,828402,,DHANBAD,DHANBAD,JHARKHAND,DHANBAD,RANCHI,JHARKHAND
Madanpur B.O,Branch Post Office,828205,,DHANBAD,DHANBAD,JHARKHAND,DHANBAD,RANCHI,JHARKHAND
Madhuban B.O,Branch Post Office,828131,,DHANBAD,DHANBAD,JHARKHAND,DHANBAD,RANCHI,JHARKHAND
Mahal B.O,Branch Post Office,828303,,DHANBAD,DHANBAD,JHARKHAND,DHANBAD,RANCHI,JHARKHAND
Maharajganj B.O,Branch Post Office,828109,,DHANBAD,DHANBAD,JHARKHAND,DHANBAD,RANCHI,JHARKHAND
Maira Nawatand B.O,Branch Post Office,828109,,DHANBAD,DHANBAD,JHARKHAND,DHANBAD,RANCHI,JHARKHAND
Maithon Dam S.O,Sub Post Office,828207,06540-274415,DHANBAD,DHANBAD,JHARKHAND,DHANBAD,RANCHI,JHARKHAND
Malkera S.O,Sub Post Office,828304,0326-2372825,DHANBAD,DHANBAD,JHARKHAND,DHANBAD,RANCHI,JHARKHAND
Manaitand S.O,Sub Post Office,826001,0326-2301591,DHANBAD,DHANBAD,JHARKHAND,DHANBAD,RANCHI,JHARKHAND
Maniadih B.O,Branch Post Office,828109,,DHANBAD,DHANBAD,JHARKHAND,DHANBAD,RANCHI,JHARKHAND
Matari B.O,Branch Post Office,828114,,DHANBAD,DHANBAD,JHARKHAND,DHANBAD,RANCHI,JHARKHAND
Merrah B.O,Branch Post Office,828202,,DHANBAD,DHANBAD,JHARKHAND,DHANBAD,RANCHI,JHARKHAND
Mohuda S.O,Sub Post Office,828305,0326-2271128,DHANBAD,DHANBAD,JHARKHAND,DHANBAD,RANCHI,JHARKHAND
Moko B.O,Branch Post Office,828201,,DHANBAD,DHANBAD,JHARKHAND,DHANBAD,RANCHI,JHARKHAND
Moonidih S.O,Sub Post Office,828129,0326-2273570,DHANBAD,DHANBAD,JHARKHAND,DHANBAD,RANCHI,JHARKHAND
Moradih B.O,Branch Post Office,828205,,DHANBAD,DHANBAD,JHARKHAND,DHANBAD,RANCHI,JHARKHAND
Motinagar S.O,Sub Post Office,828120,0326-2251642,DHANBAD,DHANBAD,JHARKHAND,DHANBAD,RANCHI,JHARKHAND
Mugma S.O,Sub Post Office,828204,06540-285403,DHANBAD,DHANBAD,JHARKHAND,DHANBAD,RANCHI,JHARKHAND
Murradih B.O,Branch Post Office,826004,,DHANBAD,DHANBAD,JHARKHAND,DHANBAD,RANCHI,JHARKHAND
Nagarkiary B.O,Branch Post Office,828109,,DHANBAD,DHANBAD,JHARKHAND,DHANBAD,RANCHI,JHARKHAND
Nagnagar B.O,Branch Post Office,826004,,DHANBAD,DHANBAD,JHARKHAND,DHANBAD,RANCHI,JHARKHAND
Nawagarh S.O,Sub Post Office,828306,0326-2392064,DHANBAD,DHANBAD,JHARKHAND,DHANBAD,RANCHI,JHARKHAND
Naya Bazar Wasseypur S.O,Sub Post Office,826001,0326-2303056,DHANBAD,DHANBAD,JHARKHAND,DHANBAD,RANCHI,JHARKHAND
Nirsa Chatti S.O,Sub Post Office,828205,06540-275104,DHANBAD,DHANBAD,JHARKHAND,DHANBAD,RANCHI,JHARKHAND
Nudkhurkee S.O,Sub Post Office,828307,,DHANBAD,DHANBAD,JHARKHAND,DHANBAD,RANCHI,JHARKHAND
Palani B.O,Branch Post Office,828201,,DHANBAD,DHANBAD,JHARKHAND,DHANBAD,RANCHI,JHARKHAND
Panchet Dam S.O,Sub Post Office,828206,,DHANBAD,DHANBAD,JHARKHAND,DHANBAD,RANCHI,JHARKHAND
Pandra B.O,Branch Post Office,828205,,DHANBAD,DHANBAD,JHARKHAND,DHANBAD,RANCHI,JHARKHAND
Panjania B.O,Branch Post Office,828113,,DHANBAD,DHANBAD,JHARKHAND,DHANBAD,RANCHI,JHARKHAND
Pargha B.O,Branch Post Office,828201,,DHANBAD,DHANBAD,JHARKHAND,DHANBAD,RANCHI,JHARKHAND
Patherdih Coal Washery S.O,Sub Post Office,828132,0326-2381102,DHANBAD,DHANBAD,JHARKHAND,DHANBAD,RANCHI,JHARKHAND
Patherdih S.O,Sub Post Office,828119,0326-2381163,DHANBAD,DHANBAD,JHARKHAND,DHANBAD,RANCHI,JHARKHAND
Pindrahat B.O,Branch Post Office,828201,,DHANBAD,DHANBAD,JHARKHAND,DHANBAD,RANCHI,JHARKHAND
Pochari B.O,Branch Post Office,828306,,DHANBAD,DHANBAD,JHARKHAND,DHANBAD,RANCHI,JHARKHAND
Poddardih B.O,Branch Post Office,828205,,DHANBAD,DHANBAD,JHARKHAND,DHANBAD,RANCHI,JHARKHAND
Pokharia B.O,Branch Post Office,828109,,DHANBAD,DHANBAD,JHARKHAND,DHANBAD,RANCHI,JHARKHAND
Pradhan Khanta B.O,Branch Post Office,828201,,DHANBAD,DHANBAD,JHARKHAND,DHANBAD,RANCHI,JHARKHAND
Pradhankhanta B.O,Branch Post Office,828114,,DHANBAD,DHANBAD,JHARKHAND,DHANBAD,RANCHI,JHARKHAND
Purnadih B.O,Branch Post Office,828109,,DHANBAD,DHANBAD,JHARKHAND,DHANBAD,RANCHI,JHARKHAND
Rajganj B.O,Branch Post Office,828113,,DHANBAD,DHANBAD,JHARKHAND,DHANBAD,RANCHI,JHARKHAND
Rajpura B.O,Branch Post Office,828203,,DHANBAD,DHANBAD,JHARKHAND,DHANBAD,RANCHI,JHARKHAND
Ramakunda B.O,Branch Post Office,828306,,DHANBAD,DHANBAD,JHARKHAND,DHANBAD,RANCHI,JHARKHAND
Ramnagar Garh B.O,Branch Post Office,828305,,DHANBAD,DHANBAD,JHARKHAND,DHANBAD,RANCHI,JHARKHAND
Rampur B.O,Branch Post Office,828304,,DHANBAD,DHANBAD,JHARKHAND,DHANBAD,RANCHI,JHARKHAND
Roam B.O,Branch Post Office,828113,,DHANBAD,DHANBAD,JHARKHAND,DHANBAD,RANCHI,JHARKHAND
S.I.T. S.O,Sub Post Office,828123,0326-2350299,DHANBAD,DHANBAD,JHARKHAND,DHANBAD,RANCHI,JHARKHAND
Saharpura S.O,Sub Post Office,828122,0326-2252643,DHANBAD,DHANBAD,JHARKHAND,DHANBAD,RANCHI,JHARKHAND
Sahubahiyar B.O,Branch Post Office,828402,,DHANBAD,DHANBAD,JHARKHAND,DHANBAD,RANCHI,JHARKHAND
Salpatra B.O,Branch Post Office,828201,,DHANBAD,DHANBAD,JHARKHAND,DHANBAD,RANCHI,JHARKHAND
Salukchapra B.O,Branch Post Office,828201,,DHANBAD,DHANBAD,JHARKHAND,DHANBAD,RANCHI,JHARKHAND
Saraidhela S.O,Sub Post Office,828127,0326-2222630,DHANBAD,DHANBAD,JHARKHAND,DHANBAD,RANCHI,JHARKHAND
Sarkardih B.O,Branch Post Office,828109,,DHANBAD,DHANBAD,JHARKHAND,DHANBAD,RANCHI,JHARKHAND
Sarsapahari B.O,Branch Post Office,828202,,DHANBAD,DHANBAD,JHARKHAND,DHANBAD,RANCHI,JHARKHAND
Sendra B.O,Branch Post Office,828101,,DHANBAD,DHANBAD,JHARKHAND,DHANBAD,RANCHI,JHARKHAND
Shramik Nagar S.O,Sub Post Office,828105,0326-2340946,DHANBAD,DHANBAD,JHARKHAND,DHANBAD,RANCHI,JHARKHAND
Sijua S.O,Sub Post Office,828121,0326-2372828,DHANBAD,DHANBAD,JHARKHAND,DHANBAD,RANCHI,JHARKHAND
Silibari B.O,Branch Post Office,828203,,DHANBAD,DHANBAD,JHARKHAND,DHANBAD,RANCHI,JHARKHAND
Sindri S.O,Sub Post Office,828122,0326-2245330,DHANBAD,DHANBAD,JHARKHAND,DHANBAD,RANCHI,JHARKHAND
Singhdaha B.O,Branch Post Office,828402,,DHANBAD,DHANBAD,JHARKHAND,DHANBAD,RANCHI,JHARKHAND
Singhdih B.O,Branch Post Office,828402,,DHANBAD,DHANBAD,JHARKHAND,DHANBAD,RANCHI,JHARKHAND
Sonardih S.O,Sub Post Office,828125,0326-2372831,DHANBAD,DHANBAD,JHARKHAND,DHANBAD,RANCHI,JHARKHAND
Srirampur B.O,Branch Post Office,828402,,DHANBAD,DHANBAD,JHARKHAND,DHANBAD,RANCHI,JHARKHAND
Sudamdih S.O,Sub Post Office,828126,0326-2381183,DHANBAD,DHANBAD,JHARKHAND,DHANBAD,RANCHI,JHARKHAND
Sunderpahari B.O,Branch Post Office,828109,,DHANBAD,DHANBAD,JHARKHAND,DHANBAD,RANCHI,JHARKHAND
Suranga B.O,Branch Post Office,828115,,DHANBAD,DHANBAD,JHARKHAND,DHANBAD,RANCHI,JHARKHAND
Tantri B.O,Branch Post Office,828402,,DHANBAD,DHANBAD,JHARKHAND,DHANBAD,RANCHI,JHARKHAND
Thaparnagar B.O,Branch Post Office,828205,,DHANBAD,DHANBAD,JHARKHAND,DHANBAD,RANCHI,JHARKHAND
Tilaiya B.O,Branch Post Office,828113,,DHANBAD,DHANBAD,JHARKHAND,DHANBAD,RANCHI,JHARKHAND
Tisra B.O,Branch Post Office,828115,,DHANBAD,DHANBAD,JHARKHAND,DHANBAD,RANCHI,JHARKHAND
Topchanchi S.O,Sub Post Office,828402,0326-2482418,DHANBAD,DHANBAD,JHARKHAND,DHANBAD,RANCHI,JHARKHAND
Tundi S.O,Sub Post Office,828142,,DHANBAD,DHANBAD,JHARKHAND,DHANBAD,RANCHI,JHARKHAND
Tundoo S.O,Sub Post Office,828128,0326-2392054,DHANBAD,DHANBAD,JHARKHAND,DHANBAD,RANCHI,JHARKHAND
Ukma B.O,Branch Post Office,828109,,DHANBAD,DHANBAD,JHARKHAND,DHANBAD,RANCHI,JHARKHAND
Urma B.O,Branch Post Office,828204,,DHANBAD,DHANBAD,JHARKHAND,DHANBAD,RANCHI,JHARKHAND
Yadavpur B.O,Branch Post Office,826004,,DHANBAD,DHANBAD,JHARKHAND,DHANBAD,RANCHI,JHARKHAND
Satpahari B.O,Branch Post Office,814120,, JARMUNDI,DUMKA,JHARKHAND,SANTHAL PARGANAS,RANCHI,JHARKHAND
Amarapahari B.O,Branch Post Office,814102,,.,DUMKA,JHARKHAND,SANTHAL PARGANAS,RANCHI,JHARKHAND
Bhaturia B.O,Branch Post Office,814102,,.,DUMKA,JHARKHAND,SANTHAL PARGANAS,RANCHI,JHARKHAND
Danro B.O,Branch Post Office,814102,,.,DUMKA,JHARKHAND,SANTHAL PARGANAS,RANCHI,JHARKHAND
Dhanbasa B.O,Branch Post Office,816116,,.,DUMKA,JHARKHAND,SANTHAL PARGANAS,RANCHI,JHARKHAND
Patjore B.O,Branch Post Office,814148,,.,DUMKA,JHARKHAND,SANTHAL PARGANAS,RANCHI,JHARKHAND
Simaljore B.O,Branch Post Office,816116,,.,DUMKA,JHARKHAND,SANTHAL PARGANAS,RANCHI,JHARKHAND
Sinduria B.O,Branch Post Office,814102,,.,DUMKA,JHARKHAND,SANTHAL PARGANAS,RANCHI,JHARKHAND
Asansol B.O,Branch Post Office,814119,,DUMKA,DUMKA,JHARKHAND,SANTHAL PARGANAS,RANCHI,JHARKHAND
Bagnal B.O,Branch Post Office,814144,,DUMKA,DUMKA,JHARKHAND,SANTHAL PARGANAS,RANCHI,JHARKHAND
Bando Haripur B.O,Branch Post Office,814110,,DUMKA,DUMKA,JHARKHAND,SANTHAL PARGANAS,RANCHI,JHARKHAND
Bhurkunda B.O,Branch Post Office,814158,,DUMKA,DUMKA,JHARKHAND,SANTHAL PARGANAS,RANCHI,JHARKHAND
Chainpur Kairabani B.O,Branch Post Office,814158,,DUMKA,DUMKA,JHARKHAND,SANTHAL PARGANAS,RANCHI,JHARKHAND
Dhogariya B.O,Branch Post Office,814158,,DUMKA,DUMKA,JHARKHAND,SANTHAL PARGANAS,RANCHI,JHARKHAND
Dudhani B.O,Branch Post Office,814110,,DUMKA,DUMKA,JHARKHAND,SANTHAL PARGANAS,RANCHI,JHARKHAND
Dumka H.O,Head Post Office,814101,06434-222343,DUMKA,DUMKA,JHARKHAND,SANTHAL PARGANAS,RANCHI,JHARKHAND
Dumka S.O,Sub Post Office,814101,06434-227558,DUMKA,DUMKA,JHARKHAND,SANTHAL PARGANAS,RANCHI,JHARKHAND
Gando B.O,Branch Post Office,814119,,DUMKA,DUMKA,JHARKHAND,SANTHAL PARGANAS,RANCHI,JHARKHAND
Ghasipur B.O,Branch Post Office,814119,,DUMKA,DUMKA,JHARKHAND,SANTHAL PARGANAS,RANCHI,JHARKHAND
Guhiajori S.O,Sub Post Office,814158,,DUMKA,DUMKA,JHARKHAND,SANTHAL PARGANAS,RANCHI,JHARKHAND
K. Baskichowk B.O,Branch Post Office,814119,,DUMKA,DUMKA,JHARKHAND,SANTHAL PARGANAS,RANCHI,JHARKHAND
K. Madhuwadih B.O,Branch Post Office,814158,,DUMKA,DUMKA,JHARKHAND,SANTHAL PARGANAS,RANCHI,JHARKHAND
Kolharia B.O,Branch Post Office,814110,,DUMKA,DUMKA,JHARKHAND,SANTHAL PARGANAS,RANCHI,JHARKHAND
Kumrabad B.O,Branch Post Office,814119,,DUMKA,DUMKA,JHARKHAND,SANTHAL PARGANAS,RANCHI,JHARKHAND
Kurwa S.O,Sub Post Office,814119,,DUMKA,DUMKA,JHARKHAND,SANTHAL PARGANAS,RANCHI,JHARKHAND
Machkicha B.O,Branch Post Office,814158,,DUMKA,DUMKA,JHARKHAND,SANTHAL PARGANAS,RANCHI,JHARKHAND
Massanjore S.O,Sub Post Office,814144,,DUMKA,DUMKA,JHARKHAND,SANTHAL PARGANAS,RANCHI,JHARKHAND
Morbhanga B.O,Branch Post Office,814119,,DUMKA,DUMKA,JHARKHAND,SANTHAL PARGANAS,RANCHI,JHARKHAND
Pakiriya B.O,Branch Post Office,814158,,DUMKA,DUMKA,JHARKHAND,SANTHAL PARGANAS,RANCHI,JHARKHAND
Puranadumka B.O,Branch Post Office,814110,,DUMKA,DUMKA,JHARKHAND,SANTHAL PARGANAS,RANCHI,JHARKHAND
Rajbandh B.O,Branch Post Office,814158,,DUMKA,DUMKA,JHARKHAND,SANTHAL PARGANAS,RANCHI,JHARKHAND
Ranibahal B.O,Branch Post Office,814144,,DUMKA,DUMKA,JHARKHAND,SANTHAL PARGANAS,RANCHI,JHARKHAND
Shivpahar S.O,Sub Post Office,814110,,DUMKA,DUMKA,JHARKHAND,SANTHAL PARGANAS,RANCHI,JHARKHAND
Teliachak B.O,Branch Post Office,814110,,DUMKA,DUMKA,JHARKHAND,SANTHAL PARGANAS,RANCHI,JHARKHAND
Dharampur B.O,Branch Post Office,814103,,GOPIKANDAR,DUMKA,JHARKHAND,SANTHAL PARGANAS,RANCHI,JHARKHAND
Gopikandar B.O,Branch Post Office,814103,,GOPIKANDAR,DUMKA,JHARKHAND,SANTHAL PARGANAS,RANCHI,JHARKHAND
Karudih B.O,Branch Post Office,816117,,GOPIKANDAR,DUMKA,JHARKHAND,SANTHAL PARGANAS,RANCHI,JHARKHAND
T. Daldali B.O,Branch Post Office,814103,,GOPIKANDAR,DUMKA,JHARKHAND,SANTHAL PARGANAS,RANCHI,JHARKHAND
Karipahari B.O,Branch Post Office,816117,,GOPIKANDER,DUMKA,JHARKHAND,SANTHAL PARGANAS,RANCHI,JHARKHAND
Seeltawatilar B.O,Branch Post Office,814145,,GURMUNDI,DUMKA,JHARKHAND,SANTHAL PARGANAS,RANCHI,JHARKHAND
Ajnaridudhani B.O,Branch Post Office,814146,,JAMA,DUMKA,JHARKHAND,SANTHAL PARGANAS,RANCHI,JHARKHAND
Amlachatar B.O,Branch Post Office,814110,,JAMA,DUMKA,JHARKHAND,SANTHAL PARGANAS,RANCHI,JHARKHAND
Amra Nawadih B.O,Branch Post Office,814158,,JAMA,DUMKA,JHARKHAND,SANTHAL PARGANAS,RANCHI,JHARKHAND
Asanjore B.O,Branch Post Office,814110,,JAMA,DUMKA,JHARKHAND,SANTHAL PARGANAS,RANCHI,JHARKHAND
Bagjhopa B.O,Branch Post Office,814118,,JAMA,DUMKA,JHARKHAND,SANTHAL PARGANAS,RANCHI,JHARKHAND
Barapalasi B.O,Branch Post Office,814110,,JAMA,DUMKA,JHARKHAND,SANTHAL PARGANAS,RANCHI,JHARKHAND
Bhirabpur B.O,Branch Post Office,814146,,JAMA,DUMKA,JHARKHAND,SANTHAL PARGANAS,RANCHI,JHARKHAND
Bhutokoria B.O,Branch Post Office,814146,,JAMA,DUMKA,JHARKHAND,SANTHAL PARGANAS,RANCHI,JHARKHAND
Chaila Pathar B.O,Branch Post Office,814110,,JAMA,DUMKA,JHARKHAND,SANTHAL PARGANAS,RANCHI,JHARKHAND
Chikania B.O,Branch Post Office,814146,,JAMA,DUMKA,JHARKHAND,SANTHAL PARGANAS,RANCHI,JHARKHAND
Goari B.O,Branch Post Office,814110,,JAMA,DUMKA,JHARKHAND,SANTHAL PARGANAS,RANCHI,JHARKHAND
Gundlidangal B.O,Branch Post Office,814146,,JAMA,DUMKA,JHARKHAND,SANTHAL PARGANAS,RANCHI,JHARKHAND
Jama B.O,Branch Post Office,814110,,JAMA,DUMKA,JHARKHAND,SANTHAL PARGANAS,RANCHI,JHARKHAND
Laximipur B.O,Branch Post Office,814118,,JAMA,DUMKA,JHARKHAND,SANTHAL PARGANAS,RANCHI,JHARKHAND
Lilatari B.O,Branch Post Office,814110,,JAMA,DUMKA,JHARKHAND,SANTHAL PARGANAS,RANCHI,JHARKHAND
Maharo B.O,Branch Post Office,814110,,JAMA,DUMKA,JHARKHAND,SANTHAL PARGANAS,RANCHI,JHARKHAND
Majhiandih B.O,Branch Post Office,814110,,JAMA,DUMKA,JHARKHAND,SANTHAL PARGANAS,RANCHI,JHARKHAND
Nachangaria B.O,Branch Post Office,814146,,JAMA,DUMKA,JHARKHAND,SANTHAL PARGANAS,RANCHI,JHARKHAND
Nakrapahari B.O,Branch Post Office,814110,,JAMA,DUMKA,JHARKHAND,SANTHAL PARGANAS,RANCHI,JHARKHAND
Nischintpur B.O,Branch Post Office,814110,,JAMA,DUMKA,JHARKHAND,SANTHAL PARGANAS,RANCHI,JHARKHAND
Nonihatwari B.O,Branch Post Office,814110,,JAMA,DUMKA,JHARKHAND,SANTHAL PARGANAS,RANCHI,JHARKHAND
Pargodih B.O,Branch Post Office,814146,,JAMA,DUMKA,JHARKHAND,SANTHAL PARGANAS,RANCHI,JHARKHAND
Siktia B.O,Branch Post Office,814118,,JAMA,DUMKA,JHARKHAND,SANTHAL PARGANAS,RANCHI,JHARKHAND
Tarajora B.O,Branch Post Office,814146,,JAMA,DUMKA,JHARKHAND,SANTHAL PARGANAS,RANCHI,JHARKHAND
Upparbahal B.O,Branch Post Office,814110,,JAMA,DUMKA,JHARKHAND,SANTHAL PARGANAS,RANCHI,JHARKHAND
Uppersitwa B.O,Branch Post Office,814110,,JAMA,DUMKA,JHARKHAND,SANTHAL PARGANAS,RANCHI,JHARKHAND
Rajan Amar Kunda B.O,Branch Post Office,814120,,JARMUDI,DUMKA,JHARKHAND,SANTHAL PARGANAS,RANCHI,JHARKHAND
Amba Jarowadih B.O,Branch Post Office,814141,,JARMUNDI,DUMKA,JHARKHAND,SANTHAL PARGANAS,RANCHI,JHARKHAND
Banwara B.O,Branch Post Office,814141,,JARMUNDI,DUMKA,JHARKHAND,SANTHAL PARGANAS,RANCHI,JHARKHAND
Baratanr B.O,Branch Post Office,814118,,JARMUNDI,DUMKA,JHARKHAND,SANTHAL PARGANAS,RANCHI,JHARKHAND
Basukinathdham S.O,Sub Post Office,814118,,JARMUNDI,DUMKA,JHARKHAND,SANTHAL PARGANAS,RANCHI,JHARKHAND
Beldaha B.O,Branch Post Office,814141,,JARMUNDI,DUMKA,JHARKHAND,SANTHAL PARGANAS,RANCHI,JHARKHAND
Bishanpur B.O,Branch Post Office,814141,,JARMUNDI,DUMKA,JHARKHAND,SANTHAL PARGANAS,RANCHI,JHARKHAND
Chamrabahiar B.O,Branch Post Office,814118,,JARMUNDI,DUMKA,JHARKHAND,SANTHAL PARGANAS,RANCHI,JHARKHAND
Dhamnilata B.O,Branch Post Office,814118,,JARMUNDI,DUMKA,JHARKHAND,SANTHAL PARGANAS,RANCHI,JHARKHAND
Dudhani B.O,Branch Post Office,814141,,JARMUNDI,DUMKA,JHARKHAND,SANTHAL PARGANAS,RANCHI,JHARKHAND
Dumariahat B.O,Branch Post Office,814120,,JARMUNDI,DUMKA,JHARKHAND,SANTHAL PARGANAS,RANCHI,JHARKHAND
Gadibahirkunda B.O,Branch Post Office,814120,,JARMUNDI,DUMKA,JHARKHAND,SANTHAL PARGANAS,RANCHI,JHARKHAND
Hariharpur B.O,Branch Post Office,814120,,JARMUNDI,DUMKA,JHARKHAND,SANTHAL PARGANAS,RANCHI,JHARKHAND
Haripur B.O,Branch Post Office,814118,,JARMUNDI,DUMKA,JHARKHAND,SANTHAL PARGANAS,RANCHI,JHARKHAND
Jarmundi S.O,Sub Post Office,814141,06431-230627,JARMUNDI,DUMKA,JHARKHAND,SANTHAL PARGANAS,RANCHI,JHARKHAND
Kaladumaria B.O,Branch Post Office,814120,,JARMUNDI,DUMKA,JHARKHAND,SANTHAL PARGANAS,RANCHI,JHARKHAND
Karma B.O,Branch Post Office,814120,,JARMUNDI,DUMKA,JHARKHAND,SANTHAL PARGANAS,RANCHI,JHARKHAND
Khutahari B.O,Branch Post Office,814145,,JARMUNDI,DUMKA,JHARKHAND,SANTHAL PARGANAS,RANCHI,JHARKHAND
Lakhna B.O,Branch Post Office,814120,,JARMUNDI,DUMKA,JHARKHAND,SANTHAL PARGANAS,RANCHI,JHARKHAND
Nonihat S.O,Sub Post Office,814145,,JARMUNDI,DUMKA,JHARKHAND,SANTHAL PARGANAS,RANCHI,JHARKHAND
P. Jaratikar B.O,Branch Post Office,814141,,JARMUNDI,DUMKA,JHARKHAND,SANTHAL PARGANAS,RANCHI,JHARKHAND
Petsar B.O,Branch Post Office,814145,,JARMUNDI,DUMKA,JHARKHAND,SANTHAL PARGANAS,RANCHI,JHARKHAND
Raikinari B.O,Branch Post Office,814141,,JARMUNDI,DUMKA,JHARKHAND,SANTHAL PARGANAS,RANCHI,JHARKHAND
Sahara B.O,Branch Post Office,814120,,JARMUNDI,DUMKA,JHARKHAND,SANTHAL PARGANAS,RANCHI,JHARKHAND
Singhni B.O,Branch Post Office,814118,,JARMUNDI,DUMKA,JHARKHAND,SANTHAL PARGANAS,RANCHI,JHARKHAND
Sultanatikar B.O,Branch Post Office,814145,,JARMUNDI,DUMKA,JHARKHAND,SANTHAL PARGANAS,RANCHI,JHARKHAND
Kadma B.O,Branch Post Office,814103,,KATHIKIUND,DUMKA,JHARKHAND,SANTHAL PARGANAS,RANCHI,JHARKHAND
Amgachi B.O,Branch Post Office,814103,,KATHIKUND,DUMKA,JHARKHAND,SANTHAL PARGANAS,RANCHI,JHARKHAND
Astajora B.O,Branch Post Office,814103,,KATHIKUND,DUMKA,JHARKHAND,SANTHAL PARGANAS,RANCHI,JHARKHAND
B. Narganj B.O,Branch Post Office,814103,,KATHIKUND,DUMKA,JHARKHAND,SANTHAL PARGANAS,RANCHI,JHARKHAND
Bara Sarwapani B.O,Branch Post Office,814103,,KATHIKUND,DUMKA,JHARKHAND,SANTHAL PARGANAS,RANCHI,JHARKHAND
Kalajhar B.O,Branch Post Office,814103,,KATHIKUND,DUMKA,JHARKHAND,SANTHAL PARGANAS,RANCHI,JHARKHAND
Kathikund S.O,Sub Post Office,814103,,KATHIKUND,DUMKA,JHARKHAND,SANTHAL PARGANAS,RANCHI,JHARKHAND
Kolha B.O,Branch Post Office,814103,,KATHIKUND,DUMKA,JHARKHAND,SANTHAL PARGANAS,RANCHI,JHARKHAND
Masania B.O,Branch Post Office,814103,,KATHIKUND,DUMKA,JHARKHAND,SANTHAL PARGANAS,RANCHI,JHARKHAND
Pusaldih B.O,Branch Post Office,814103,,KATHIKUND,DUMKA,JHARKHAND,SANTHAL PARGANAS,RANCHI,JHARKHAND
Saldaha B.O,Branch Post Office,814103,,KATHIKUND,DUMKA,JHARKHAND,SANTHAL PARGANAS,RANCHI,JHARKHAND
Sarsabad B.O,Branch Post Office,814103,,KATHIKUND,DUMKA,JHARKHAND,SANTHAL PARGANAS,RANCHI,JHARKHAND
Babanbandhi B.O,Branch Post Office,814166,,KUNDAHIT,DUMKA,JHARKHAND,SANTHAL PARGANAS,RANCHI,JHARKHAND
Baragamharia B.O,Branch Post Office,814146,,MASALIA,DUMKA,JHARKHAND,SANTHAL PARGANAS,RANCHI,JHARKHAND
Garapathar B.O,Branch Post Office,814146,,MASALIA,DUMKA,JHARKHAND,SANTHAL PARGANAS,RANCHI,JHARKHAND
Ghormala Hunja B.O,Branch Post Office,814144,,MASALIA,DUMKA,JHARKHAND,SANTHAL PARGANAS,RANCHI,JHARKHAND
Goasol B.O,Branch Post Office,814110,,MASALIA,DUMKA,JHARKHAND,SANTHAL PARGANAS,RANCHI,JHARKHAND
Golbandha B.O,Branch Post Office,814146,,MASALIA,DUMKA,JHARKHAND,SANTHAL PARGANAS,RANCHI,JHARKHAND
Gumro B.O,Branch Post Office,814166,,MASALIA,DUMKA,JHARKHAND,SANTHAL PARGANAS,RANCHI,JHARKHAND
K. Bhoktadih B.O,Branch Post Office,814166,,MASALIA,DUMKA,JHARKHAND,SANTHAL PARGANAS,RANCHI,JHARKHAND
Kendhghatta B.O,Branch Post Office,814110,,MASALIA,DUMKA,JHARKHAND,SANTHAL PARGANAS,RANCHI,JHARKHAND
Khairabani B.O,Branch Post Office,814146,,MASALIA,DUMKA,JHARKHAND,SANTHAL PARGANAS,RANCHI,JHARKHAND
Kusumghatta B.O,Branch Post Office,814110,,MASALIA,DUMKA,JHARKHAND,SANTHAL PARGANAS,RANCHI,JHARKHAND
Lattabar B.O,Branch Post Office,814110,,MASALIA,DUMKA,JHARKHAND,SANTHAL PARGANAS,RANCHI,JHARKHAND
Makrampur B.O,Branch Post Office,814119,,MASALIA,DUMKA,JHARKHAND,SANTHAL PARGANAS,RANCHI,JHARKHAND
Pindari B.O,Branch Post Office,814146,,MASALIA,DUMKA,JHARKHAND,SANTHAL PARGANAS,RANCHI,JHARKHAND
R.Masalia B.O,Branch Post Office,814110,,MASALIA,DUMKA,JHARKHAND,SANTHAL PARGANAS,RANCHI,JHARKHAND
Sapchalla B.O,Branch Post Office,814110,,MASALIA,DUMKA,JHARKHAND,SANTHAL PARGANAS,RANCHI,JHARKHAND
Shikarpur B.O,Branch Post Office,814110,,MASALIA,DUMKA,JHARKHAND,SANTHAL PARGANAS,RANCHI,JHARKHAND
Tasaria B.O,Branch Post Office,814166,,MASALIA,DUMKA,JHARKHAND,SANTHAL PARGANAS,RANCHI,JHARKHAND
Kathalia B.O,Branch Post Office,814119,,MASALIYA,DUMKA,JHARKHAND,SANTHAL PARGANAS,RANCHI,JHARKHAND
Baijnathpur B.O,Branch Post Office,814146,,PALOJORI,DUMKA,JHARKHAND,SANTHAL PARGANAS,RANCHI,JHARKHAND
Basaha B.O,Branch Post Office,814146,,PALOJORI,DUMKA,JHARKHAND,SANTHAL PARGANAS,RANCHI,JHARKHAND
Birajpur B.O,Branch Post Office,814146,,PALOJORI,DUMKA,JHARKHAND,SANTHAL PARGANAS,RANCHI,JHARKHAND
Chaglajore B.O,Branch Post Office,814146,,PALOJORI,DUMKA,JHARKHAND,SANTHAL PARGANAS,RANCHI,JHARKHAND
Dubrajpur B.O,Branch Post Office,814146,,PALOJORI,DUMKA,JHARKHAND,SANTHAL PARGANAS,RANCHI,JHARKHAND
Garsara B.O,Branch Post Office,814146,,PALOJORI,DUMKA,JHARKHAND,SANTHAL PARGANAS,RANCHI,JHARKHAND
Jamua B.O,Branch Post Office,814146,,PALOJORI,DUMKA,JHARKHAND,SANTHAL PARGANAS,RANCHI,JHARKHAND
Jarwadi B.O,Branch Post Office,814146,,PALOJORI,DUMKA,JHARKHAND,SANTHAL PARGANAS,RANCHI,JHARKHAND
Karrasal B.O,Branch Post Office,814146,,PALOJORI,DUMKA,JHARKHAND,SANTHAL PARGANAS,RANCHI,JHARKHAND
Kunjora B.O,Branch Post Office,814146,,PALOJORI,DUMKA,JHARKHAND,SANTHAL PARGANAS,RANCHI,JHARKHAND
Sagarbanga B.O,Branch Post Office,814146,,PALOJORI,DUMKA,JHARKHAND,SANTHAL PARGANAS,RANCHI,JHARKHAND
Sarsa B.O,Branch Post Office,814146,,PALOJORI,DUMKA,JHARKHAND,SANTHAL PARGANAS,RANCHI,JHARKHAND
T.D.Dumaria B.O,Branch Post Office,814146,,PALOJORI,DUMKA,JHARKHAND,SANTHAL PARGANAS,RANCHI,JHARKHAND
Talghara B.O,Branch Post Office,814146,,PALOJORI,DUMKA,JHARKHAND,SANTHAL PARGANAS,RANCHI,JHARKHAND
Sushni B.O,Branch Post Office,814102,,PORAIYAHAT,DUMKA,JHARKHAND,SANTHAL PARGANAS,RANCHI,JHARKHAND
Thakur Nahar B.O,Branch Post Office,814145,,PORIYAHAT,DUMKA,JHARKHAND,SANTHAL PARGANAS,RANCHI,JHARKHAND
Bandarjora B.O,Branch Post Office,814102,,RAMGARAH,DUMKA,JHARKHAND,SANTHAL PARGANAS,RANCHI,JHARKHAND
Bariranbahiyar B.O,Branch Post Office,814102,,RAMGARAH,DUMKA,JHARKHAND,SANTHAL PARGANAS,RANCHI,JHARKHAND
Khudimerkho B.O,Branch Post Office,814102,,RAMGARAH,DUMKA,JHARKHAND,SANTHAL PARGANAS,RANCHI,JHARKHAND
Lakhanpur B.O,Branch Post Office,814102,,RAMGARAH,DUMKA,JHARKHAND,SANTHAL PARGANAS,RANCHI,JHARKHAND
Mahubana B.O,Branch Post Office,814102,,RAMGARAH,DUMKA,JHARKHAND,SANTHAL PARGANAS,RANCHI,JHARKHAND
Piprakarudih B.O,Branch Post Office,814102,,RAMGARAH,DUMKA,JHARKHAND,SANTHAL PARGANAS,RANCHI,JHARKHAND
Ramgarah S.O,Sub Post Office,814102,,RAMGARAH,DUMKA,JHARKHAND,SANTHAL PARGANAS,RANCHI,JHARKHAND
Amarpur B.O,Branch Post Office,814145,,RAMGARH,DUMKA,JHARKHAND,SANTHAL PARGANAS,RANCHI,JHARKHAND
Chaukri B.O,Branch Post Office,822115,,JAPLA,PALAMAU,JHARKHAND,PALAMAU,RANCHI,JHARKHAND
Dangwar B.O,Branch Post Office,822116,,JAPLA,PALAMAU,JHARKHAND,PALAMAU,RANCHI,JHARKHAND
Daruaboni B.O,Branch Post Office,822116,,JAPLA,PALAMAU,JHARKHAND,PALAMAU,RANCHI,JHARKHAND
Goradih B.O,Branch Post Office,822120,,JAPLA,PALAMAU,JHARKHAND,PALAMAU,RANCHI,JHARKHAND
Haidar Nagar S.O,Sub Post Office,822115,06566-232410,JAPLA,PALAMAU,JHARKHAND,PALAMAU,RANCHI,JHARKHAND
Hariharpur B.O,Branch Post Office,822120,,JAPLA,PALAMAU,JHARKHAND,PALAMAU,RANCHI,JHARKHAND
Jagajamdiha B.O,Branch Post Office,822116,,JAPLA,PALAMAU,JHARKHAND,PALAMAU,RANCHI,JHARKHAND
Jainagra B.O,Branch Post Office,822120,,JAPLA,PALAMAU,JHARKHAND,PALAMAU,RANCHI,JHARKHAND
Japla C F S.O,Sub Post Office,822117,06566-222212,JAPLA,PALAMAU,JHARKHAND,PALAMAU,RANCHI,JHARKHAND
Japla S.O,Sub Post Office,822116,06566-222210,JAPLA,PALAMAU,JHARKHAND,PALAMAU,RANCHI,JHARKHAND
Jhargara B.O,Branch Post Office,822116,,JAPLA,PALAMAU,JHARKHAND,PALAMAU,RANCHI,JHARKHAND
Kabrakhurd B.O,Branch Post Office,822115,,JAPLA,PALAMAU,JHARKHAND,PALAMAU,RANCHI,JHARKHAND
Kadaikurmi B.O,Branch Post Office,822120,,JAPLA,PALAMAU,JHARKHAND,PALAMAU,RANCHI,JHARKHAND
Kajrat Nawadih B.O,Branch Post Office,822116,,JAPLA,PALAMAU,JHARKHAND,PALAMAU,RANCHI,JHARKHAND
Kamgarpur B.O,Branch Post Office,822116,,JAPLA,PALAMAU,JHARKHAND,PALAMAU,RANCHI,JHARKHAND
Kandi B.O,Branch Post Office,822120,,JAPLA,PALAMAU,JHARKHAND,PALAMAU,RANCHI,JHARKHAND
Karimandih B.O,Branch Post Office,822115,,JAPLA,PALAMAU,JHARKHAND,PALAMAU,RANCHI,JHARKHAND
Kosiara B.O,Branch Post Office,822115,,JAPLA,PALAMAU,JHARKHAND,PALAMAU,RANCHI,JHARKHAND
Kukahi B.O,Branch Post Office,822115,,JAPLA,PALAMAU,JHARKHAND,PALAMAU,RANCHI,JHARKHAND
Kusha B.O,Branch Post Office,822116,,JAPLA,PALAMAU,JHARKHAND,PALAMAU,RANCHI,JHARKHAND
Kushha B.O,Branch Post Office,822120,,JAPLA,PALAMAU,JHARKHAND,PALAMAU,RANCHI,JHARKHAND
Lamarikala B.O,Branch Post Office,822120,,JAPLA,PALAMAU,JHARKHAND,PALAMAU,RANCHI,JHARKHAND
Latheya B.O,Branch Post Office,822116,,JAPLA,PALAMAU,JHARKHAND,PALAMAU,RANCHI,JHARKHAND
Mahuari B.O,Branch Post Office,822116,,JAPLA,PALAMAU,JHARKHAND,PALAMAU,RANCHI,JHARKHAND
Manjhiaon B.O,Branch Post Office,822120,,JAPLA,PALAMAU,JHARKHAND,PALAMAU,RANCHI,JHARKHAND
Mohammad Ganj S.O,Sub Post Office,822120,06566-242524,JAPLA,PALAMAU,JHARKHAND,PALAMAU,RANCHI,JHARKHAND
Morway B.O,Branch Post Office,822120,,JAPLA,PALAMAU,JHARKHAND,PALAMAU,RANCHI,JHARKHAND
Pansa B.O,Branch Post Office,822115,,JAPLA,PALAMAU,JHARKHAND,PALAMAU,RANCHI,JHARKHAND
Poldih-jagdishpur B.O,Branch Post Office,822116,,JAPLA,PALAMAU,JHARKHAND,PALAMAU,RANCHI,JHARKHAND
Sabano B.O,Branch Post Office,822116,,JAPLA,PALAMAU,JHARKHAND,PALAMAU,RANCHI,JHARKHAND
Satbahini B.O,Branch Post Office,822120,,JAPLA,PALAMAU,JHARKHAND,PALAMAU,RANCHI,JHARKHAND
Shirpur B.O,Branch Post Office,822120,,JAPLA,PALAMAU,JHARKHAND,PALAMAU,RANCHI,JHARKHAND
Sundipur B.O,Branch Post Office,822115,,JAPLA,PALAMAU,JHARKHAND,PALAMAU,RANCHI,JHARKHAND
Utari Road B.O,Branch Post Office,822116,,JAPLA,PALAMAU,JHARKHAND,PALAMAU,RANCHI,JHARKHAND
Semaura B.O,Branch Post Office,822120,,LAPLA,PALAMAU,JHARKHAND,PALAMAU,RANCHI,JHARKHAND
Bansdih B.O,Branch Post Office,822118,,LESHLIGANJ,PALAMAU,JHARKHAND,PALAMAU,RANCHI,JHARKHAND
Basaura B.O,Branch Post Office,822118,,LESHLIGANJ,PALAMAU,JHARKHAND,PALAMAU,RANCHI,JHARKHAND
Champi B.O,Branch Post Office,822118,,LESHLIGANJ,PALAMAU,JHARKHAND,PALAMAU,RANCHI,JHARKHAND
Dhangaon B.O,Branch Post Office,822118,,LESHLIGANJ,PALAMAU,JHARKHAND,PALAMAU,RANCHI,JHARKHAND
Gentha B.O,Branch Post Office,822118,,LESHLIGANJ,PALAMAU,JHARKHAND,PALAMAU,RANCHI,JHARKHAND
Gurha B.O,Branch Post Office,822118,,LESHLIGANJ,PALAMAU,JHARKHAND,PALAMAU,RANCHI,JHARKHAND
Ashehar B.O,Branch Post Office,822118,,LESLIGANJ,PALAMAU,JHARKHAND,PALAMAU,RANCHI,JHARKHAND
Fhulang B.O,Branch Post Office,822118,,LESLIGANJ,PALAMAU,JHARKHAND,PALAMAU,RANCHI,JHARKHAND
Gurua B.O,Branch Post Office,822118,,LESLIGANJ,PALAMAU,JHARKHAND,PALAMAU,RANCHI,JHARKHAND
Kazi Pakri B.O,Branch Post Office,822118,,LESLIGANJ,PALAMAU,JHARKHAND,PALAMAU,RANCHI,JHARKHAND
Kundri B.O,Branch Post Office,822118,,LESLIGANJ,PALAMAU,JHARKHAND,PALAMAU,RANCHI,JHARKHAND
Lesliganj S.O,Sub Post Office,822118,06562-282610,LESLIGANJ,PALAMAU,JHARKHAND,PALAMAU,RANCHI,JHARKHAND
Manjhigaon B.O,Branch Post Office,822118,,LESLIGANJ,PALAMAU,JHARKHAND,PALAMAU,RANCHI,JHARKHAND
Pathakpagar B.O,Branch Post Office,822118,,LESLIGANJ,PALAMAU,JHARKHAND,PALAMAU,RANCHI,JHARKHAND
Rajwadih B.O,Branch Post Office,822118,,LESLIGANJ,PALAMAU,JHARKHAND,PALAMAU,RANCHI,JHARKHAND
Sagalim B.O,Branch Post Office,822118,,LESLIGANJ,PALAMAU,JHARKHAND,PALAMAU,RANCHI,JHARKHAND
Sangbar B.O,Branch Post Office,822118,,LESLIGANJ,PALAMAU,JHARKHAND,PALAMAU,RANCHI,JHARKHAND
Sildiliya Kala B.O,Branch Post Office,822118,,LESLIGANJ,PALAMAU,JHARKHAND,PALAMAU,RANCHI,JHARKHAND
Tarhasi B.O,Branch Post Office,822118,,LESLIGANJ,PALAMAU,JHARKHAND,PALAMAU,RANCHI,JHARKHAND
Thakuraidabra B.O,Branch Post Office,822118,,LESLIGANJ,PALAMAU,JHARKHAND,PALAMAU,RANCHI,JHARKHAND
Tandwa B.O,Branch Post Office,822128,,MERAL,PALAMAU,JHARKHAND,PALAMAU,RANCHI,JHARKHAND
Adhsura B.O,Branch Post Office,822121,,NAGAR UTARI,PALAMAU,JHARKHAND,PALAMAU,RANCHI,JHARKHAND
Ambakharis B.O,Branch Post Office,822121,,NAGAR UTARI,PALAMAU,JHARKHAND,PALAMAU,RANCHI,JHARKHAND
Bhojpur B.O,Branch Post Office,822121,,NAGAR UTARI,PALAMAU,JHARKHAND,PALAMAU,RANCHI,JHARKHAND
Birbal B.O,Branch Post Office,822121,,NAGAR UTARI,PALAMAU,JHARKHAND,PALAMAU,RANCHI,JHARKHAND
Chitbishraen B.O,Branch Post Office,822121,,NAGAR UTARI,PALAMAU,JHARKHAND,PALAMAU,RANCHI,JHARKHAND
Dhurki B.O,Branch Post Office,822121,,NAGAR UTARI,PALAMAU,JHARKHAND,PALAMAU,RANCHI,JHARKHAND
Halwantakain B.O,Branch Post Office,822121,,NAGAR UTARI,PALAMAU,JHARKHAND,PALAMAU,RANCHI,JHARKHAND
Jamui B.O,Branch Post Office,822121,,NAGAR UTARI,PALAMAU,JHARKHAND,PALAMAU,RANCHI,JHARKHAND
Katharkala B.O,Branch Post Office,822121,,NAGAR UTARI,PALAMAU,JHARKHAND,PALAMAU,RANCHI,JHARKHAND
Mahdeiya B.O,Branch Post Office,822121,,NAGAR UTARI,PALAMAU,JHARKHAND,PALAMAU,RANCHI,JHARKHAND
Nagar Utari S.O,Sub Post Office,822121,06564-252410,NAGAR UTARI,PALAMAU,JHARKHAND,PALAMAU,RANCHI,JHARKHAND
Ambabar B.O,Branch Post Office,822122,,PANKI,PALAMAU,JHARKHAND,PALAMAU,RANCHI,JHARKHAND
Ballari B.O,Branch Post Office,822122,,PANKI,PALAMAU,JHARKHAND,PALAMAU,RANCHI,JHARKHAND
Champi Kala B.O,Branch Post Office,822122,,PANKI,PALAMAU,JHARKHAND,PALAMAU,RANCHI,JHARKHAND
Dandar Kala B.O,Branch Post Office,822122,,PANKI,PALAMAU,JHARKHAND,PALAMAU,RANCHI,JHARKHAND
Dhub B.O,Branch Post Office,822122,,PANKI,PALAMAU,JHARKHAND,PALAMAU,RANCHI,JHARKHAND
Dwarika B.O,Branch Post Office,822122,,PANKI,PALAMAU,JHARKHAND,PALAMAU,RANCHI,JHARKHAND
Kasmar B.O,Branch Post Office,822122,,PANKI,PALAMAU,JHARKHAND,PALAMAU,RANCHI,JHARKHAND
Konwai B.O,Branch Post Office,822122,,PANKI,PALAMAU,JHARKHAND,PALAMAU,RANCHI,JHARKHAND
Loharsi B.O,Branch Post Office,822122,,PANKI,PALAMAU,JHARKHAND,PALAMAU,RANCHI,JHARKHAND
Panki S.O,Sub Post Office,822122,06562-262201,PANKI,PALAMAU,JHARKHAND,PALAMAU,RANCHI,JHARKHAND
Tal B.O,Branch Post Office,822122,,PANKI,PALAMAU,JHARKHAND,PALAMAU,RANCHI,JHARKHAND
Tetrain B.O,Branch Post Office,822122,,PANKI,PALAMAU,JHARKHAND,PALAMAU,RANCHI,JHARKHAND
Udaipru B.O,Branch Post Office,822122,,PANKI,PALAMAU,JHARKHAND,PALAMAU,RANCHI,JHARKHAND
Baidakala B.O,Branch Post Office,822123,,PATAN,PALAMAU,JHARKHAND,PALAMAU,RANCHI,JHARKHAND
Chetma B.O,Branch Post Office,822123,,PATAN,PALAMAU,JHARKHAND,PALAMAU,RANCHI,JHARKHAND
Dipauwa B.O,Branch Post Office,822123,,PATAN,PALAMAU,JHARKHAND,PALAMAU,RANCHI,JHARKHAND
Dulhi B.O,Branch Post Office,822123,,PATAN,PALAMAU,JHARKHAND,PALAMAU,RANCHI,JHARKHAND
Gahar Pathara B.O,Branch Post Office,822123,,PATAN,PALAMAU,JHARKHAND,PALAMAU,RANCHI,JHARKHAND
Ichak B.O,Branch Post Office,822123,,PATAN,PALAMAU,JHARKHAND,PALAMAU,RANCHI,JHARKHAND
Kankekala B.O,Branch Post Office,822123,,PATAN,PALAMAU,JHARKHAND,PALAMAU,RANCHI,JHARKHAND
Kishunpur B.O,Branch Post Office,822123,,PATAN,PALAMAU,JHARKHAND,PALAMAU,RANCHI,JHARKHAND
Lami Patra B.O,Branch Post Office,822123,,PATAN,PALAMAU,JHARKHAND,PALAMAU,RANCHI,JHARKHAND
Loinga B.O,Branch Post Office,822123,,PATAN,PALAMAU,JHARKHAND,PALAMAU,RANCHI,JHARKHAND
Manatu B.O,Branch Post Office,822123,,PATAN,PALAMAU,JHARKHAND,PALAMAU,RANCHI,JHARKHAND
Nawa Jaipur B.O,Branch Post Office,822123,,PATAN,PALAMAU,JHARKHAND,PALAMAU,RANCHI,JHARKHAND
Nawdiha B.O,Branch Post Office,822123,,PATAN,PALAMAU,JHARKHAND,PALAMAU,RANCHI,JHARKHAND
Paduma B.O,Branch Post Office,822123,,PATAN,PALAMAU,JHARKHAND,PALAMAU,RANCHI,JHARKHAND
Palhe Khurd B.O,Branch Post Office,822123,,PATAN,PALAMAU,JHARKHAND,PALAMAU,RANCHI,JHARKHAND
Pandeypura B.O,Branch Post Office,822123,,PATAN,PALAMAU,JHARKHAND,PALAMAU,RANCHI,JHARKHAND
Patan S.O,Sub Post Office,822123,06560-279410,PATAN,PALAMAU,JHARKHAND,PALAMAU,RANCHI,JHARKHAND
Rajhara Rest S.O,Sub Post Office,822110,,PATAN,PALAMAU,JHARKHAND,PALAMAU,RANCHI,JHARKHAND
Roll B.O,Branch Post Office,822123,,PATAN,PALAMAU,JHARKHAND,PALAMAU,RANCHI,JHARKHAND
Sikki Kala B.O,Branch Post Office,822126,,PATAN,PALAMAU,JHARKHAND,PALAMAU,RANCHI,JHARKHAND
Sirma B.O,Branch Post Office,822123,,PATAN,PALAMAU,JHARKHAND,PALAMAU,RANCHI,JHARKHAND
Bakoriya B.O,Branch Post Office,822126,,SATBARWA,PALAMAU,JHARKHAND,PALAMAU,RANCHI,JHARKHAND
Barwaiya B.O,Branch Post Office,822126,,SATBARWA,PALAMAU,JHARKHAND,PALAMAU,RANCHI,JHARKHAND
Dhawadih B.O,Branch Post Office,822126,,SATBARWA,PALAMAU,JHARKHAND,PALAMAU,RANCHI,JHARKHAND
Jhabar B.O,Branch Post Office,822126,,SATBARWA,PALAMAU,JHARKHAND,PALAMAU,RANCHI,JHARKHAND
Khamdih B.O,Branch Post Office,822126,,SATBARWA,PALAMAU,JHARKHAND,PALAMAU,RANCHI,JHARKHAND
Manika B.O,Branch Post Office,822126,,SATBARWA,PALAMAU,JHARKHAND,PALAMAU,RANCHI,JHARKHAND
Matlong B.O,Branch Post Office,822126,,SATBARWA,PALAMAU,JHARKHAND,PALAMAU,RANCHI,JHARKHAND
Palheya B.O,Branch Post Office,822126,,SATBARWA,PALAMAU,JHARKHAND,PALAMAU,RANCHI,JHARKHAND
Polpol B.O,Branch Post Office,822126,,SATBARWA,PALAMAU,JHARKHAND,PALAMAU,RANCHI,JHARKHAND
Ranki Kala B.O,Branch Post Office,822126,,SATBARWA,PALAMAU,JHARKHAND,PALAMAU,RANCHI,JHARKHAND
Satbarwa S.O,Sub Post Office,822126,06562-254302,SATBARWA,PALAMAU,JHARKHAND,PALAMAU,RANCHI,JHARKHAND
Dari B.O,Branch Post Office,829109,,.,RAMGARH,JHARKHAND,HAZARIBAGH,RANCHI,JHARKHAND
Src S.O,Sub Post Office,829131,06553-221771,.,RAMGARH,JHARKHAND,HAZARIBAGH,RANCHI,JHARKHAND
Adalhatu S.O,Sub Post Office,835202,,.,RANCHI,JHARKHAND,RANCHI,RANCHI,JHARKHAND
Bero S.O,Sub Post Office,835202,06529-255372,.,RANCHI,JHARKHAND,RANCHI,RANCHI,JHARKHAND
Brambe S.O,Sub Post Office,835202,,.,RANCHI,JHARKHAND,RANCHI,RANCHI,JHARKHAND
Rugari B.O,Branch Post Office,835225,,.,RANCHI,JHARKHAND,RANCHI,RANCHI,JHARKHAND
Angara B.O,Branch Post Office,835103,,ANGARA,RANCHI,JHARKHAND,RANCHI,RANCHI,JHARKHAND
Bisa B.O,Branch Post Office,835103,,ANGARA,RANCHI,JHARKHAND,RANCHI,RANCHI,JHARKHAND
Bongaibera B.O,Branch Post Office,835103,,ANGARA,RANCHI,JHARKHAND,RANCHI,RANCHI,JHARKHAND
Childag B.O,Branch Post Office,835103,,ANGARA,RANCHI,JHARKHAND,RANCHI,RANCHI,JHARKHAND
Getalsud B.O,Branch Post Office,835103,,ANGARA,RANCHI,JHARKHAND,RANCHI,RANCHI,JHARKHAND
Hesal B.O,Branch Post Office,835103,,ANGARA,RANCHI,JHARKHAND,RANCHI,RANCHI,JHARKHAND
Jon R.S. B.O,Branch Post Office,835103,,ANGARA,RANCHI,JHARKHAND,RANCHI,RANCHI,JHARKHAND
Maheshpur B.O,Branch Post Office,835103,,ANGARA,RANCHI,JHARKHAND,RANCHI,RANCHI,JHARKHAND
Mahilong B.O,Branch Post Office,835103,,ANGARA,RANCHI,JHARKHAND,RANCHI,RANCHI,JHARKHAND
Medha B.O,Branch Post Office,835103,,ANGARA,RANCHI,JHARKHAND,RANCHI,RANCHI,JHARKHAND
Nawagarh B.O,Branch Post Office,835103,,ANGARA,RANCHI,JHARKHAND,RANCHI,RANCHI,JHARKHAND
Rajadera B.O,Branch Post Office,835103,,ANGARA,RANCHI,JHARKHAND,RANCHI,RANCHI,JHARKHAND
Sugnu B.O,Branch Post Office,835103,,ANGARA,RANCHI,JHARKHAND,RANCHI,RANCHI,JHARKHAND
Tatisilway S.O,Sub Post Office,835103,,ANGARA,RANCHI,JHARKHAND,RANCHI,RANCHI,JHARKHAND
Deogaon B.O,Branch Post Office,835202,,BERO,RANCHI,JHARKHAND,RANCHI,RANCHI,JHARKHAND
Dolaicha B.O,Branch Post Office,835202,,BERO,RANCHI,JHARKHAND,RANCHI,RANCHI,JHARKHAND
Etta B.O,Branch Post Office,835202,,BERO,RANCHI,JHARKHAND,RANCHI,RANCHI,JHARKHAND
Gargaon B.O,Branch Post Office,835202,,BERO,RANCHI,JHARKHAND,RANCHI,RANCHI,JHARKHAND
Hatu Ghaghra B.O,Branch Post Office,835202,,BERO,RANCHI,JHARKHAND,RANCHI,RANCHI,JHARKHAND
Jaria B.O,Branch Post Office,835202,,BERO,RANCHI,JHARKHAND,RANCHI,RANCHI,JHARKHAND
Kakaria B.O,Branch Post Office,835202,,BERO,RANCHI,JHARKHAND,RANCHI,RANCHI,JHARKHAND
Kesha B.O,Branch Post Office,835202,,BERO,RANCHI,JHARKHAND,RANCHI,RANCHI,JHARKHAND
Khatri Khatanga B.O,Branch Post Office,835202,,BERO,RANCHI,JHARKHAND,RANCHI,RANCHI,JHARKHAND
Khukhra B.O,Branch Post Office,835202,,BERO,RANCHI,JHARKHAND,RANCHI,RANCHI,JHARKHAND
Nehalu B.O,Branch Post Office,835202,,BERO,RANCHI,JHARKHAND,RANCHI,RANCHI,JHARKHAND
Paharkandaria B.O,Branch Post Office,835202,,BERO,RANCHI,JHARKHAND,RANCHI,RANCHI,JHARKHAND
Tuko B.O,Branch Post Office,835202,,BERO,RANCHI,JHARKHAND,RANCHI,RANCHI,JHARKHAND
Tati B.O,Branch Post Office,835325,,BHANDARA,RANCHI,JHARKHAND,RANCHI,RANCHI,JHARKHAND
Akashi B.O,Branch Post Office,835325,,BHANDRA,RANCHI,JHARKHAND,RANCHI,RANCHI,JHARKHAND
Baragain B.O,Branch Post Office,835325,,BHANDRA,RANCHI,JHARKHAND,RANCHI,RANCHI,JHARKHAND
Bhitta B.O,Branch Post Office,835325,,BHANDRA,RANCHI,JHARKHAND,RANCHI,RANCHI,JHARKHAND
Gajni B.O,Branch Post Office,835325,,BHANDRA,RANCHI,JHARKHAND,RANCHI,RANCHI,JHARKHAND
Kairo B.O,Branch Post Office,835325,,BHANDRA,RANCHI,JHARKHAND,RANCHI,RANCHI,JHARKHAND
Kharta B.O,Branch Post Office,835325,,BHANDRA,RANCHI,JHARKHAND,RANCHI,RANCHI,JHARKHAND
Mahuary B.O,Branch Post Office,835325,,BHANDRA,RANCHI,JHARKHAND,RANCHI,RANCHI,JHARKHAND
Narauli B.O,Branch Post Office,835325,,BHANDRA,RANCHI,JHARKHAND,RANCHI,RANCHI,JHARKHAND
Sero B.O,Branch Post Office,835325,,BHANDRA,RANCHI,JHARKHAND,RANCHI,RANCHI,JHARKHAND
Sinjo B.O,Branch Post Office,835325,,BHANDRA,RANCHI,JHARKHAND,RANCHI,RANCHI,JHARKHAND
Adalahatu B.O,Branch Post Office,835204,,BUNDU,RANCHI,JHARKHAND,RANCHI,RANCHI,JHARKHAND
Ambajharia B.O,Branch Post Office,835204,,BUNDU,RANCHI,JHARKHAND,RANCHI,RANCHI,JHARKHAND
Baredih B.O,Branch Post Office,835204,,BUNDU,RANCHI,JHARKHAND,RANCHI,RANCHI,JHARKHAND
Baruhatu B.O,Branch Post Office,835204,,BUNDU,RANCHI,JHARKHAND,RANCHI,RANCHI,JHARKHAND
Bundu S.O,Sub Post Office,835204,06530-255254,BUNDU,RANCHI,JHARKHAND,RANCHI,RANCHI,JHARKHAND
Burhadih B.O,Branch Post Office,835204,,BUNDU,RANCHI,JHARKHAND,RANCHI,RANCHI,JHARKHAND
Danadih B.O,Branch Post Office,835204,,BUNDU,RANCHI,JHARKHAND,RANCHI,RANCHI,JHARKHAND
Edrumhatu B.O,Branch Post Office,835204,,BUNDU,RANCHI,JHARKHAND,RANCHI,RANCHI,JHARKHAND
Henjed B.O,Branch Post Office,835204,,BUNDU,RANCHI,JHARKHAND,RANCHI,RANCHI,JHARKHAND
Humta B.O,Branch Post Office,835204,,BUNDU,RANCHI,JHARKHAND,RANCHI,RANCHI,JHARKHAND
Jadeya B.O,Branch Post Office,835204,,BUNDU,RANCHI,JHARKHAND,RANCHI,RANCHI,JHARKHAND
Jamuadag B.O,Branch Post Office,835204,,BUNDU,RANCHI,JHARKHAND,RANCHI,RANCHI,JHARKHAND
Kanchi B.O,Branch Post Office,835204,,BUNDU,RANCHI,JHARKHAND,RANCHI,RANCHI,JHARKHAND
Lowahatu B.O,Branch Post Office,835204,,BUNDU,RANCHI,JHARKHAND,RANCHI,RANCHI,JHARKHAND
Noadih B.O,Branch Post Office,835204,,BUNDU,RANCHI,JHARKHAND,RANCHI,RANCHI,JHARKHAND
Rahe B.O,Branch Post Office,835204,,BUNDU,RANCHI,JHARKHAND,RANCHI,RANCHI,JHARKHAND
Reladih B.O,Branch Post Office,835204,,BUNDU,RANCHI,JHARKHAND,RANCHI,RANCHI,JHARKHAND
Sataki B.O,Branch Post Office,835204,,BUNDU,RANCHI,JHARKHAND,RANCHI,RANCHI,JHARKHAND
Sonahatu B.O,Branch Post Office,835204,,BUNDU,RANCHI,JHARKHAND,RANCHI,RANCHI,JHARKHAND
Taimara B.O,Branch Post Office,835204,,BUNDU,RANCHI,JHARKHAND,RANCHI,RANCHI,JHARKHAND
Chanho S.O,Sub Post Office,835239,,CHANHO,RANCHI,JHARKHAND,RANCHI,RANCHI,JHARKHAND
Dakra Colliery S.O,Sub Post Office,829210,06531-235145,DAKRA,RANCHI,JHARKHAND,PALAMAU,RANCHI,JHARKHAND
Balsota B.O,Branch Post Office,835301,,ITKI,RANCHI,JHARKHAND,RANCHI,RANCHI,JHARKHAND
Beyasi B.O,Branch Post Office,835301,,ITKI,RANCHI,JHARKHAND,RANCHI,RANCHI,JHARKHAND
Bhawro B.O,Branch Post Office,835301,,ITKI,RANCHI,JHARKHAND,RANCHI,RANCHI,JHARKHAND
Bisahakhatanga B.O,Branch Post Office,835301,,ITKI,RANCHI,JHARKHAND,RANCHI,RANCHI,JHARKHAND
Charkidumri B.O,Branch Post Office,835301,,ITKI,RANCHI,JHARKHAND,RANCHI,RANCHI,JHARKHAND
Mandru B.O,Branch Post Office,835301,,ITKI,RANCHI,JHARKHAND,RANCHI,RANCHI,JHARKHAND
Murto B.O,Branch Post Office,835301,,ITKI,RANCHI,JHARKHAND,RANCHI,RANCHI,JHARKHAND
Nagjua S.O,Sub Post Office,835325,,ITKI,RANCHI,JHARKHAND,RANCHI,RANCHI,JHARKHAND
Narkopi B.O,Branch Post Office,835301,,ITKI,RANCHI,JHARKHAND,RANCHI,RANCHI,JHARKHAND
Ranikhatanga B.O,Branch Post Office,835301,,ITKI,RANCHI,JHARKHAND,RANCHI,RANCHI,JHARKHAND
Sakra B.O,Branch Post Office,835301,,ITKI,RANCHI,JHARKHAND,RANCHI,RANCHI,JHARKHAND
Semra B.O,Branch Post Office,835301,,ITKI,RANCHI,JHARKHAND,RANCHI,RANCHI,JHARKHAND
Silagain B.O,Branch Post Office,835301,,ITKI,RANCHI,JHARKHAND,RANCHI,RANCHI,JHARKHAND
Tangarbasli B.O,Branch Post Office,835301,,ITKI,RANCHI,JHARKHAND,RANCHI,RANCHI,JHARKHAND
Tikratoli B.O,Branch Post Office,835301,,ITKI,RANCHI,JHARKHAND,RANCHI,RANCHI,JHARKHAND
Bukru B.O,Branch Post Office,834006,,KANKE,RANCHI,JHARKHAND,RANCHI,RANCHI,JHARKHAND
Gagi B.O,Branch Post Office,834006,,KANKE,RANCHI,JHARKHAND,RANCHI,RANCHI,JHARKHAND
Hussir B.O,Branch Post Office,834006,,KANKE,RANCHI,JHARKHAND,RANCHI,RANCHI,JHARKHAND
Ichapiri B.O,Branch Post Office,834006,,KANKE,RANCHI,JHARKHAND,RANCHI,RANCHI,JHARKHAND
Kanke S.O,Sub Post Office,834006,0651-2450843,KANKE,RANCHI,JHARKHAND,RANCHI,RANCHI,JHARKHAND
Kokdoro B.O,Branch Post Office,834006,,KANKE,RANCHI,JHARKHAND,RANCHI,RANCHI,JHARKHAND
Kumharia B.O,Branch Post Office,834006,,KANKE,RANCHI,JHARKHAND,RANCHI,RANCHI,JHARKHAND
Pithoria B.O,Branch Post Office,834006,,KANKE,RANCHI,JHARKHAND,RANCHI,RANCHI,JHARKHAND
Ranchi Agriculture College S.O,Sub Post Office,834006,0651-2450845,KANKE,RANCHI,JHARKHAND,RANCHI,RANCHI,JHARKHAND
Satakanadu B.O,Branch Post Office,834006,,KANKE,RANCHI,JHARKHAND,RANCHI,RANCHI,JHARKHAND
Sukurhutu B.O,Branch Post Office,834006,,KANKE,RANCHI,JHARKHAND,RANCHI,RANCHI,JHARKHAND
Bikwadag B.O,Branch Post Office,835234,,KARRA,RANCHI,JHARKHAND,RANCHI,RANCHI,JHARKHAND
Bingaon B.O,Branch Post Office,835209,,KARRA,RANCHI,JHARKHAND,RANCHI,RANCHI,JHARKHAND
Birda B.O,Branch Post Office,835209,,KARRA,RANCHI,JHARKHAND,RANCHI,RANCHI,JHARKHAND
Champadih B.O,Branch Post Office,835234,,KARRA,RANCHI,JHARKHAND,RANCHI,RANCHI,JHARKHAND
Chata B.O,Branch Post Office,835209,,KARRA,RANCHI,JHARKHAND,RANCHI,RANCHI,JHARKHAND
Govindpur Road B.O,Branch Post Office,835234,,KARRA,RANCHI,JHARKHAND,RANCHI,RANCHI,JHARKHAND
Govindpur S.O,Sub Post Office,835234,,KARRA,RANCHI,JHARKHAND,RANCHI,RANCHI,JHARKHAND
Jariadih B.O,Branch Post Office,835234,,KARRA,RANCHI,JHARKHAND,RANCHI,RANCHI,JHARKHAND
Karra S.O,Sub Post Office,835209,,KARRA,RANCHI,JHARKHAND,RANCHI,RANCHI,JHARKHAND
Koisera B.O,Branch Post Office,835234,,KARRA,RANCHI,JHARKHAND,RANCHI,RANCHI,JHARKHAND
Kone B.O,Branch Post Office,835209,,KARRA,RANCHI,JHARKHAND,RANCHI,RANCHI,JHARKHAND
Kurse B.O,Branch Post Office,835209,,KARRA,RANCHI,JHARKHAND,RANCHI,RANCHI,JHARKHAND
Lapa B.O,Branch Post Office,835234,,KARRA,RANCHI,JHARKHAND,RANCHI,RANCHI,JHARKHAND
Larta B.O,Branch Post Office,835209,,KARRA,RANCHI,JHARKHAND,RANCHI,RANCHI,JHARKHAND
Late B.O,Branch Post Office,835234,,KARRA,RANCHI,JHARKHAND,RANCHI,RANCHI,JHARKHAND
Pokta B.O,Branch Post Office,835234,,KARRA,RANCHI,JHARKHAND,RANCHI,RANCHI,JHARKHAND
Rendwa B.O,Branch Post Office,835234,,KARRA,RANCHI,JHARKHAND,RANCHI,RANCHI,JHARKHAND
Sangor B.O,Branch Post Office,835209,,KARRA,RANCHI,JHARKHAND,RANCHI,RANCHI,JHARKHAND
Tilmi B.O,Branch Post Office,835209,,KARRA,RANCHI,JHARKHAND,RANCHI,RANCHI,JHARKHAND
Angrabari B.O,Branch Post Office,835210,,KHUNTI,RANCHI,JHARKHAND,RANCHI,RANCHI,JHARKHAND
Anigara B.O,Branch Post Office,835210,,KHUNTI,RANCHI,JHARKHAND,RANCHI,RANCHI,JHARKHAND
Belwadag B.O,Branch Post Office,835210,,KHUNTI,RANCHI,JHARKHAND,RANCHI,RANCHI,JHARKHAND
Bhandra B.O,Branch Post Office,835210,,KHUNTI,RANCHI,JHARKHAND,RANCHI,RANCHI,JHARKHAND
Bichina B.O,Branch Post Office,835210,,KHUNTI,RANCHI,JHARKHAND,RANCHI,RANCHI,JHARKHAND
Birhu B.O,Branch Post Office,835210,,KHUNTI,RANCHI,JHARKHAND,RANCHI,RANCHI,JHARKHAND
Eta B.O,Branch Post Office,835210,,KHUNTI,RANCHI,JHARKHAND,RANCHI,RANCHI,JHARKHAND
Ghunsuli B.O,Branch Post Office,835210,,KHUNTI,RANCHI,JHARKHAND,RANCHI,RANCHI,JHARKHAND
Gutjora B.O,Branch Post Office,835210,,KHUNTI,RANCHI,JHARKHAND,RANCHI,RANCHI,JHARKHAND
Hakadua B.O,Branch Post Office,835210,,KHUNTI,RANCHI,JHARKHAND,RANCHI,RANCHI,JHARKHAND
Jaltanda B.O,Branch Post Office,835210,,KHUNTI,RANCHI,JHARKHAND,RANCHI,RANCHI,JHARKHAND
Jurdag B.O,Branch Post Office,835210,,KHUNTI,RANCHI,JHARKHAND,RANCHI,RANCHI,JHARKHAND
Khunti S.O,Sub Post Office,835210,06528-220529,KHUNTI,RANCHI,JHARKHAND,RANCHI,RANCHI,JHARKHAND
Koaselda B.O,Branch Post Office,835210,,KHUNTI,RANCHI,JHARKHAND,RANCHI,RANCHI,JHARKHAND
Landup B.O,Branch Post Office,835210,,KHUNTI,RANCHI,JHARKHAND,RANCHI,RANCHI,JHARKHAND
Maranghada B.O,Branch Post Office,835210,,KHUNTI,RANCHI,JHARKHAND,RANCHI,RANCHI,JHARKHAND
Phudi B.O,Branch Post Office,835210,,KHUNTI,RANCHI,JHARKHAND,RANCHI,RANCHI,JHARKHAND
Saiko B.O,Branch Post Office,835210,,KHUNTI,RANCHI,JHARKHAND,RANCHI,RANCHI,JHARKHAND
Saparom B.O,Branch Post Office,835210,,KHUNTI,RANCHI,JHARKHAND,RANCHI,RANCHI,JHARKHAND
Sirum B.O,Branch Post Office,835210,,KHUNTI,RANCHI,JHARKHAND,RANCHI,RANCHI,JHARKHAND
Lapung S.O,Sub Post Office,835244,,LAPUNG,RANCHI,JHARKHAND,RANCHI,RANCHI,JHARKHAND
Mahugaon B.O,Branch Post Office,835234,,LAPUNG,RANCHI,JHARKHAND,RANCHI,RANCHI,JHARKHAND
Banapiri B.O,Branch Post Office,835202,,MANDAR,RANCHI,JHARKHAND,RANCHI,RANCHI,JHARKHAND
Baraudi B.O,Branch Post Office,835202,,MANDAR,RANCHI,JHARKHAND,RANCHI,RANCHI,JHARKHAND
Binja B.O,Branch Post Office,835214,,MANDAR,RANCHI,JHARKHAND,RANCHI,RANCHI,JHARKHAND
Brambe(R) S.O,Sub Post Office,835205,,MANDAR,RANCHI,JHARKHAND,RANCHI,RANCHI,JHARKHAND
Burhakhukhra B.O,Branch Post Office,835214,,MANDAR,RANCHI,JHARKHAND,RANCHI,RANCHI,JHARKHAND
Burmu B.O,Branch Post Office,835214,,MANDAR,RANCHI,JHARKHAND,RANCHI,RANCHI,JHARKHAND
Chaingara B.O,Branch Post Office,835214,,MANDAR,RANCHI,JHARKHAND,RANCHI,RANCHI,JHARKHAND
Chakma B.O,Branch Post Office,835214,,MANDAR,RANCHI,JHARKHAND,RANCHI,RANCHI,JHARKHAND
Chittarkota B.O,Branch Post Office,835202,,MANDAR,RANCHI,JHARKHAND,RANCHI,RANCHI,JHARKHAND
Choreya B.O,Branch Post Office,835214,,MANDAR,RANCHI,JHARKHAND,RANCHI,RANCHI,JHARKHAND
Ginjothakurgaon B.O,Branch Post Office,835202,,MANDAR,RANCHI,JHARKHAND,RANCHI,RANCHI,JHARKHAND
Gitilgarh B.O,Branch Post Office,835214,,MANDAR,RANCHI,JHARKHAND,RANCHI,RANCHI,JHARKHAND
Gurgaon B.O,Branch Post Office,835202,,MANDAR,RANCHI,JHARKHAND,RANCHI,RANCHI,JHARKHAND
Hanhat B.O,Branch Post Office,835214,,MANDAR,RANCHI,JHARKHAND,RANCHI,RANCHI,JHARKHAND
Jaherbargari B.O,Branch Post Office,835202,,MANDAR,RANCHI,JHARKHAND,RANCHI,RANCHI,JHARKHAND
Kaimbo B.O,Branch Post Office,835214,,MANDAR,RANCHI,JHARKHAND,RANCHI,RANCHI,JHARKHAND
Kakargarh B.O,Branch Post Office,835214,,MANDAR,RANCHI,JHARKHAND,RANCHI,RANCHI,JHARKHAND
Karge B.O,Branch Post Office,835214,,MANDAR,RANCHI,JHARKHAND,RANCHI,RANCHI,JHARKHAND
Karkara B.O,Branch Post Office,835214,,MANDAR,RANCHI,JHARKHAND,RANCHI,RANCHI,JHARKHAND
Korambe B.O,Branch Post Office,835202,,MANDAR,RANCHI,JHARKHAND,RANCHI,RANCHI,JHARKHAND
Mahuajari B.O,Branch Post Office,835214,,MANDAR,RANCHI,JHARKHAND,RANCHI,RANCHI,JHARKHAND
Makka B.O,Branch Post Office,835214,,MANDAR,RANCHI,JHARKHAND,RANCHI,RANCHI,JHARKHAND
Mandar S.O,Sub Post Office,835214,06531-224524,MANDAR,RANCHI,JHARKHAND,RANCHI,RANCHI,JHARKHAND
Murkuni B.O,Branch Post Office,835202,,MANDAR,RANCHI,JHARKHAND,RANCHI,RANCHI,JHARKHAND
Murma B.O,Branch Post Office,835202,,MANDAR,RANCHI,JHARKHAND,RANCHI,RANCHI,JHARKHAND
Murupiri B.O,Branch Post Office,835214,,MANDAR,RANCHI,JHARKHAND,RANCHI,RANCHI,JHARKHAND
Nagra B.O,Branch Post Office,835202,,MANDAR,RANCHI,JHARKHAND,RANCHI,RANCHI,JHARKHAND
Pali B.O,Branch Post Office,835202,,MANDAR,RANCHI,JHARKHAND,RANCHI,RANCHI,JHARKHAND
Patratu B.O,Branch Post Office,835214,,MANDAR,RANCHI,JHARKHAND,RANCHI,RANCHI,JHARKHAND
Purio B.O,Branch Post Office,835202,,MANDAR,RANCHI,JHARKHAND,RANCHI,RANCHI,JHARKHAND
Raghunathpur B.O,Branch Post Office,835214,,MANDAR,RANCHI,JHARKHAND,RANCHI,RANCHI,JHARKHAND
Sarle B.O,Branch Post Office,835214,,MANDAR,RANCHI,JHARKHAND,RANCHI,RANCHI,JHARKHAND
Soba B.O,Branch Post Office,835202,,MANDAR,RANCHI,JHARKHAND,RANCHI,RANCHI,JHARKHAND
Sona B.O,Branch Post Office,835214,,MANDAR,RANCHI,JHARKHAND,RANCHI,RANCHI,JHARKHAND
Sosai B.O,Branch Post Office,835214,,MANDAR,RANCHI,JHARKHAND,RANCHI,RANCHI,JHARKHAND
Susaimuru B.O,Branch Post Office,835214,,MANDAR,RANCHI,JHARKHAND,RANCHI,RANCHI,JHARKHAND
Tala B.O,Branch Post Office,835214,,MANDAR,RANCHI,JHARKHAND,RANCHI,RANCHI,JHARKHAND
Tangar B.O,Branch Post Office,835214,,MANDAR,RANCHI,JHARKHAND,RANCHI,RANCHI,JHARKHAND
Turmuli B.O,Branch Post Office,835202,,MANDAR,RANCHI,JHARKHAND,RANCHI,RANCHI,JHARKHAND
Umedanda B.O,Branch Post Office,835214,,MANDAR,RANCHI,JHARKHAND,RANCHI,RANCHI,JHARKHAND
Chama B.O,Branch Post Office,829205,,MANDER,RANCHI,JHARKHAND,PALAMAU,RANCHI,JHARKHAND
Diwan Nagar B.O,Branch Post Office,829205,,MANDER,RANCHI,JHARKHAND,PALAMAU,RANCHI,JHARKHAND
Hindgir B.O,Branch Post Office,829209,,MANDER,RANCHI,JHARKHAND,PALAMAU,RANCHI,JHARKHAND
Khalari S.O,Sub Post Office,829205,06531-246223,MANDER,RANCHI,JHARKHAND,PALAMAU,RANCHI,JHARKHAND
Mc. Cluskiganj S.O,Sub Post Office,829208,06531-276329,MANDER,RANCHI,JHARKHAND,PALAMAU,RANCHI,JHARKHAND
Nawadih B.O,Branch Post Office,829208,,MANDER,RANCHI,JHARKHAND,PALAMAU,RANCHI,JHARKHAND
Nindra B.O,Branch Post Office,829208,,MANDER,RANCHI,JHARKHAND,PALAMAU,RANCHI,JHARKHAND
Ray S.O,Sub Post Office,829209,06531-265508,MANDER,RANCHI,JHARKHAND,PALAMAU,RANCHI,JHARKHAND
Bamhani B.O,Branch Post Office,835216,,MURHU,RANCHI,JHARKHAND,RANCHI,RANCHI,JHARKHAND
Binda Bazar B.O,Branch Post Office,835216,,MURHU,RANCHI,JHARKHAND,RANCHI,RANCHI,JHARKHAND
Birbanki B.O,Branch Post Office,835216,,MURHU,RANCHI,JHARKHAND,RANCHI,RANCHI,JHARKHAND
Burju B.O,Branch Post Office,835216,,MURHU,RANCHI,JHARKHAND,RANCHI,RANCHI,JHARKHAND
Ghaghra B.O,Branch Post Office,835216,,MURHU,RANCHI,JHARKHAND,RANCHI,RANCHI,JHARKHAND
Jate B.O,Branch Post Office,835216,,MURHU,RANCHI,JHARKHAND,RANCHI,RANCHI,JHARKHAND
Kandir B.O,Branch Post Office,835216,,MURHU,RANCHI,JHARKHAND,RANCHI,RANCHI,JHARKHAND
Murhu S.O,Sub Post Office,835216,06538-274439,MURHU,RANCHI,JHARKHAND,RANCHI,RANCHI,JHARKHAND
Sarwada B.O,Branch Post Office,835216,,MURHU,RANCHI,JHARKHAND,RANCHI,RANCHI,JHARKHAND
Bara Ghaghra B.O,Branch Post Office,834010,,NAMKUM,RANCHI,JHARKHAND,RANCHI,RANCHI,JHARKHAND
Jamchuajaria B.O,Branch Post Office,834010,,NAMKUM,RANCHI,JHARKHAND,RANCHI,RANCHI,JHARKHAND
Khijri B.O,Branch Post Office,834010,,NAMKUM,RANCHI,JHARKHAND,RANCHI,RANCHI,JHARKHAND
Lali B.O,Branch Post Office,834010,,NAMKUM,RANCHI,JHARKHAND,RANCHI,RANCHI,JHARKHAND
Rajaulatu B.O,Branch Post Office,834010,,NAMKUM,RANCHI,JHARKHAND,RANCHI,RANCHI,JHARKHAND
Tetri B.O,Branch Post Office,834010,,NAMKUM,RANCHI,JHARKHAND,RANCHI,RANCHI,JHARKHAND
Sanri B.O,Branch Post Office,835219,,ORMANCHI,RANCHI,JHARKHAND,RANCHI,RANCHI,JHARKHAND
Hendevelli B.O,Branch Post Office,835219,,ORMANHJI,RANCHI,JHARKHAND,RANCHI,RANCHI,JHARKHAND
Palu B.O,Branch Post Office,835219,,ORMANHJI,RANCHI,JHARKHAND,RANCHI,RANCHI,JHARKHAND
Baredih B.O,Branch Post Office,835219,,ORMANJHI,RANCHI,JHARKHAND,RANCHI,RANCHI,JHARKHAND
Baxidih B.O,Branch Post Office,835219,,ORMANJHI,RANCHI,JHARKHAND,RANCHI,RANCHI,JHARKHAND
Chakla B.O,Branch Post Office,835219,,ORMANJHI,RANCHI,JHARKHAND,RANCHI,RANCHI,JHARKHAND
Chandra B.O,Branch Post Office,835219,,ORMANJHI,RANCHI,JHARKHAND,RANCHI,RANCHI,JHARKHAND
Chutupalu B.O,Branch Post Office,835219,,ORMANJHI,RANCHI,JHARKHAND,RANCHI,RANCHI,JHARKHAND
Dahu B.O,Branch Post Office,835219,,ORMANJHI,RANCHI,JHARKHAND,RANCHI,RANCHI,JHARKHAND
Ichadag B.O,Branch Post Office,835219,,ORMANJHI,RANCHI,JHARKHAND,RANCHI,RANCHI,JHARKHAND
Irba S.O,Sub Post Office,835238,,ORMANJHI,RANCHI,JHARKHAND,RANCHI,RANCHI,JHARKHAND
Kuchu B.O,Branch Post Office,835219,,ORMANJHI,RANCHI,JHARKHAND,RANCHI,RANCHI,JHARKHAND
Ormanjhi S.O,Sub Post Office,835219,0651-2576080,ORMANJHI,RANCHI,JHARKHAND,RANCHI,RANCHI,JHARKHAND
Pancha B.O,Branch Post Office,835219,,ORMANJHI,RANCHI,JHARKHAND,RANCHI,RANCHI,JHARKHAND
Sadma B.O,Branch Post Office,835219,,ORMANJHI,RANCHI,JHARKHAND,RANCHI,RANCHI,JHARKHAND
Adalhatu S.O,Sub Post Office,834008,,RANCHI,RANCHI,JHARKHAND,RANCHI,RANCHI,JHARKHAND
AG Bihar S.O,Sub Post Office,834002,0651-2411809,RANCHI,RANCHI,JHARKHAND,RANCHI,RANCHI,JHARKHAND
Ashok Nagar S.O,Sub Post Office,834002,0651-2240018,RANCHI,RANCHI,JHARKHAND,RANCHI,RANCHI,JHARKHAND
Balalong B.O,Branch Post Office,834004,,RANCHI,RANCHI,JHARKHAND,RANCHI,RANCHI,JHARKHAND
Bariatu B.O,Branch Post Office,834009,,RANCHI,RANCHI,JHARKHAND,RANCHI,RANCHI,JHARKHAND
Barwadag B.O,Branch Post Office,835102,,RANCHI,RANCHI,JHARKHAND,RANCHI,RANCHI,JHARKHAND
Boreya S.O,Sub Post Office,835240,,RANCHI,RANCHI,JHARKHAND,RANCHI,RANCHI,JHARKHAND
Buti B.O,Branch Post Office,835217,,RANCHI,RANCHI,JHARKHAND,RANCHI,RANCHI,JHARKHAND
Chandwa B.O,Branch Post Office,835217,,RANCHI,RANCHI,JHARKHAND,RANCHI,RANCHI,JHARKHAND
Church Road S.O,Sub Post Office,834001,0651-2213766,RANCHI,RANCHI,JHARKHAND,RANCHI,RANCHI,JHARKHAND
Chutia S.O,Sub Post Office,834001,0651-2461507,RANCHI,RANCHI,JHARKHAND,RANCHI,RANCHI,JHARKHAND
Dahusodang B.O,Branch Post Office,835221,,RANCHI,RANCHI,JHARKHAND,RANCHI,RANCHI,JHARKHAND
Dhurwa S.O,Sub Post Office,834004,0651-2408294,RANCHI,RANCHI,JHARKHAND,RANCHI,RANCHI,JHARKHAND
Doranda H.O,Head Post Office,834002,0651-2481029,RANCHI,RANCHI,JHARKHAND,RANCHI,RANCHI,JHARKHAND
Dundigara B.O,Branch Post Office,835221,,RANCHI,RANCHI,JHARKHAND,RANCHI,RANCHI,JHARKHAND
Harmu Housing Colony S.O,Sub Post Office,834002,06512-2243364,RANCHI,RANCHI,JHARKHAND,RANCHI,RANCHI,JHARKHAND
Hathudani B.O,Branch Post Office,835221,,RANCHI,RANCHI,JHARKHAND,RANCHI,RANCHI,JHARKHAND
Hatia Dam S.O,Sub Post Office,834004,,RANCHI,RANCHI,JHARKHAND,RANCHI,RANCHI,JHARKHAND
Hatia S.O,Sub Post Office,834003,06512-2290237,RANCHI,RANCHI,JHARKHAND,RANCHI,RANCHI,JHARKHAND
HEC Adm Bldg S.O,Sub Post Office,834004,06512-2408144,RANCHI,RANCHI,JHARKHAND,RANCHI,RANCHI,JHARKHAND
HEC App Hostel S.O,Sub Post Office,834004,06512-2405201,RANCHI,RANCHI,JHARKHAND,RANCHI,RANCHI,JHARKHAND
HEC Colony S.O,Sub Post Office,834004,06512-2408142,RANCHI,RANCHI,JHARKHAND,RANCHI,RANCHI,JHARKHAND
HEC Expert Hostel S.O,Sub Post Office,834004,06512-2440140,RANCHI,RANCHI,JHARKHAND,RANCHI,RANCHI,JHARKHAND
Hehal S.O,Sub Post Office,834005,06512-2510546,RANCHI,RANCHI,JHARKHAND,RANCHI,RANCHI,JHARKHAND
Hindpiri S.O,Sub Post Office,834001,06512-2314336,RANCHI,RANCHI,JHARKHAND,RANCHI,RANCHI,JHARKHAND
Hindustan Steel Colony S.O,Sub Post Office,834002,06512-2412146,RANCHI,RANCHI,JHARKHAND,RANCHI,RANCHI,JHARKHAND
Hinoo S.O,Sub Post Office,834002,06512-2500747,RANCHI,RANCHI,JHARKHAND,RANCHI,RANCHI,JHARKHAND
Hotwar B.O,Branch Post Office,835217,,RANCHI,RANCHI,JHARKHAND,RANCHI,RANCHI,JHARKHAND
Hulhundu B.O,Branch Post Office,835221,,RANCHI,RANCHI,JHARKHAND,RANCHI,RANCHI,JHARKHAND
Hundru B.O,Branch Post Office,834003,,RANCHI,RANCHI,JHARKHAND,RANCHI,RANCHI,JHARKHAND
Hundur B.O,Branch Post Office,835217,,RANCHI,RANCHI,JHARKHAND,RANCHI,RANCHI,JHARKHAND
Hurdag B.O,Branch Post Office,835221,,RANCHI,RANCHI,JHARKHAND,RANCHI,RANCHI,JHARKHAND
Indrapuri Colony S.O,Sub Post Office,834001,,RANCHI,RANCHI,JHARKHAND,RANCHI,RANCHI,JHARKHAND
Itki S.O,Sub Post Office,835301,06529-227490,RANCHI,RANCHI,JHARKHAND,RANCHI,RANCHI,JHARKHAND
Jagarnath Nagar Colony S.O,Sub Post Office,834004,06529-2443056,RANCHI,RANCHI,JHARKHAND,RANCHI,RANCHI,JHARKHAND
Jharkhand Vidhan Sabha S.O,Sub Post Office,834004,0651-2440473,RANCHI,RANCHI,JHARKHAND,RANCHI,RANCHI,JHARKHAND
Kanke Road S.O,Sub Post Office,834008,,RANCHI,RANCHI,JHARKHAND,RANCHI,RANCHI,JHARKHAND
Kantatoli S.O,Sub Post Office,834001,0651-2530380,RANCHI,RANCHI,JHARKHAND,RANCHI,RANCHI,JHARKHAND
Kokar S.O,Sub Post Office,834001,0651-2543167,RANCHI,RANCHI,JHARKHAND,RANCHI,RANCHI,JHARKHAND
Lalpur S.O,Sub Post Office,834001,0651-2562459,RANCHI,RANCHI,JHARKHAND,RANCHI,RANCHI,JHARKHAND
Lame Baragaon B.O,Branch Post Office,834009,,RANCHI,RANCHI,JHARKHAND,RANCHI,RANCHI,JHARKHAND
Lodhma B.O,Branch Post Office,834004,,RANCHI,RANCHI,JHARKHAND,RANCHI,RANCHI,JHARKHAND
Lower Bazar S.O,Sub Post Office,834001,0651-2330708,RANCHI,RANCHI,JHARKHAND,RANCHI,RANCHI,JHARKHAND
Mesra S.O,Sub Post Office,835215,0651-2275827,RANCHI,RANCHI,JHARKHAND,RANCHI,RANCHI,JHARKHAND
Morabadi S.O,Sub Post Office,834008,0651-2561271,RANCHI,RANCHI,JHARKHAND,RANCHI,RANCHI,JHARKHAND
Namkum S.O,Sub Post Office,834010,0651-2260057,RANCHI,RANCHI,JHARKHAND,RANCHI,RANCHI,JHARKHAND
Ncdc S.O,Sub Post Office,834001,0651-2360537,RANCHI,RANCHI,JHARKHAND,RANCHI,RANCHI,JHARKHAND
Neori Vikas Vidyalaya S.O,Sub Post Office,835217,0651-2275930,RANCHI,RANCHI,JHARKHAND,RANCHI,RANCHI,JHARKHAND
New Area Marabadi S.O,Sub Post Office,834008,,RANCHI,RANCHI,JHARKHAND,RANCHI,RANCHI,JHARKHAND
Nibaranpur S.O,Sub Post Office,834002,,RANCHI,RANCHI,JHARKHAND,RANCHI,RANCHI,JHARKHAND
Old Commissioner Compound S.O,Sub Post Office,834001,0651-2209714,RANCHI,RANCHI,JHARKHAND,RANCHI,RANCHI,JHARKHAND
Piskanagri S.O,Sub Post Office,835303,,RANCHI,RANCHI,JHARKHAND,RANCHI,RANCHI,JHARKHAND
Pundag B.O,Branch Post Office,834004,,RANCHI,RANCHI,JHARKHAND,RANCHI,RANCHI,JHARKHAND
Railway Colony Hatia S.O,Sub Post Office,834003,0651-2600174,RANCHI,RANCHI,JHARKHAND,RANCHI,RANCHI,JHARKHAND
Ramkrishna Sanatorium S.O,Sub Post Office,835221,0651-2290382,RANCHI,RANCHI,JHARKHAND,RANCHI,RANCHI,JHARKHAND
Ranchi Airport S.O,Sub Post Office,834002,,RANCHI,RANCHI,JHARKHAND,RANCHI,RANCHI,JHARKHAND
Ranchi Court S.O,Sub Post Office,834001,0651-2206873,RANCHI,RANCHI,JHARKHAND,RANCHI,RANCHI,JHARKHAND
Ranchi G.P.O. ,Head Post Office,834001,0651-2215112,RANCHI,RANCHI,JHARKHAND,RANCHI,RANCHI,JHARKHAND
Ranchi Medical College Campus S.O,Sub Post Office,834009,0651-2540340,RANCHI,RANCHI,JHARKHAND,RANCHI,RANCHI,JHARKHAND
Ranchi Medical College S.O,Sub Post Office,834009,0651-2543994,RANCHI,RANCHI,JHARKHAND,RANCHI,RANCHI,JHARKHAND
Ranchi University S.O,Sub Post Office,834008,0651-2230108,RANCHI,RANCHI,JHARKHAND,RANCHI,RANCHI,JHARKHAND
Ranchi Veterinary College S.O,Sub Post Office,834006,0651-2450312,RANCHI,RANCHI,JHARKHAND,RANCHI,RANCHI,JHARKHAND
Satellite Colony S.O,Sub Post Office,834004,0651-2441292,RANCHI,RANCHI,JHARKHAND,RANCHI,RANCHI,JHARKHAND
Sikidiri S.O,Sub Post Office,835236,,RANCHI,RANCHI,JHARKHAND,RANCHI,RANCHI,JHARKHAND
Sithio B.O,Branch Post Office,834004,,RANCHI,RANCHI,JHARKHAND,RANCHI,RANCHI,JHARKHAND
Subarnrekha Hydai Project B.O,Branch Post Office,835219,,RANCHI,RANCHI,JHARKHAND,RANCHI,RANCHI,JHARKHAND
Tarasiladon B.O,Branch Post Office,835221,,RANCHI,RANCHI,JHARKHAND,RANCHI,RANCHI,JHARKHAND
Tiril B.O,Branch Post Office,834004,,RANCHI,RANCHI,JHARKHAND,RANCHI,RANCHI,JHARKHAND
Rania B.O,Branch Post Office,835227,,RANIA,RANCHI,JHARKHAND,RANCHI,RANCHI,JHARKHAND
Sarbo B.O,Branch Post Office,835227,,RANIA,RANCHI,JHARKHAND,RANCHI,RANCHI,JHARKHAND
Sode B.O,Branch Post Office,835227,,RANIA,RANCHI,JHARKHAND,RANCHI,RANCHI,JHARKHAND
Barsa B.O,Branch Post Office,835303,,RATU,RANCHI,JHARKHAND,RANCHI,RANCHI,JHARKHAND
Bijjulia B.O,Branch Post Office,835222,,RATU,RANCHI,JHARKHAND,RANCHI,RANCHI,JHARKHAND
Bindhani B.O,Branch Post Office,835303,,RATU,RANCHI,JHARKHAND,RANCHI,RANCHI,JHARKHAND
Chinarpurio B.O,Branch Post Office,835303,,RATU,RANCHI,JHARKHAND,RANCHI,RANCHI,JHARKHAND
Chipra B.O,Branch Post Office,835222,,RATU,RANCHI,JHARKHAND,RANCHI,RANCHI,JHARKHAND
Guru B.O,Branch Post Office,835222,,RATU,RANCHI,JHARKHAND,RANCHI,RANCHI,JHARKHAND
Gutua B.O,Branch Post Office,835303,,RATU,RANCHI,JHARKHAND,RANCHI,RANCHI,JHARKHAND
Halhu B.O,Branch Post Office,835303,,RATU,RANCHI,JHARKHAND,RANCHI,RANCHI,JHARKHAND
Hurhuri B.O,Branch Post Office,835222,,RATU,RANCHI,JHARKHAND,RANCHI,RANCHI,JHARKHAND
Kamre B.O,Branch Post Office,835222,,RATU,RANCHI,JHARKHAND,RANCHI,RANCHI,JHARKHAND
Katamkuli B.O,Branch Post Office,835222,,RATU,RANCHI,JHARKHAND,RANCHI,RANCHI,JHARKHAND
Katarpa B.O,Branch Post Office,835303,,RATU,RANCHI,JHARKHAND,RANCHI,RANCHI,JHARKHAND
Katulahna B.O,Branch Post Office,835222,,RATU,RANCHI,JHARKHAND,RANCHI,RANCHI,JHARKHAND
Kuli B.O,Branch Post Office,835303,,RATU,RANCHI,JHARKHAND,RANCHI,RANCHI,JHARKHAND
Malsering B.O,Branch Post Office,835222,,RATU,RANCHI,JHARKHAND,RANCHI,RANCHI,JHARKHAND
Marwa B.O,Branch Post Office,835222,,RATU,RANCHI,JHARKHAND,RANCHI,RANCHI,JHARKHAND
Murma Nayasarai B.O,Branch Post Office,835303,,RATU,RANCHI,JHARKHAND,RANCHI,RANCHI,JHARKHAND
Patrachauli B.O,Branch Post Office,835303,,RATU,RANCHI,JHARKHAND,RANCHI,RANCHI,JHARKHAND
Ratu S.O,Sub Post Office,835222,0651-2521860,RATU,RANCHI,JHARKHAND,RANCHI,RANCHI,JHARKHAND
Saparam B.O,Branch Post Office,835303,,RATU,RANCHI,JHARKHAND,RANCHI,RANCHI,JHARKHAND
Simlia B.O,Branch Post Office,835222,,RATU,RANCHI,JHARKHAND,RANCHI,RANCHI,JHARKHAND
Urugutu B.O,Branch Post Office,835222,,RATU,RANCHI,JHARKHAND,RANCHI,RANCHI,JHARKHAND
Ajaygarh B.O,Branch Post Office,835102,,SILLI,RANCHI,JHARKHAND,RANCHI,RANCHI,JHARKHAND
Bansiya B.O,Branch Post Office,835102,,SILLI,RANCHI,JHARKHAND,RANCHI,RANCHI,JHARKHAND
Banthahazam B.O,Branch Post Office,835102,,SILLI,RANCHI,JHARKHAND,RANCHI,RANCHI,JHARKHAND
Barachagru B.O,Branch Post Office,835102,,SILLI,RANCHI,JHARKHAND,RANCHI,RANCHI,JHARKHAND
Barenda B.O,Branch Post Office,835102,,SILLI,RANCHI,JHARKHAND,RANCHI,RANCHI,JHARKHAND
Bongaiburu B.O,Branch Post Office,835102,,SILLI,RANCHI,JHARKHAND,RANCHI,RANCHI,JHARKHAND
Chotamuri S.O,Sub Post Office,835101,06522-244437,SILLI,RANCHI,JHARKHAND,RANCHI,RANCHI,JHARKHAND
Dowaru B.O,Branch Post Office,835102,,SILLI,RANCHI,JHARKHAND,RANCHI,RANCHI,JHARKHAND
Goradih B.O,Branch Post Office,835102,,SILLI,RANCHI,JHARKHAND,RANCHI,RANCHI,JHARKHAND
Hakedag B.O,Branch Post Office,835101,,SILLI,RANCHI,JHARKHAND,RANCHI,RANCHI,JHARKHAND
Halmad B.O,Branch Post Office,835102,,SILLI,RANCHI,JHARKHAND,RANCHI,RANCHI,JHARKHAND
Jhabri B.O,Branch Post Office,835102,,SILLI,RANCHI,JHARKHAND,RANCHI,RANCHI,JHARKHAND
Kuchu B.O,Branch Post Office,835101,,SILLI,RANCHI,JHARKHAND,RANCHI,RANCHI,JHARKHAND
Lagam B.O,Branch Post Office,835101,,SILLI,RANCHI,JHARKHAND,RANCHI,RANCHI,JHARKHAND
Lota B.O,Branch Post Office,835102,,SILLI,RANCHI,JHARKHAND,RANCHI,RANCHI,JHARKHAND
Pandadih B.O,Branch Post Office,835102,,SILLI,RANCHI,JHARKHAND,RANCHI,RANCHI,JHARKHAND
Patrahatu B.O,Branch Post Office,835102,,SILLI,RANCHI,JHARKHAND,RANCHI,RANCHI,JHARKHAND
Piska B.O,Branch Post Office,835102,,SILLI,RANCHI,JHARKHAND,RANCHI,RANCHI,JHARKHAND
Pogra B.O,Branch Post Office,835102,,SILLI,RANCHI,JHARKHAND,RANCHI,RANCHI,JHARKHAND
Silli S.O,Sub Post Office,835102,06522-244124,SILLI,RANCHI,JHARKHAND,RANCHI,RANCHI,JHARKHAND
T.T.Mankidih B.O,Branch Post Office,835102,,SILLI,RANCHI,JHARKHAND,RANCHI,RANCHI,JHARKHAND
Tati B.O,Branch Post Office,835102,,SILLI,RANCHI,JHARKHAND,RANCHI,RANCHI,JHARKHAND
Tetebandrampur B.O,Branch Post Office,835101,,SILLI,RANCHI,JHARKHAND,RANCHI,RANCHI,JHARKHAND
Tetla B.O,Branch Post Office,835102,,SILLI,RANCHI,JHARKHAND,RANCHI,RANCHI,JHARKHAND
Tutikinawadih B.O,Branch Post Office,835102,,SILLI,RANCHI,JHARKHAND,RANCHI,RANCHI,JHARKHAND
Amlesha B.O,Branch Post Office,835225,,TAMAR,RANCHI,JHARKHAND,RANCHI,RANCHI,JHARKHAND
Arki B.O,Branch Post Office,835225,,TAMAR,RANCHI,JHARKHAND,RANCHI,RANCHI,JHARKHAND
Baburamdih B.O,Branch Post Office,835225,,TAMAR,RANCHI,JHARKHAND,RANCHI,RANCHI,JHARKHAND
Baredih B.O,Branch Post Office,835225,,TAMAR,RANCHI,JHARKHAND,RANCHI,RANCHI,JHARKHAND
Chirudih B.O,Branch Post Office,835225,,TAMAR,RANCHI,JHARKHAND,RANCHI,RANCHI,JHARKHAND
Chokahatu B.O,Branch Post Office,835225,,TAMAR,RANCHI,JHARKHAND,RANCHI,RANCHI,JHARKHAND
Doreya B.O,Branch Post Office,835225,,TAMAR,RANCHI,JHARKHAND,RANCHI,RANCHI,JHARKHAND
Haramlohar B.O,Branch Post Office,835225,,TAMAR,RANCHI,JHARKHAND,RANCHI,RANCHI,JHARKHAND
Janumpiri B.O,Branch Post Office,835225,,TAMAR,RANCHI,JHARKHAND,RANCHI,RANCHI,JHARKHAND
Jargo B.O,Branch Post Office,835225,,TAMAR,RANCHI,JHARKHAND,RANCHI,RANCHI,JHARKHAND
Jilling Soreng B.O,Branch Post Office,835225,,TAMAR,RANCHI,JHARKHAND,RANCHI,RANCHI,JHARKHAND
Jojohatu B.O,Branch Post Office,835225,,TAMAR,RANCHI,JHARKHAND,RANCHI,RANCHI,JHARKHAND
Kochasindri B.O,Branch Post Office,835225,,TAMAR,RANCHI,JHARKHAND,RANCHI,RANCHI,JHARKHAND
Kota B.O,Branch Post Office,835225,,TAMAR,RANCHI,JHARKHAND,RANCHI,RANCHI,JHARKHAND
Landupdih B.O,Branch Post Office,835225,,TAMAR,RANCHI,JHARKHAND,RANCHI,RANCHI,JHARKHAND
Lungtu B.O,Branch Post Office,835225,,TAMAR,RANCHI,JHARKHAND,RANCHI,RANCHI,JHARKHAND
Mankidih B.O,Branch Post Office,835225,,TAMAR,RANCHI,JHARKHAND,RANCHI,RANCHI,JHARKHAND
Norhi B.O,Branch Post Office,835225,,TAMAR,RANCHI,JHARKHAND,RANCHI,RANCHI,JHARKHAND
Parasi B.O,Branch Post Office,835225,,TAMAR,RANCHI,JHARKHAND,RANCHI,RANCHI,JHARKHAND
Pundidiri B.O,Branch Post Office,835225,,TAMAR,RANCHI,JHARKHAND,RANCHI,RANCHI,JHARKHAND
Rargaon B.O,Branch Post Office,835225,,TAMAR,RANCHI,JHARKHAND,RANCHI,RANCHI,JHARKHAND
Salgadih B.O,Branch Post Office,835225,,TAMAR,RANCHI,JHARKHAND,RANCHI,RANCHI,JHARKHAND
Sarjomdih B.O,Branch Post Office,835225,,TAMAR,RANCHI,JHARKHAND,RANCHI,RANCHI,JHARKHAND
Tamar S.O,Sub Post Office,835225,06530-252426,TAMAR,RANCHI,JHARKHAND,RANCHI,RANCHI,JHARKHAND
Ulidih B.O,Branch Post Office,835225,,TAMAR,RANCHI,JHARKHAND,RANCHI,RANCHI,JHARKHAND
Ulilohar B.O,Branch Post Office,835225,,TAMAR,RANCHI,JHARKHAND,RANCHI,RANCHI,JHARKHAND
Vijaygiri B.O,Branch Post Office,835225,,TAMAR,RANCHI,JHARKHAND,RANCHI,RANCHI,JHARKHAND
Ambapakhna B.O,Branch Post Office,835227,,TORPA,RANCHI,JHARKHAND,RANCHI,RANCHI,JHARKHAND
Barda B.O,Branch Post Office,835227,,TORPA,RANCHI,JHARKHAND,RANCHI,RANCHI,JHARKHAND
Dorma B.O,Branch Post Office,835227,,TORPA,RANCHI,JHARKHAND,RANCHI,RANCHI,JHARKHAND
Dumangdiri B.O,Branch Post Office,835227,,TORPA,RANCHI,JHARKHAND,RANCHI,RANCHI,JHARKHAND
Gudri B.O,Branch Post Office,835227,,TORPA,RANCHI,JHARKHAND,RANCHI,RANCHI,JHARKHAND
Icha B.O,Branch Post Office,835227,,TORPA,RANCHI,JHARKHAND,RANCHI,RANCHI,JHARKHAND
Jaipur B.O,Branch Post Office,835227,,TORPA,RANCHI,JHARKHAND,RANCHI,RANCHI,JHARKHAND
Kasmar B.O,Branch Post Office,835227,,TORPA,RANCHI,JHARKHAND,RANCHI,RANCHI,JHARKHAND
Khatanga B.O,Branch Post Office,835227,,TORPA,RANCHI,JHARKHAND,RANCHI,RANCHI,JHARKHAND
Marcha B.O,Branch Post Office,835227,,TORPA,RANCHI,JHARKHAND,RANCHI,RANCHI,JHARKHAND
Patpur B.O,Branch Post Office,835227,,TORPA,RANCHI,JHARKHAND,RANCHI,RANCHI,JHARKHAND
Raisimla B.O,Branch Post Office,835227,,TORPA,RANCHI,JHARKHAND,RANCHI,RANCHI,JHARKHAND
Sundari B.O,Branch Post Office,835227,,TORPA,RANCHI,JHARKHAND,RANCHI,RANCHI,JHARKHAND
Tirla B.O,Branch Post Office,835227,,TORPA,RANCHI,JHARKHAND,RANCHI,RANCHI,JHARKHAND
Torpa S.O,Sub Post Office,835227,06538-233332,TORPA,RANCHI,JHARKHAND,RANCHI,RANCHI,JHARKHAND
Narayanpur East Diara B.O,Branch Post Office,816108,,.,SAHIBGANJ,JHARKHAND,SANTHAL PARGANAS,RANCHI,JHARKHAND
Barmasia B.O,Branch Post Office,816102,,816102,SAHIBGANJ,JHARKHAND,SANTHAL PARGANAS,RANCHI,JHARKHAND
B.Kadma B.O,Branch Post Office,816102,,BARHAIT,SAHIBGANJ,JHARKHAND,SANTHAL PARGANAS,RANCHI,JHARKHAND
Barhait S.O,Sub Post Office,816102,,BARHAIT,SAHIBGANJ,JHARKHAND,SANTHAL PARGANAS,RANCHI,JHARKHAND
Bhognadih B.O,Branch Post Office,816102,,BARHAIT,SAHIBGANJ,JHARKHAND,SANTHAL PARGANAS,RANCHI,JHARKHAND
Borbandh B.O,Branch Post Office,816102,,BARHAIT,SAHIBGANJ,JHARKHAND,SANTHAL PARGANAS,RANCHI,JHARKHAND
Hatigarah B.O,Branch Post Office,816120,,BARHAIT,SAHIBGANJ,JHARKHAND,SANTHAL PARGANAS,RANCHI,JHARKHAND
Kusmaha B.O,Branch Post Office,816102,,BARHAIT,SAHIBGANJ,JHARKHAND,SANTHAL PARGANAS,RANCHI,JHARKHAND
Labri B.O,Branch Post Office,816102,,BARHAIT,SAHIBGANJ,JHARKHAND,SANTHAL PARGANAS,RANCHI,JHARKHAND
P.K.Bazar B.O,Branch Post Office,816102,,BARHAIT,SAHIBGANJ,JHARKHAND,SANTHAL PARGANAS,RANCHI,JHARKHAND
Phulbanga B.O,Branch Post Office,816102,,BARHAIT,SAHIBGANJ,JHARKHAND,SANTHAL PARGANAS,RANCHI,JHARKHAND
Rohra B.O,Branch Post Office,816102,,BARHAIT,SAHIBGANJ,JHARKHAND,SANTHAL PARGANAS,RANCHI,JHARKHAND
Barharwa S.O,Sub Post Office,816101,06426-278322,BARHARWA,SAHIBGANJ,JHARKHAND,SANTHAL PARGANAS,RANCHI,JHARKHAND
Binodpur B.O,Branch Post Office,816105,,BARHARWA,SAHIBGANJ,JHARKHAND,SANTHAL PARGANAS,RANCHI,JHARKHAND
Bishanpur B.O,Branch Post Office,816110,,BARHARWA,SAHIBGANJ,JHARKHAND,SANTHAL PARGANAS,RANCHI,JHARKHAND
Gaganpahari B.O,Branch Post Office,816105,,BARHARWA,SAHIBGANJ,JHARKHAND,SANTHAL PARGANAS,RANCHI,JHARKHAND
Ganishpur B.O,Branch Post Office,816101,,BARHARWA,SAHIBGANJ,JHARKHAND,SANTHAL PARGANAS,RANCHI,JHARKHAND
Goalkhor B.O,Branch Post Office,816101,,BARHARWA,SAHIBGANJ,JHARKHAND,SANTHAL PARGANAS,RANCHI,JHARKHAND
Ishlampur B.O,Branch Post Office,816101,,BARHARWA,SAHIBGANJ,JHARKHAND,SANTHAL PARGANAS,RANCHI,JHARKHAND
Jambad B.O,Branch Post Office,816105,,BARHARWA,SAHIBGANJ,JHARKHAND,SANTHAL PARGANAS,RANCHI,JHARKHAND
Jampur B.O,Branch Post Office,816101,,BARHARWA,SAHIBGANJ,JHARKHAND,SANTHAL PARGANAS,RANCHI,JHARKHAND
Kankjol B.O,Branch Post Office,816101,,BARHARWA,SAHIBGANJ,JHARKHAND,SANTHAL PARGANAS,RANCHI,JHARKHAND
Kotalpokhar S.O,Sub Post Office,816105,,BARHARWA,SAHIBGANJ,JHARKHAND,SANTHAL PARGANAS,RANCHI,JHARKHAND
Mayur Kola B.O,Branch Post Office,816105,,BARHARWA,SAHIBGANJ,JHARKHAND,SANTHAL PARGANAS,RANCHI,JHARKHAND
Palasbona B.O,Branch Post Office,816101,,BARHARWA,SAHIBGANJ,JHARKHAND,SANTHAL PARGANAS,RANCHI,JHARKHAND
Patharia B.O,Branch Post Office,816105,,BARHARWA,SAHIBGANJ,JHARKHAND,SANTHAL PARGANAS,RANCHI,JHARKHAND
Ranigram B.O,Branch Post Office,816101,,BARHARWA,SAHIBGANJ,JHARKHAND,SANTHAL PARGANAS,RANCHI,JHARKHAND
Reshore B.O,Branch Post Office,816101,,BARHARWA,SAHIBGANJ,JHARKHAND,SANTHAL PARGANAS,RANCHI,JHARKHAND
Srikund B.O,Branch Post Office,816101,,BARHARWA,SAHIBGANJ,JHARKHAND,SANTHAL PARGANAS,RANCHI,JHARKHAND
Talbaria B.O,Branch Post Office,816102,,BARHIT,SAHIBGANJ,JHARKHAND,SANTHAL PARGANAS,RANCHI,JHARKHAND
Sripurbazar B.O,Branch Post Office,813208,,BOARIJORE,SAHIBGANJ,JHARKHAND,SANTHAL PARGANAS,RANCHI,JHARKHAND
Aglio B.O,Branch Post Office,816101,,BORIO,SAHIBGANJ,JHARKHAND,SANTHAL PARGANAS,RANCHI,JHARKHAND
Aprol B.O,Branch Post Office,816120,,BORIO,SAHIBGANJ,JHARKHAND,SANTHAL PARGANAS,RANCHI,JHARKHAND
Banjhi B.O,Branch Post Office,816109,,BORIO,SAHIBGANJ,JHARKHAND,SANTHAL PARGANAS,RANCHI,JHARKHAND
Bara Madansahi B.O,Branch Post Office,816109,,BORIO,SAHIBGANJ,JHARKHAND,SANTHAL PARGANAS,RANCHI,JHARKHAND
Barajirwabari B.O,Branch Post Office,816109,,BORIO,SAHIBGANJ,JHARKHAND,SANTHAL PARGANAS,RANCHI,JHARKHAND
Borio S.O,Sub Post Office,816120,,BORIO,SAHIBGANJ,JHARKHAND,SANTHAL PARGANAS,RANCHI,JHARKHAND
Chotabangama B.O,Branch Post Office,816120,,BORIO,SAHIBGANJ,JHARKHAND,SANTHAL PARGANAS,RANCHI,JHARKHAND
J.Kumarjori B.O,Branch Post Office,816102,,BORIO,SAHIBGANJ,JHARKHAND,SANTHAL PARGANAS,RANCHI,JHARKHAND
Mirzachowki S.O,Sub Post Office,813208,,BORIO,SAHIBGANJ,JHARKHAND,SANTHAL PARGANAS,RANCHI,JHARKHAND
Motipahari B.O,Branch Post Office,816120,,BORIO,SAHIBGANJ,JHARKHAND,SANTHAL PARGANAS,RANCHI,JHARKHAND
Telo B.O,Branch Post Office,816120,,BORIO,SAHIBGANJ,JHARKHAND,SANTHAL PARGANAS,RANCHI,JHARKHAND
Mandro B.O,Branch Post Office,813208,,MANDRO,SAHIBGANJ,JHARKHAND,SANTHAL PARGANAS,RANCHI,JHARKHAND
B.B. Mangladih B.O,Branch Post Office,816110,,PATHNA,SAHIBGANJ,JHARKHAND,SANTHAL PARGANAS,RANCHI,JHARKHAND
Banskola B.O,Branch Post Office,816110,,PATHNA,SAHIBGANJ,JHARKHAND,SANTHAL PARGANAS,RANCHI,JHARKHAND
Baradighi B.O,Branch Post Office,816101,,PATHNA,SAHIBGANJ,JHARKHAND,SANTHAL PARGANAS,RANCHI,JHARKHAND
Bartalla B.O,Branch Post Office,816110,,PATHNA,SAHIBGANJ,JHARKHAND,SANTHAL PARGANAS,RANCHI,JHARKHAND
Ghatiari B.O,Branch Post Office,816110,,PATHNA,SAHIBGANJ,JHARKHAND,SANTHAL PARGANAS,RANCHI,JHARKHAND
Lakhipur B.O,Branch Post Office,816110,,PATHNA,SAHIBGANJ,JHARKHAND,SANTHAL PARGANAS,RANCHI,JHARKHAND
Pathna S.O,Sub Post Office,816110,06426-278336,PATHNA,SAHIBGANJ,JHARKHAND,SANTHAL PARGANAS,RANCHI,JHARKHAND
Kalyanchak B.O,Branch Post Office,816116,,RAHMAHAL,SAHIBGANJ,JHARKHAND,SANTHAL PARGANAS,RANCHI,JHARKHAND
Atapur B.O,Branch Post Office,816101,,RAJMAHAL,SAHIBGANJ,JHARKHAND,SANTHAL PARGANAS,RANCHI,JHARKHAND
Begamganj B.O,Branch Post Office,816101,,RAJMAHAL,SAHIBGANJ,JHARKHAND,SANTHAL PARGANAS,RANCHI,JHARKHAND
Jonka B.O,Branch Post Office,816116,,RAJMAHAL,SAHIBGANJ,JHARKHAND,SANTHAL PARGANAS,RANCHI,JHARKHAND
Kajigoun B.O,Branch Post Office,816108,,RAJMAHAL,SAHIBGANJ,JHARKHAND,SANTHAL PARGANAS,RANCHI,JHARKHAND
Mahasinghpur B.O,Branch Post Office,816108,,RAJMAHAL,SAHIBGANJ,JHARKHAND,SANTHAL PARGANAS,RANCHI,JHARKHAND
Narayanpur B.O,Branch Post Office,816108,,RAJMAHAL,SAHIBGANJ,JHARKHAND,SANTHAL PARGANAS,RANCHI,JHARKHAND
P.K.Bazar B.O,Branch Post Office,816108,,RAJMAHAL,SAHIBGANJ,JHARKHAND,SANTHAL PARGANAS,RANCHI,JHARKHAND
Palasgachi B.O,Branch Post Office,816108,,RAJMAHAL,SAHIBGANJ,JHARKHAND,SANTHAL PARGANAS,RANCHI,JHARKHAND
Phudkipur B.O,Branch Post Office,816108,,RAJMAHAL,SAHIBGANJ,JHARKHAND,SANTHAL PARGANAS,RANCHI,JHARKHAND
Piyarpur B.O,Branch Post Office,816108,,RAJMAHAL,SAHIBGANJ,JHARKHAND,SANTHAL PARGANAS,RANCHI,JHARKHAND
Rajmahal S.O,Sub Post Office,816108,06426-228122,RAJMAHAL,SAHIBGANJ,JHARKHAND,SANTHAL PARGANAS,RANCHI,JHARKHAND
Tinpahar RS S.O,Sub Post Office,816116,06426-258634,RAJMAHAL,SAHIBGANJ,JHARKHAND,SANTHAL PARGANAS,RANCHI,JHARKHAND
Balapokhar B.O,Branch Post Office,816109,,SAHIBGANJ,SAHIBGANJ,JHARKHAND,SANTHAL PARGANAS,RANCHI,JHARKHAND
Baluagairah B.O,Branch Post Office,816109,,SAHIBGANJ,SAHIBGANJ,JHARKHAND,SANTHAL PARGANAS,RANCHI,JHARKHAND
Ganga Prasad Diara B.O,Branch Post Office,816109,,SAHIBGANJ,SAHIBGANJ,JHARKHAND,SANTHAL PARGANAS,RANCHI,JHARKHAND
Hariprasad Diara B.O,Branch Post Office,816109,,SAHIBGANJ,SAHIBGANJ,JHARKHAND,SANTHAL PARGANAS,RANCHI,JHARKHAND
Hazipur Bari Kodarjana B.O,Branch Post Office,816109,,SAHIBGANJ,SAHIBGANJ,JHARKHAND,SANTHAL PARGANAS,RANCHI,JHARKHAND
Mahadeo Ganj B.O,Branch Post Office,816109,,SAHIBGANJ,SAHIBGANJ,JHARKHAND,SANTHAL PARGANAS,RANCHI,JHARKHAND
Rampur B.O,Branch Post Office,816109,,SAHIBGANJ,SAHIBGANJ,JHARKHAND,SANTHAL PARGANAS,RANCHI,JHARKHAND
Sahibganj S.O,Sub Post Office,816109,06436-223030,SAHIBGANJ,SAHIBGANJ,JHARKHAND,SANTHAL PARGANAS,RANCHI,JHARKHAND
Sakrigali Ghat S.O,Sub Post Office,816115,,SAHIBGANJ,SAHIBGANJ,JHARKHAND,SANTHAL PARGANAS,RANCHI,JHARKHAND
Bakudih B.O,Branch Post Office,816101,,TALJHARI,SAHIBGANJ,JHARKHAND,SANTHAL PARGANAS,RANCHI,JHARKHAND
Bara Durgapur B.O,Branch Post Office,816116,,TALJHARI,SAHIBGANJ,JHARKHAND,SANTHAL PARGANAS,RANCHI,JHARKHAND
Brindaban B.O,Branch Post Office,816116,,TALJHARI,SAHIBGANJ,JHARKHAND,SANTHAL PARGANAS,RANCHI,JHARKHAND
Karanpura B.O,Branch Post Office,816129,,TALJHARI,SAHIBGANJ,JHARKHAND,SANTHAL PARGANAS,RANCHI,JHARKHAND
Maharajpur B.O,Branch Post Office,816109,,TALJHARI,SAHIBGANJ,JHARKHAND,SANTHAL PARGANAS,RANCHI,JHARKHAND
Mangalhat English B.O,Branch Post Office,816129,,TALJHARI,SAHIBGANJ,JHARKHAND,SANTHAL PARGANAS,RANCHI,JHARKHAND
Sarkanda B.O,Branch Post Office,816129,,TALJHARI,SAHIBGANJ,JHARKHAND,SANTHAL PARGANAS,RANCHI,JHARKHAND
Taljhari S.O,Sub Post Office,816129,,TALJHARI,SAHIBGANJ,JHARKHAND,SANTHAL PARGANAS,RANCHI,JHARKHAND
Chandsaher B.O,Branch Post Office,816101,,UDHUA,SAHIBGANJ,JHARKHAND,SANTHAL PARGANAS,RANCHI,JHARKHAND
Choukidhab B.O,Branch Post Office,816108,,UDHUA,SAHIBGANJ,JHARKHAND,SANTHAL PARGANAS,RANCHI,JHARKHAND
Kathalbari B.O,Branch Post Office,816101,,UDHUA,SAHIBGANJ,JHARKHAND,SANTHAL PARGANAS,RANCHI,JHARKHAND
Kelabari B.O,Branch Post Office,816101,,UDHUA,SAHIBGANJ,JHARKHAND,SANTHAL PARGANAS,RANCHI,JHARKHAND
Jamnager B.O,Branch Post Office,816108,,UDHWA,SAHIBGANJ,JHARKHAND,SANTHAL PARGANAS,RANCHI,JHARKHAND
Udhwa B.O,Branch Post Office,816108,,UDHWA,SAHIBGANJ,JHARKHAND,SANTHAL PARGANAS,RANCHI,JHARKHAND
Sridhardira B.O,Branch Post Office,816101,,UEDHUA,SAHIBGANJ,JHARKHAND,SANTHAL PARGANAS,RANCHI,JHARKHAND
Masna B.O,Branch Post Office,816101,,UEDHWA,SAHIBGANJ,JHARKHAND,SANTHAL PARGANAS,RANCHI,JHARKHAND
Radhanager B.O,Branch Post Office,816101,,UEDHWA,SAHIBGANJ,JHARKHAND,SANTHAL PARGANAS,RANCHI,JHARKHAND
Kharsawangarh S.O,Sub Post Office,833216,, KHARSAWANGARH,SERAIKELA-KHARSAWAN,JHARKHAND,SINGHBHUM,RANCHI,JHARKHAND
Adityapur Industrial Area S.O,Sub Post Office,832109,,A.I .AREA,SERAIKELA-KHARSAWAN,JHARKHAND,SINGHBHUM,RANCHI,JHARKHAND
Adityapur S.O,Sub Post Office,831013,0657-2371173,ADITYAPUR,SERAIKELA-KHARSAWAN,JHARKHAND,SINGHBHUM,RANCHI,JHARKHAND
Amda S.O,Sub Post Office,833101,06583-252728,AMDA,SERAIKELA-KHARSAWAN,JHARKHAND,SINGHBHUM,RANCHI,JHARKHAND
Chakradharpur Bazar S.O,Sub Post Office,833102,06587-238020,CHAKDRADHARPUR,SERAIKELA-KHARSAWAN,JHARKHAND,SINGHBHUM,RANCHI,JHARKHAND
Asantalia B.O,Branch Post Office,833105,,Chakradharpur,SERAIKELA-KHARSAWAN,JHARKHAND,SINGHBHUM,RANCHI,JHARKHAND
Chakradharpur Colony S.O,Sub Post Office,833102,06587-228060,CHAKRADHARPUR,SERAIKELA-KHARSAWAN,JHARKHAND,SINGHBHUM,RANCHI,JHARKHAND
Chakradharpur S.O,Sub Post Office,833102,06587-238061,CHAKRADHARPUR,SERAIKELA-KHARSAWAN,JHARKHAND,SINGHBHUM,RANCHI,JHARKHAND
Jarakel B.O,Branch Post Office,833105,,Chakradharpur,SERAIKELA-KHARSAWAN,JHARKHAND,SINGHBHUM,RANCHI,JHARKHAND
Chopra B.O,Branch Post Office,832403,,Chandil,SERAIKELA-KHARSAWAN,JHARKHAND,SINGHBHUM,RANCHI,JHARKHAND
Dulmi B.O,Branch Post Office,832403,,Chandil,SERAIKELA-KHARSAWAN,JHARKHAND,SINGHBHUM,RANCHI,JHARKHAND
Ichadih B.O,Branch Post Office,832403,,Chandil,SERAIKELA-KHARSAWAN,JHARKHAND,SINGHBHUM,RANCHI,JHARKHAND
Janum B.O,Branch Post Office,832403,,Chandil,SERAIKELA-KHARSAWAN,JHARKHAND,SINGHBHUM,RANCHI,JHARKHAND
Kashipur B.O,Branch Post Office,832403,,Chandil,SERAIKELA-KHARSAWAN,JHARKHAND,SINGHBHUM,RANCHI,JHARKHAND
Kukra B.O,Branch Post Office,832403,,Chandil,SERAIKELA-KHARSAWAN,JHARKHAND,SINGHBHUM,RANCHI,JHARKHAND
Muru B.O,Branch Post Office,832403,,Chandil,SERAIKELA-KHARSAWAN,JHARKHAND,SINGHBHUM,RANCHI,JHARKHAND
Shirum B.O,Branch Post Office,832403,,Chandil,SERAIKELA-KHARSAWAN,JHARKHAND,SINGHBHUM,RANCHI,JHARKHAND
Situ B.O,Branch Post Office,832403,,Chandil,SERAIKELA-KHARSAWAN,JHARKHAND,SINGHBHUM,RANCHI,JHARKHAND
Soro B.O,Branch Post Office,832403,,Chandil,SERAIKELA-KHARSAWAN,JHARKHAND,SINGHBHUM,RANCHI,JHARKHAND
Gamharia S.O,Sub Post Office,832108,,GAMHARIA,SERAIKELA-KHARSAWAN,JHARKHAND,SINGHBHUM,RANCHI,JHARKHAND
Hudu B.O,Branch Post Office,832402,,Gamharia,SERAIKELA-KHARSAWAN,JHARKHAND,SINGHBHUM,RANCHI,JHARKHAND
Kandra S.O,Sub Post Office,832402,,KANDRA,SERAIKELA-KHARSAWAN,JHARKHAND,SINGHBHUM,RANCHI,JHARKHAND
Urmal B.O,Branch Post Office,832404,,Seraikalla Kharsawan,SERAIKELA-KHARSAWAN,JHARKHAND,SINGHBHUM,RANCHI,JHARKHAND
Bhalurungi B.O,Branch Post Office,833105,,Seraikela,SERAIKELA-KHARSAWAN,JHARKHAND,SINGHBHUM,RANCHI,JHARKHAND
Dugni B.O,Branch Post Office,833210,,Seraikela,SERAIKELA-KHARSAWAN,JHARKHAND,SINGHBHUM,RANCHI,JHARKHAND
Kendua B.O,Branch Post Office,833210,,Seraikela,SERAIKELA-KHARSAWAN,JHARKHAND,SINGHBHUM,RANCHI,JHARKHAND
Kolabira B.O,Branch Post Office,833210,,Seraikela,SERAIKELA-KHARSAWAN,JHARKHAND,SINGHBHUM,RANCHI,JHARKHAND
Madhupur B.O,Branch Post Office,833210,,Seraikela,SERAIKELA-KHARSAWAN,JHARKHAND,SINGHBHUM,RANCHI,JHARKHAND
Munda Tand B.O,Branch Post Office,833210,,Seraikela,SERAIKELA-KHARSAWAN,JHARKHAND,SINGHBHUM,RANCHI,JHARKHAND
Narayanpur B.O,Branch Post Office,833210,,Seraikela,SERAIKELA-KHARSAWAN,JHARKHAND,SINGHBHUM,RANCHI,JHARKHAND
Nengtasai B.O,Branch Post Office,833210,,Seraikela,SERAIKELA-KHARSAWAN,JHARKHAND,SINGHBHUM,RANCHI,JHARKHAND
Raidih B.O,Branch Post Office,833210,,Seraikela,SERAIKELA-KHARSAWAN,JHARKHAND,SINGHBHUM,RANCHI,JHARKHAND
Sindhukopa B.O,Branch Post Office,833210,,Seraikela,SERAIKELA-KHARSAWAN,JHARKHAND,SINGHBHUM,RANCHI,JHARKHAND
Sindri B.O,Branch Post Office,833210,,Seraikela,SERAIKELA-KHARSAWAN,JHARKHAND,SINGHBHUM,RANCHI,JHARKHAND
Arwan B.O,Branch Post Office,833216,,Seraikella,SERAIKELA-KHARSAWAN,JHARKHAND,SINGHBHUM,RANCHI,JHARKHAND
Dalbhanga B.O,Branch Post Office,833216,,Seraikella,SERAIKELA-KHARSAWAN,JHARKHAND,SINGHBHUM,RANCHI,JHARKHAND
Pathermara B.O,Branch Post Office,832119,,Seraikella,SERAIKELA-KHARSAWAN,JHARKHAND,SINGHBHUM,RANCHI,JHARKHAND
Seraikella Block B.O,Branch Post Office,832119,,Seraikella,SERAIKELA-KHARSAWAN,JHARKHAND,SINGHBHUM,RANCHI,JHARKHAND
Seraikella S.O,Sub Post Office,832119,,SERAIKELLA,SERAIKELA-KHARSAWAN,JHARKHAND,SINGHBHUM,RANCHI,JHARKHAND
Tablapur B.O,Branch Post Office,832119,,Seraikella,SERAIKELA-KHARSAWAN,JHARKHAND,SINGHBHUM,RANCHI,JHARKHAND
Bamni Chaliyama B.O,Branch Post Office,832401,,Seraikella Kharsawan,SERAIKELA-KHARSAWAN,JHARKHAND,SINGHBHUM,RANCHI,JHARKHAND
Bandu B.O,Branch Post Office,832404,,Seraikella Kharsawan,SERAIKELA-KHARSAWAN,JHARKHAND,SINGHBHUM,RANCHI,JHARKHAND
Bansa B.O,Branch Post Office,832404,,Seraikella Kharsawan,SERAIKELA-KHARSAWAN,JHARKHAND,SINGHBHUM,RANCHI,JHARKHAND
Baramari B.O,Branch Post Office,832108,,Seraikella Kharsawan,SERAIKELA-KHARSAWAN,JHARKHAND,SINGHBHUM,RANCHI,JHARKHAND
Bareda B.O,Branch Post Office,832401,,Seraikella Kharsawan,SERAIKELA-KHARSAWAN,JHARKHAND,SINGHBHUM,RANCHI,JHARKHAND
Bhadudih B.O,Branch Post Office,832401,,Seraikella Kharsawan,SERAIKELA-KHARSAWAN,JHARKHAND,SINGHBHUM,RANCHI,JHARKHAND
Burudih B.O,Branch Post Office,832108,,Seraikella Kharsawan,SERAIKELA-KHARSAWAN,JHARKHAND,SINGHBHUM,RANCHI,JHARKHAND
Buruhatu B.O,Branch Post Office,832404,,Seraikella Kharsawan,SERAIKELA-KHARSAWAN,JHARKHAND,SINGHBHUM,RANCHI,JHARKHAND
Chainpur B.O,Branch Post Office,832401,,Seraikella Kharsawan,SERAIKELA-KHARSAWAN,JHARKHAND,SINGHBHUM,RANCHI,JHARKHAND
Chelgu B.O,Branch Post Office,832401,,Seraikella Kharsawan,SERAIKELA-KHARSAWAN,JHARKHAND,SINGHBHUM,RANCHI,JHARKHAND
Chipri B.O,Branch Post Office,832404,,Seraikella Kharsawan,SERAIKELA-KHARSAWAN,JHARKHAND,SINGHBHUM,RANCHI,JHARKHAND
Deoltand B.O,Branch Post Office,832404,,Seraikella Kharsawan,SERAIKELA-KHARSAWAN,JHARKHAND,SINGHBHUM,RANCHI,JHARKHAND
Dugdha B.O,Branch Post Office,832108,,Seraikella Kharsawan,SERAIKELA-KHARSAWAN,JHARKHAND,SINGHBHUM,RANCHI,JHARKHAND
Gaurangkocha B.O,Branch Post Office,832404,,Seraikella Kharsawan,SERAIKELA-KHARSAWAN,JHARKHAND,SINGHBHUM,RANCHI,JHARKHAND
Ghatdulmi B.O,Branch Post Office,832404,,Seraikella Kharsawan,SERAIKELA-KHARSAWAN,JHARKHAND,SINGHBHUM,RANCHI,JHARKHAND
Ghoraling B.O,Branch Post Office,832401,,Seraikella Kharsawan,SERAIKELA-KHARSAWAN,JHARKHAND,SINGHBHUM,RANCHI,JHARKHAND
Hesalkocha B.O,Branch Post Office,832404,,Seraikella Kharsawan,SERAIKELA-KHARSAWAN,JHARKHAND,SINGHBHUM,RANCHI,JHARKHAND
Jhabri B.O,Branch Post Office,832404,,Seraikella Kharsawan,SERAIKELA-KHARSAWAN,JHARKHAND,SINGHBHUM,RANCHI,JHARKHAND
Jugilong B.O,Branch Post Office,832401,,Seraikella Kharsawan,SERAIKELA-KHARSAWAN,JHARKHAND,SINGHBHUM,RANCHI,JHARKHAND
Kanderbera B.O,Branch Post Office,832401,,Seraikella Kharsawan,SERAIKELA-KHARSAWAN,JHARKHAND,SINGHBHUM,RANCHI,JHARKHAND
Kashidih B.O,Branch Post Office,832404,,Seraikella Kharsawan,SERAIKELA-KHARSAWAN,JHARKHAND,SINGHBHUM,RANCHI,JHARKHAND
Khunti B.O,Branch Post Office,832404,,Seraikella Kharsawan,SERAIKELA-KHARSAWAN,JHARKHAND,SINGHBHUM,RANCHI,JHARKHAND
Lepatand B.O,Branch Post Office,832404,,Seraikella Kharsawan,SERAIKELA-KHARSAWAN,JHARKHAND,SINGHBHUM,RANCHI,JHARKHAND
Madhupur B.O,Branch Post Office,832401,,Seraikella Kharsawan,SERAIKELA-KHARSAWAN,JHARKHAND,SINGHBHUM,RANCHI,JHARKHAND
Moisara B.O,Branch Post Office,832404,,Seraikella Kharsawan,SERAIKELA-KHARSAWAN,JHARKHAND,SINGHBHUM,RANCHI,JHARKHAND
Nadisai B.O,Branch Post Office,832404,,Seraikella Kharsawan,SERAIKELA-KHARSAWAN,JHARKHAND,SINGHBHUM,RANCHI,JHARKHAND
Nimdih B.O,Branch Post Office,832401,,Seraikella Kharsawan,SERAIKELA-KHARSAWAN,JHARKHAND,SINGHBHUM,RANCHI,JHARKHAND
Nowagarh B.O,Branch Post Office,832108,,Seraikella Kharsawan,SERAIKELA-KHARSAWAN,JHARKHAND,SINGHBHUM,RANCHI,JHARKHAND
Patkum B.O,Branch Post Office,832404,,Seraikella Kharsawan,SERAIKELA-KHARSAWAN,JHARKHAND,SINGHBHUM,RANCHI,JHARKHAND
Pokharia B.O,Branch Post Office,832401,,Seraikella Kharsawan,SERAIKELA-KHARSAWAN,JHARKHAND,SINGHBHUM,RANCHI,JHARKHAND
Sidhdih B.O,Branch Post Office,832404,,Seraikella Kharsawan,SERAIKELA-KHARSAWAN,JHARKHAND,SINGHBHUM,RANCHI,JHARKHAND
Simagunda B.O,Branch Post Office,832401,,Seraikella Kharsawan,SERAIKELA-KHARSAWAN,JHARKHAND,SINGHBHUM,RANCHI,JHARKHAND
Tikar B.O,Branch Post Office,832404,,Seraikella Kharsawan,SERAIKELA-KHARSAWAN,JHARKHAND,SINGHBHUM,RANCHI,JHARKHAND
Tilla B.O,Branch Post Office,832401,,Seraikella Kharsawan,SERAIKELA-KHARSAWAN,JHARKHAND,SINGHBHUM,RANCHI,JHARKHAND
Tuta B.O,Branch Post Office,832404,,Seraikella Kharsawan,SERAIKELA-KHARSAWAN,JHARKHAND,SINGHBHUM,RANCHI,JHARKHAND
Tamari B.O,Branch Post Office,832404,,Seraikella Kharsawanq,SERAIKELA-KHARSAWAN,JHARKHAND,SINGHBHUM,RANCHI,JHARKHAND
Tankocha B.O,Branch Post Office,832401,,Seraikella Kharsawanq,SERAIKELA-KHARSAWAN,JHARKHAND,SINGHBHUM,RANCHI,JHARKHAND
Burudih B.O,Branch Post Office,833210,,Seraikera,SERAIKELA-KHARSAWAN,JHARKHAND,SINGHBHUM,RANCHI,JHARKHAND
Kuchai B.O,Branch Post Office,833216,,Seraikera,SERAIKELA-KHARSAWAN,JHARKHAND,SINGHBHUM,RANCHI,JHARKHAND
Sini S.O,Sub Post Office,833210,,SINI,SERAIKELA-KHARSAWAN,JHARKHAND,SINGHBHUM,RANCHI,JHARKHAND
Banki B.O,Branch Post Office,835201,,BANO,SIMDEGA,JHARKHAND,RANCHI,RANCHI,JHARKHAND
Bano S.O,Sub Post Office,835201,,BANO,SIMDEGA,JHARKHAND,RANCHI,RANCHI,JHARKHAND
Genmer B.O,Branch Post Office,835201,,BANO,SIMDEGA,JHARKHAND,RANCHI,RANCHI,JHARKHAND
Gerda B.O,Branch Post Office,835201,,BANO,SIMDEGA,JHARKHAND,RANCHI,RANCHI,JHARKHAND
Hatinghore B.O,Branch Post Office,835201,,BANO,SIMDEGA,JHARKHAND,RANCHI,RANCHI,JHARKHAND
Hurda B.O,Branch Post Office,835201,,BANO,SIMDEGA,JHARKHAND,RANCHI,RANCHI,JHARKHAND
Jitutoli B.O,Branch Post Office,835201,,BANO,SIMDEGA,JHARKHAND,RANCHI,RANCHI,JHARKHAND
Kulburu B.O,Branch Post Office,835201,,BANO,SIMDEGA,JHARKHAND,RANCHI,RANCHI,JHARKHAND
Kurkura B.O,Branch Post Office,835201,,BANO,SIMDEGA,JHARKHAND,RANCHI,RANCHI,JHARKHAND
Kutunjia B.O,Branch Post Office,835201,,BANO,SIMDEGA,JHARKHAND,RANCHI,RANCHI,JHARKHAND
Lachragarh B.O,Branch Post Office,835201,,BANO,SIMDEGA,JHARKHAND,RANCHI,RANCHI,JHARKHAND
Lamgarh B.O,Branch Post Office,835201,,BANO,SIMDEGA,JHARKHAND,RANCHI,RANCHI,JHARKHAND
Latakel B.O,Branch Post Office,835201,,BANO,SIMDEGA,JHARKHAND,RANCHI,RANCHI,JHARKHAND
Orga B.O,Branch Post Office,835201,,BANO,SIMDEGA,JHARKHAND,RANCHI,RANCHI,JHARKHAND
Raikera B.O,Branch Post Office,835201,,BANO,SIMDEGA,JHARKHAND,RANCHI,RANCHI,JHARKHAND
Sikorda B.O,Branch Post Office,835201,,BANO,SIMDEGA,JHARKHAND,RANCHI,RANCHI,JHARKHAND
Bolba B.O,Branch Post Office,835226,,BOLBA,SIMDEGA,JHARKHAND,RANCHI,RANCHI,JHARKHAND
Barwadih B.O,Branch Post Office,835211,,KOLEBIRA,SIMDEGA,JHARKHAND,RANCHI,RANCHI,JHARKHAND
Boroseta B.O,Branch Post Office,835211,,KOLEBIRA,SIMDEGA,JHARKHAND,RANCHI,RANCHI,JHARKHAND
Itam B.O,Branch Post Office,835211,,KOLEBIRA,SIMDEGA,JHARKHAND,RANCHI,RANCHI,JHARKHAND
Jaldega B.O,Branch Post Office,835211,,KOLEBIRA,SIMDEGA,JHARKHAND,RANCHI,RANCHI,JHARKHAND
Kolebira S.O,Sub Post Office,835211,06527-265427,KOLEBIRA,SIMDEGA,JHARKHAND,RANCHI,RANCHI,JHARKHAND
Konmerla B.O,Branch Post Office,835211,,KOLEBIRA,SIMDEGA,JHARKHAND,RANCHI,RANCHI,JHARKHAND
Rampur B.O,Branch Post Office,835211,,KOLEBIRA,SIMDEGA,JHARKHAND,RANCHI,RANCHI,JHARKHAND
Sahpur B.O,Branch Post Office,835211,,KOLEBIRA,SIMDEGA,JHARKHAND,RANCHI,RANCHI,JHARKHAND
Sukhajharia B.O,Branch Post Office,835211,,KOLEBIRA,SIMDEGA,JHARKHAND,RANCHI,RANCHI,JHARKHAND
Tutikel B.O,Branch Post Office,835211,,KOLEBIRA,SIMDEGA,JHARKHAND,RANCHI,RANCHI,JHARKHAND
Baribringa B.O,Branch Post Office,835211,,KOLIBERA,SIMDEGA,JHARKHAND,RANCHI,RANCHI,JHARKHAND
Lasia B.O,Branch Post Office,835211,,KOLIBERA,SIMDEGA,JHARKHAND,RANCHI,RANCHI,JHARKHAND
Agharma B.O,Branch Post Office,835211,,KOLIBIRA,SIMDEGA,JHARKHAND,RANCHI,RANCHI,JHARKHAND
Bargaon B.O,Branch Post Office,835211,,KOLIBIRA,SIMDEGA,JHARKHAND,RANCHI,RANCHI,JHARKHAND
Barsloya B.O,Branch Post Office,835211,,KOLIBIRA,SIMDEGA,JHARKHAND,RANCHI,RANCHI,JHARKHAND
Bongera B.O,Branch Post Office,835211,,KOLIBIRA,SIMDEGA,JHARKHAND,RANCHI,RANCHI,JHARKHAND
Lombai B.O,Branch Post Office,835211,,KOLIBIRA,SIMDEGA,JHARKHAND,RANCHI,RANCHI,JHARKHAND
Ch. Munda B.O,Branch Post Office,835212,,KURDEG,SIMDEGA,JHARKHAND,RANCHI,RANCHI,JHARKHAND
Dhori B.O,Branch Post Office,835212,,KURDEG,SIMDEGA,JHARKHAND,RANCHI,RANCHI,JHARKHAND
Dumarpath B.O,Branch Post Office,835212,,KURDEG,SIMDEGA,JHARKHAND,RANCHI,RANCHI,JHARKHAND
Gariajore B.O,Branch Post Office,835212,,KURDEG,SIMDEGA,JHARKHAND,RANCHI,RANCHI,JHARKHAND
Gatadih B.O,Branch Post Office,835212,,KURDEG,SIMDEGA,JHARKHAND,RANCHI,RANCHI,JHARKHAND
Khinda B.O,Branch Post Office,835212,,KURDEG,SIMDEGA,JHARKHAND,RANCHI,RANCHI,JHARKHAND
Kurdeg S.O,Sub Post Office,835212,,KURDEG,SIMDEGA,JHARKHAND,RANCHI,RANCHI,JHARKHAND
B.  Biura B.O,Branch Post Office,835212,,SIMDEGA,SIMDEGA,JHARKHAND,RANCHI,RANCHI,JHARKHAND
Bagdega B.O,Branch Post Office,835223,,SIMDEGA,SIMDEGA,JHARKHAND,RANCHI,RANCHI,JHARKHAND
Basain B.O,Branch Post Office,835223,,SIMDEGA,SIMDEGA,JHARKHAND,RANCHI,RANCHI,JHARKHAND
Bhelwadih B.O,Branch Post Office,835228,,SIMDEGA,SIMDEGA,JHARKHAND,RANCHI,RANCHI,JHARKHAND
Biru S.O,Sub Post Office,835228,,SIMDEGA,SIMDEGA,JHARKHAND,RANCHI,RANCHI,JHARKHAND
Bombalkera B.O,Branch Post Office,835223,,SIMDEGA,SIMDEGA,JHARKHAND,RANCHI,RANCHI,JHARKHAND
Deobahar B.O,Branch Post Office,835235,,SIMDEGA,SIMDEGA,JHARKHAND,RANCHI,RANCHI,JHARKHAND
Garja B.O,Branch Post Office,835235,,SIMDEGA,SIMDEGA,JHARKHAND,RANCHI,RANCHI,JHARKHAND
Gorarjora B.O,Branch Post Office,835223,,SIMDEGA,SIMDEGA,JHARKHAND,RANCHI,RANCHI,JHARKHAND
Gotra S.O,Sub Post Office,835235,,SIMDEGA,SIMDEGA,JHARKHAND,RANCHI,RANCHI,JHARKHAND
Gutbahar B.O,Branch Post Office,835223,,SIMDEGA,SIMDEGA,JHARKHAND,RANCHI,RANCHI,JHARKHAND
Hethma B.O,Branch Post Office,835223,,SIMDEGA,SIMDEGA,JHARKHAND,RANCHI,RANCHI,JHARKHAND
Jampani B.O,Branch Post Office,835226,,SIMDEGA,SIMDEGA,JHARKHAND,RANCHI,RANCHI,JHARKHAND
Jokbahar B.O,Branch Post Office,835223,,SIMDEGA,SIMDEGA,JHARKHAND,RANCHI,RANCHI,JHARKHAND
Karramunda B.O,Branch Post Office,835226,,SIMDEGA,SIMDEGA,JHARKHAND,RANCHI,RANCHI,JHARKHAND
Keonddih B.O,Branch Post Office,835228,,SIMDEGA,SIMDEGA,JHARKHAND,RANCHI,RANCHI,JHARKHAND
Kereya B.O,Branch Post Office,835226,,SIMDEGA,SIMDEGA,JHARKHAND,RANCHI,RANCHI,JHARKHAND
Kersai B.O,Branch Post Office,835223,,SIMDEGA,SIMDEGA,JHARKHAND,RANCHI,RANCHI,JHARKHAND
Keshalpur B.O,Branch Post Office,835223,,SIMDEGA,SIMDEGA,JHARKHAND,RANCHI,RANCHI,JHARKHAND
Khuntitoli B.O,Branch Post Office,835223,,SIMDEGA,SIMDEGA,JHARKHAND,RANCHI,RANCHI,JHARKHAND
Kinkel B.O,Branch Post Office,835223,,SIMDEGA,SIMDEGA,JHARKHAND,RANCHI,RANCHI,JHARKHAND
Kjijra B.O,Branch Post Office,835235,,SIMDEGA,SIMDEGA,JHARKHAND,RANCHI,RANCHI,JHARKHAND
Kochedega B.O,Branch Post Office,835223,,SIMDEGA,SIMDEGA,JHARKHAND,RANCHI,RANCHI,JHARKHAND
Kodapani B.O,Branch Post Office,835226,,SIMDEGA,SIMDEGA,JHARKHAND,RANCHI,RANCHI,JHARKHAND
Konaskela B.O,Branch Post Office,835223,,SIMDEGA,SIMDEGA,JHARKHAND,RANCHI,RANCHI,JHARKHAND
Konbegi B.O,Branch Post Office,835235,,SIMDEGA,SIMDEGA,JHARKHAND,RANCHI,RANCHI,JHARKHAND
Konjoba B.O,Branch Post Office,835212,,SIMDEGA,SIMDEGA,JHARKHAND,RANCHI,RANCHI,JHARKHAND
Konpala B.O,Branch Post Office,835235,,SIMDEGA,SIMDEGA,JHARKHAND,RANCHI,RANCHI,JHARKHAND
Kulukera B.O,Branch Post Office,835223,,SIMDEGA,SIMDEGA,JHARKHAND,RANCHI,RANCHI,JHARKHAND
Kundurmunda B.O,Branch Post Office,835226,,SIMDEGA,SIMDEGA,JHARKHAND,RANCHI,RANCHI,JHARKHAND
Kurmia B.O,Branch Post Office,835226,,SIMDEGA,SIMDEGA,JHARKHAND,RANCHI,RANCHI,JHARKHAND
Kuruskela B.O,Branch Post Office,835228,,SIMDEGA,SIMDEGA,JHARKHAND,RANCHI,RANCHI,JHARKHAND
Kutmakochar B.O,Branch Post Office,835212,,SIMDEGA,SIMDEGA,JHARKHAND,RANCHI,RANCHI,JHARKHAND
Lathakhaman B.O,Branch Post Office,835235,,SIMDEGA,SIMDEGA,JHARKHAND,RANCHI,RANCHI,JHARKHAND
Malsera B.O,Branch Post Office,835223,,SIMDEGA,SIMDEGA,JHARKHAND,RANCHI,RANCHI,JHARKHAND
Meromdega B.O,Branch Post Office,835223,,SIMDEGA,SIMDEGA,JHARKHAND,RANCHI,RANCHI,JHARKHAND
Pakardanr B.O,Branch Post Office,835228,,SIMDEGA,SIMDEGA,JHARKHAND,RANCHI,RANCHI,JHARKHAND
Phulwartangar B.O,Branch Post Office,835228,,SIMDEGA,SIMDEGA,JHARKHAND,RANCHI,RANCHI,JHARKHAND
Piriyapoch B.O,Branch Post Office,835226,,SIMDEGA,SIMDEGA,JHARKHAND,RANCHI,RANCHI,JHARKHAND
Pithra B.O,Branch Post Office,835223,,SIMDEGA,SIMDEGA,JHARKHAND,RANCHI,RANCHI,JHARKHAND
Rengari B.O,Branch Post Office,835235,,SIMDEGA,SIMDEGA,JHARKHAND,RANCHI,RANCHI,JHARKHAND
Samsera B.O,Branch Post Office,835226,,SIMDEGA,SIMDEGA,JHARKHAND,RANCHI,RANCHI,JHARKHAND
Sewai B.O,Branch Post Office,835223,,SIMDEGA,SIMDEGA,JHARKHAND,RANCHI,RANCHI,JHARKHAND
Sikariatand B.O,Branch Post Office,835228,,SIMDEGA,SIMDEGA,JHARKHAND,RANCHI,RANCHI,JHARKHAND
Simdega S.O,Sub Post Office,835223,06525-226230,SIMDEGA,SIMDEGA,JHARKHAND,RANCHI,RANCHI,JHARKHAND
Taisera B.O,Branch Post Office,835223,,SIMDEGA,SIMDEGA,JHARKHAND,RANCHI,RANCHI,JHARKHAND
Taisera B.O,Branch Post Office,835212,,SIMDEGA,SIMDEGA,JHARKHAND,RANCHI,RANCHI,JHARKHAND
Tamra B.O,Branch Post Office,835228,,SIMDEGA,SIMDEGA,JHARKHAND,RANCHI,RANCHI,JHARKHAND
Tamra B.O,Branch Post Office,835228,,SIMDEGA,SIMDEGA,JHARKHAND,RANCHI,RANCHI,JHARKHAND
Taraboga B.O,Branch Post Office,835226,,SIMDEGA,SIMDEGA,JHARKHAND,RANCHI,RANCHI,JHARKHAND
Targa B.O,Branch Post Office,835226,,SIMDEGA,SIMDEGA,JHARKHAND,RANCHI,RANCHI,JHARKHAND
Tumdega B.O,Branch Post Office,835223,,SIMDEGA,SIMDEGA,JHARKHAND,RANCHI,RANCHI,JHARKHAND
Tupudega Pandripani B.O,Branch Post Office,835223,,SIMDEGA,SIMDEGA,JHARKHAND,RANCHI,RANCHI,JHARKHAND
Urta B.O,Branch Post Office,835226,,SIMDEGA,SIMDEGA,JHARKHAND,RANCHI,RANCHI,JHARKHAND
Baliajor B.O,Branch Post Office,835226,,THETHAITANGAR,SIMDEGA,JHARKHAND,RANCHI,RANCHI,JHARKHAND
Bansjor B.O,Branch Post Office,835226,,THETHAITANGAR,SIMDEGA,JHARKHAND,RANCHI,RANCHI,JHARKHAND
Behrinbasa B.O,Branch Post Office,835226,,THETHAITANGAR,SIMDEGA,JHARKHAND,RANCHI,RANCHI,JHARKHAND
Thethaitangar S.O,Sub Post Office,835226,,THETHAITANGAR,SIMDEGA,JHARKHAND,RANCHI,RANCHI,JHARKHAND
Chhota Bandi B.O,Branch Post Office,833216,,.,WEST SINGHBHUM,JHARKHAND,SINGHBHUM,RANCHI,JHARKHAND
Khedchalan B.O,Branch Post Office,833201,,.,WEST SINGHBHUM,JHARKHAND,SINGHBHUM,RANCHI,JHARKHAND
Urkia B.O,Branch Post Office,833104,,.,WEST SINGHBHUM,JHARKHAND,SINGHBHUM,RANCHI,JHARKHAND
Bandgaon B.O,Branch Post Office,835216,,BANDGAON,WEST SINGHBHUM,JHARKHAND,RANCHI,RANCHI,JHARKHAND
Hesadih B.O,Branch Post Office,835216,,BANDGAON,WEST SINGHBHUM,JHARKHAND,RANCHI,RANCHI,JHARKHAND
Kochang B.O,Branch Post Office,835216,,BANDGAON,WEST SINGHBHUM,JHARKHAND,RANCHI,RANCHI,JHARKHAND
Leyangi B.O,Branch Post Office,835216,,BANDGAON,WEST SINGHBHUM,JHARKHAND,RANCHI,RANCHI,JHARKHAND
Mahil B.O,Branch Post Office,835216,,BANDGAON,WEST SINGHBHUM,JHARKHAND,RANCHI,RANCHI,JHARKHAND
Pronger B.O,Branch Post Office,835216,,BANDGAON,WEST SINGHBHUM,JHARKHAND,RANCHI,RANCHI,JHARKHAND
Selda B.O,Branch Post Office,835216,,BANDGAON,WEST SINGHBHUM,JHARKHAND,RANCHI,RANCHI,JHARKHAND
Swania B.O,Branch Post Office,835216,,BANDGAON,WEST SINGHBHUM,JHARKHAND,RANCHI,RANCHI,JHARKHAND
Tebo B.O,Branch Post Office,835216,,BANDGAON,WEST SINGHBHUM,JHARKHAND,RANCHI,RANCHI,JHARKHAND
Barajamda S.O,Sub Post Office,833221,06596-262234,BARAJAMDA,WEST SINGHBHUM,JHARKHAND,SINGHBHUM,RANCHI,JHARKHAND
Andhari B.O,Branch Post Office,833214,,Chaibasa,WEST SINGHBHUM,JHARKHAND,SINGHBHUM,RANCHI,JHARKHAND
Asura B.O,Branch Post Office,833201,,Chaibasa,WEST SINGHBHUM,JHARKHAND,SINGHBHUM,RANCHI,JHARKHAND
Bagabilla B.O,Branch Post Office,833201,,Chaibasa,WEST SINGHBHUM,JHARKHAND,SINGHBHUM,RANCHI,JHARKHAND
Balandia B.O,Branch Post Office,833214,,Chaibasa,WEST SINGHBHUM,JHARKHAND,SINGHBHUM,RANCHI,JHARKHAND
Balibandh B.O,Branch Post Office,833214,,Chaibasa,WEST SINGHBHUM,JHARKHAND,SINGHBHUM,RANCHI,JHARKHAND
Barachiru B.O,Branch Post Office,833201,,Chaibasa,WEST SINGHBHUM,JHARKHAND,SINGHBHUM,RANCHI,JHARKHAND
Baraiburu B.O,Branch Post Office,833221,,Chaibasa,WEST SINGHBHUM,JHARKHAND,SINGHBHUM,RANCHI,JHARKHAND
Barajamni B.O,Branch Post Office,833214,,Chaibasa,WEST SINGHBHUM,JHARKHAND,SINGHBHUM,RANCHI,JHARKHAND
Barajhinkpani B.O,Branch Post Office,833215,,Chaibasa,WEST SINGHBHUM,JHARKHAND,SINGHBHUM,RANCHI,JHARKHAND
Baralagia B.O,Branch Post Office,833201,,Chaibasa,WEST SINGHBHUM,JHARKHAND,SINGHBHUM,RANCHI,JHARKHAND
Baralagra B.O,Branch Post Office,833201,,Chaibasa,WEST SINGHBHUM,JHARKHAND,SINGHBHUM,RANCHI,JHARKHAND
Bari Bazar S.O,Sub Post Office,833201,,CHAIBASA,WEST SINGHBHUM,JHARKHAND,SINGHBHUM,RANCHI,JHARKHAND
Barkella B.O,Branch Post Office,833201,,Chaibasa,WEST SINGHBHUM,JHARKHAND,SINGHBHUM,RANCHI,JHARKHAND
Barkundia B.O,Branch Post Office,833201,,Chaibasa,WEST SINGHBHUM,JHARKHAND,SINGHBHUM,RANCHI,JHARKHAND
Benisagar B.O,Branch Post Office,833214,,Chaibasa,WEST SINGHBHUM,JHARKHAND,SINGHBHUM,RANCHI,JHARKHAND
Bensakaranjia B.O,Branch Post Office,833214,,Chaibasa,WEST SINGHBHUM,JHARKHAND,SINGHBHUM,RANCHI,JHARKHAND
Bharbaria B.O,Branch Post Office,833201,,Chaibasa,WEST SINGHBHUM,JHARKHAND,SINGHBHUM,RANCHI,JHARKHAND
Bharbharia B.O,Branch Post Office,833201,,Chaibasa,WEST SINGHBHUM,JHARKHAND,SINGHBHUM,RANCHI,JHARKHAND
Bhoya B.O,Branch Post Office,833201,,Chaibasa,WEST SINGHBHUM,JHARKHAND,SINGHBHUM,RANCHI,JHARKHAND
Chaibasa H.O,Head Post Office,833201,06582-256346,Chaibasa,WEST SINGHBHUM,JHARKHAND,SINGHBHUM,RANCHI,JHARKHAND
Chittimitti B.O,Branch Post Office,833201,,Chaibasa,WEST SINGHBHUM,JHARKHAND,SINGHBHUM,RANCHI,JHARKHAND
D.S.E Chaibasa S.O,Sub Post Office,833201,,CHAIBASA,WEST SINGHBHUM,JHARKHAND,SINGHBHUM,RANCHI,JHARKHAND
Dalki B.O,Branch Post Office,833215,,Chaibasa,WEST SINGHBHUM,JHARKHAND,SINGHBHUM,RANCHI,JHARKHAND
Dhobadhobin B.O,Branch Post Office,833214,,Chaibasa,WEST SINGHBHUM,JHARKHAND,SINGHBHUM,RANCHI,JHARKHAND
Dholadih B.O,Branch Post Office,833201,,Chaibasa,WEST SINGHBHUM,JHARKHAND,SINGHBHUM,RANCHI,JHARKHAND
Dumuria B.O,Branch Post Office,833214,,Chaibasa,WEST SINGHBHUM,JHARKHAND,SINGHBHUM,RANCHI,JHARKHAND
Ghagri B.O,Branch Post Office,833201,,Chaibasa,WEST SINGHBHUM,JHARKHAND,SINGHBHUM,RANCHI,JHARKHAND
Gitilipi B.O,Branch Post Office,833201,,Chaibasa,WEST SINGHBHUM,JHARKHAND,SINGHBHUM,RANCHI,JHARKHAND
Guira B.O,Branch Post Office,833201,,Chaibasa,WEST SINGHBHUM,JHARKHAND,SINGHBHUM,RANCHI,JHARKHAND
Gulia B.O,Branch Post Office,833201,,Chaibasa,WEST SINGHBHUM,JHARKHAND,SINGHBHUM,RANCHI,JHARKHAND
Icha B.O,Branch Post Office,833201,,Chaibasa,WEST SINGHBHUM,JHARKHAND,SINGHBHUM,RANCHI,JHARKHAND
Jaintgarh B.O,Branch Post Office,833214,,Chaibasa,WEST SINGHBHUM,JHARKHAND,SINGHBHUM,RANCHI,JHARKHAND
Jhalak B.O,Branch Post Office,833201,,Chaibasa,WEST SINGHBHUM,JHARKHAND,SINGHBHUM,RANCHI,JHARKHAND
Jojo Camp B.O,Branch Post Office,833217,,Chaibasa,WEST SINGHBHUM,JHARKHAND,SINGHBHUM,RANCHI,JHARKHAND
Karanjia B.O,Branch Post Office,833214,,Chaibasa,WEST SINGHBHUM,JHARKHAND,SINGHBHUM,RANCHI,JHARKHAND
Kathbari B.O,Branch Post Office,833201,,Chaibasa,WEST SINGHBHUM,JHARKHAND,SINGHBHUM,RANCHI,JHARKHAND
Keshargaria B.O,Branch Post Office,833201,,Chaibasa,WEST SINGHBHUM,JHARKHAND,SINGHBHUM,RANCHI,JHARKHAND
Khairbandh B.O,Branch Post Office,833214,,Chaibasa,WEST SINGHBHUM,JHARKHAND,SINGHBHUM,RANCHI,JHARKHAND
Khairpal B.O,Branch Post Office,833214,,Chaibasa,WEST SINGHBHUM,JHARKHAND,SINGHBHUM,RANCHI,JHARKHAND
Kheriatangar B.O,Branch Post Office,833201,,Chaibasa,WEST SINGHBHUM,JHARKHAND,SINGHBHUM,RANCHI,JHARKHAND
Khuntpani B.O,Branch Post Office,833201,,Chaibasa,WEST SINGHBHUM,JHARKHAND,SINGHBHUM,RANCHI,JHARKHAND
Khurpose B.O,Branch Post Office,833214,,Chaibasa,WEST SINGHBHUM,JHARKHAND,SINGHBHUM,RANCHI,JHARKHAND
Kokcho B.O,Branch Post Office,833201,,Chaibasa,WEST SINGHBHUM,JHARKHAND,SINGHBHUM,RANCHI,JHARKHAND
Kumardungi B.O,Branch Post Office,833214,,Chaibasa,WEST SINGHBHUM,JHARKHAND,SINGHBHUM,RANCHI,JHARKHAND
Kundidhar B.O,Branch Post Office,833214,,Chaibasa,WEST SINGHBHUM,JHARKHAND,SINGHBHUM,RANCHI,JHARKHAND
Majhgaon B.O,Branch Post Office,833214,,Chaibasa,WEST SINGHBHUM,JHARKHAND,SINGHBHUM,RANCHI,JHARKHAND
N.Ashram B.O,Branch Post Office,833214,,Chaibasa,WEST SINGHBHUM,JHARKHAND,SINGHBHUM,RANCHI,JHARKHAND
Nakahasa B.O,Branch Post Office,833201,,Chaibasa,WEST SINGHBHUM,JHARKHAND,SINGHBHUM,RANCHI,JHARKHAND
Naogaon B.O,Branch Post Office,833215,,Chaibasa,WEST SINGHBHUM,JHARKHAND,SINGHBHUM,RANCHI,JHARKHAND
Narsanda B.O,Branch Post Office,833201,,Chaibasa,WEST SINGHBHUM,JHARKHAND,SINGHBHUM,RANCHI,JHARKHAND
Pandrasali B.O,Branch Post Office,833201,,Chaibasa,WEST SINGHBHUM,JHARKHAND,SINGHBHUM,RANCHI,JHARKHAND
Parsagar Keshna B.O,Branch Post Office,833214,,Chaibasa,WEST SINGHBHUM,JHARKHAND,SINGHBHUM,RANCHI,JHARKHAND
Pilka B.O,Branch Post Office,833201,,Chaibasa,WEST SINGHBHUM,JHARKHAND,SINGHBHUM,RANCHI,JHARKHAND
Punga B.O,Branch Post Office,833214,,Chaibasa,WEST SINGHBHUM,JHARKHAND,SINGHBHUM,RANCHI,JHARKHAND
Purnapani B.O,Branch Post Office,833215,,Chaibasa,WEST SINGHBHUM,JHARKHAND,SINGHBHUM,RANCHI,JHARKHAND
Purnapani B.O,Branch Post Office,833215,,Chaibasa,WEST SINGHBHUM,JHARKHAND,SINGHBHUM,RANCHI,JHARKHAND
Purunia B.O,Branch Post Office,833201,,Chaibasa,WEST SINGHBHUM,JHARKHAND,SINGHBHUM,RANCHI,JHARKHAND
Roro B.O,Branch Post Office,833201,,Chaibasa,WEST SINGHBHUM,JHARKHAND,SINGHBHUM,RANCHI,JHARKHAND
Runia B.O,Branch Post Office,833214,,Chaibasa,WEST SINGHBHUM,JHARKHAND,SINGHBHUM,RANCHI,JHARKHAND
Sarda B.O,Branch Post Office,833201,,Chaibasa,WEST SINGHBHUM,JHARKHAND,SINGHBHUM,RANCHI,JHARKHAND
Sindri Guiya B.O,Branch Post Office,833214,,Chaibasa,WEST SINGHBHUM,JHARKHAND,SINGHBHUM,RANCHI,JHARKHAND
Sindriguia B.O,Branch Post Office,833214,,Chaibasa,WEST SINGHBHUM,JHARKHAND,SINGHBHUM,RANCHI,JHARKHAND
Singhpokharia B.O,Branch Post Office,833201,,Chaibasa,WEST SINGHBHUM,JHARKHAND,SINGHBHUM,RANCHI,JHARKHAND
Siyaljora B.O,Branch Post Office,833214,,Chaibasa,WEST SINGHBHUM,JHARKHAND,SINGHBHUM,RANCHI,JHARKHAND
Sringgesia B.O,Branch Post Office,833215,,Chaibasa,WEST SINGHBHUM,JHARKHAND,SINGHBHUM,RANCHI,JHARKHAND
Surjabasa B.O,Branch Post Office,833215,,Chaibasa,WEST SINGHBHUM,JHARKHAND,SINGHBHUM,RANCHI,JHARKHAND
T.B.Dumuria B.O,Branch Post Office,833214,,Chaibasa,WEST SINGHBHUM,JHARKHAND,SINGHBHUM,RANCHI,JHARKHAND
Tantnagar B.O,Branch Post Office,833201,,Chaibasa,WEST SINGHBHUM,JHARKHAND,SINGHBHUM,RANCHI,JHARKHAND
Tata College Chaibasa S.O,Sub Post Office,833201,,CHAIBASA,WEST SINGHBHUM,JHARKHAND,SINGHBHUM,RANCHI,JHARKHAND
Tonto B.O,Branch Post Office,833215,,Chaibasa,WEST SINGHBHUM,JHARKHAND,SINGHBHUM,RANCHI,JHARKHAND
Tonto B.O,Branch Post Office,833201,,Chaibasa,WEST SINGHBHUM,JHARKHAND,SINGHBHUM,RANCHI,JHARKHAND
Baikera B.O,Branch Post Office,833104,,Chakradharpur,WEST SINGHBHUM,JHARKHAND,SINGHBHUM,RANCHI,JHARKHAND
Baipee B.O,Branch Post Office,833102,,Chakradharpur,WEST SINGHBHUM,JHARKHAND,SINGHBHUM,RANCHI,JHARKHAND
Barabamboo B.O,Branch Post Office,833102,,Chakradharpur,WEST SINGHBHUM,JHARKHAND,SINGHBHUM,RANCHI,JHARKHAND
Barposh B.O,Branch Post Office,833104,,Chakradharpur,WEST SINGHBHUM,JHARKHAND,SINGHBHUM,RANCHI,JHARKHAND
Bhalupani B.O,Branch Post Office,833102,,Chakradharpur,WEST SINGHBHUM,JHARKHAND,SINGHBHUM,RANCHI,JHARKHAND
Chainpur Khas B.O,Branch Post Office,833102,,Chakradharpur,WEST SINGHBHUM,JHARKHAND,SINGHBHUM,RANCHI,JHARKHAND
Chirubera B.O,Branch Post Office,833102,,Chakradharpur,WEST SINGHBHUM,JHARKHAND,SINGHBHUM,RANCHI,JHARKHAND
Dumrita B.O,Branch Post Office,833104,,Chakradharpur,WEST SINGHBHUM,JHARKHAND,SINGHBHUM,RANCHI,JHARKHAND
Gopinathpur B.O,Branch Post Office,833102,,Chakradharpur,WEST SINGHBHUM,JHARKHAND,SINGHBHUM,RANCHI,JHARKHAND
Hathia B.O,Branch Post Office,833102,,Chakradharpur,WEST SINGHBHUM,JHARKHAND,SINGHBHUM,RANCHI,JHARKHAND
Hesalkuti B.O,Branch Post Office,833102,,Chakradharpur,WEST SINGHBHUM,JHARKHAND,SINGHBHUM,RANCHI,JHARKHAND
Jamid B.O,Branch Post Office,833102,,Chakradharpur,WEST SINGHBHUM,JHARKHAND,SINGHBHUM,RANCHI,JHARKHAND
Jharjharia B.O,Branch Post Office,833102,,Chakradharpur,WEST SINGHBHUM,JHARKHAND,SINGHBHUM,RANCHI,JHARKHAND
Kera B.O,Branch Post Office,833102,,Chakradharpur,WEST SINGHBHUM,JHARKHAND,SINGHBHUM,RANCHI,JHARKHAND
Keraikela B.O,Branch Post Office,833102,,Chakradharpur,WEST SINGHBHUM,JHARKHAND,SINGHBHUM,RANCHI,JHARKHAND
Kuira B.O,Branch Post Office,833105,,Chakradharpur,WEST SINGHBHUM,JHARKHAND,SINGHBHUM,RANCHI,JHARKHAND
Lotapahar B.O,Branch Post Office,833102,,Chakradharpur,WEST SINGHBHUM,JHARKHAND,SINGHBHUM,RANCHI,JHARKHAND
Mahulpani B.O,Branch Post Office,833102,,Chakradharpur,WEST SINGHBHUM,JHARKHAND,SINGHBHUM,RANCHI,JHARKHAND
Nakti B.O,Branch Post Office,833102,,Chakradharpur,WEST SINGHBHUM,JHARKHAND,SINGHBHUM,RANCHI,JHARKHAND
Otar B.O,Branch Post Office,833102,,Chakradharpur,WEST SINGHBHUM,JHARKHAND,SINGHBHUM,RANCHI,JHARKHAND
Patherbasa B.O,Branch Post Office,833104,,Chakradharpur,WEST SINGHBHUM,JHARKHAND,SINGHBHUM,RANCHI,JHARKHAND
Posiata B.O,Branch Post Office,833104,,Chakradharpur,WEST SINGHBHUM,JHARKHAND,SINGHBHUM,RANCHI,JHARKHAND
Rajanand Pur B.O,Branch Post Office,833104,,Chakradharpur,WEST SINGHBHUM,JHARKHAND,SINGHBHUM,RANCHI,JHARKHAND
Robkera B.O,Branch Post Office,833104,,Chakradharpur,WEST SINGHBHUM,JHARKHAND,SINGHBHUM,RANCHI,JHARKHAND
Roladih B.O,Branch Post Office,833102,,Chakradharpur,WEST SINGHBHUM,JHARKHAND,SINGHBHUM,RANCHI,JHARKHAND
Sarjamhatu B.O,Branch Post Office,833102,,Chakradharpur,WEST SINGHBHUM,JHARKHAND,SINGHBHUM,RANCHI,JHARKHAND
Toklo B.O,Branch Post Office,833102,,Chakradharpur,WEST SINGHBHUM,JHARKHAND,SINGHBHUM,RANCHI,JHARKHAND
Unchibita B.O,Branch Post Office,833102,,Chakradharpur,WEST SINGHBHUM,JHARKHAND,SINGHBHUM,RANCHI,JHARKHAND
Lonjo B.O,Branch Post Office,833105,,Chakrdharpur,WEST SINGHBHUM,JHARKHAND,SINGHBHUM,RANCHI,JHARKHAND
Chiria S.O,Sub Post Office,833106,,CHIRIA,WEST SINGHBHUM,JHARKHAND,SINGHBHUM,RANCHI,JHARKHAND
Danguaposi S.O,Sub Post Office,833212,,DANGUAPOSI,WEST SINGHBHUM,JHARKHAND,SINGHBHUM,RANCHI,JHARKHAND
Bari B.O,Branch Post Office,833103,,Goilkera,WEST SINGHBHUM,JHARKHAND,SINGHBHUM,RANCHI,JHARKHAND
Goilkera S.O,Sub Post Office,833103,,GOILKERA,WEST SINGHBHUM,JHARKHAND,SINGHBHUM,RANCHI,JHARKHAND
Kairam B.O,Branch Post Office,833103,,Goilkera,WEST SINGHBHUM,JHARKHAND,SINGHBHUM,RANCHI,JHARKHAND
Tuniagajpur B.O,Branch Post Office,833103,,Goilkera,WEST SINGHBHUM,JHARKHAND,SINGHBHUM,RANCHI,JHARKHAND
Gua S.O,Sub Post Office,833213,,GUA,WEST SINGHBHUM,JHARKHAND,SINGHBHUM,RANCHI,JHARKHAND
Hatgamaria S.O,Sub Post Office,833214,,HATGAMARIA,WEST SINGHBHUM,JHARKHAND,SINGHBHUM,RANCHI,JHARKHAND
Jagannathpur S.O,Sub Post Office,833203,,JAGANNATHPUR,WEST SINGHBHUM,JHARKHAND,SINGHBHUM,RANCHI,JHARKHAND
Jamdih B.O,Branch Post Office,833203,,Jagannathpur,WEST SINGHBHUM,JHARKHAND,SINGHBHUM,RANCHI,JHARKHAND
Maluka B.O,Branch Post Office,833203,,Jagannathpur,WEST SINGHBHUM,JHARKHAND,SINGHBHUM,RANCHI,JHARKHAND
Kochra B.O,Branch Post Office,833203,,Jagganathpur,WEST SINGHBHUM,JHARKHAND,SINGHBHUM,RANCHI,JHARKHAND
Jhinkpani S.O,Sub Post Office,833215,,JHINKPANI,WEST SINGHBHUM,JHARKHAND,SINGHBHUM,RANCHI,JHARKHAND
Kiriburu Base Camp S.O,Sub Post Office,833222,,KIRIBURU,WEST SINGHBHUM,JHARKHAND,SINGHBHUM,RANCHI,JHARKHAND
Chotanagra B.O,Branch Post Office,833106,,Manoharpur,WEST SINGHBHUM,JHARKHAND,SINGHBHUM,RANCHI,JHARKHAND
Manoharpur S.O,Sub Post Office,833104,,MANOHARPUR,WEST SINGHBHUM,JHARKHAND,SINGHBHUM,RANCHI,JHARKHAND
Salai B.O,Branch Post Office,833106,,Manoharpur,WEST SINGHBHUM,JHARKHAND,SINGHBHUM,RANCHI,JHARKHAND
Meghahatuburu S.O,Sub Post Office,833223,,MEGAHATUBURU,WEST SINGHBHUM,JHARKHAND,SINGHBHUM,RANCHI,JHARKHAND
Joteya B.O,Branch Post Office,833218,,Noamundi,WEST SINGHBHUM,JHARKHAND,SINGHBHUM,RANCHI,JHARKHAND
Kotgarh B.O,Branch Post Office,833218,,Noamundi,WEST SINGHBHUM,JHARKHAND,SINGHBHUM,RANCHI,JHARKHAND
Noamundi Bazar S.O,Sub Post Office,833218,,NOAMUNDI,WEST SINGHBHUM,JHARKHAND,SINGHBHUM,RANCHI,JHARKHAND
Noamundi S.O,Sub Post Office,833217,,NOAMUNDI,WEST SINGHBHUM,JHARKHAND,SINGHBHUM,RANCHI,JHARKHAND
Rajnagar S.O,Sub Post Office,832113,,RAJNAGAR,WEST SINGHBHUM,JHARKHAND,SINGHBHUM,RANCHI,JHARKHAND
Sonua S.O,Sub Post Office,833105,,SONUA,WEST SINGHBHUM,JHARKHAND,SINGHBHUM,RANCHI,JHARKHAND
Galudih B.O,Branch Post Office,833101,,West Singhbhum,WEST SINGHBHUM,JHARKHAND,SINGHBHUM,RANCHI,JHARKHAND
Gopidih B.O,Branch Post Office,833101,,West Singhbhum,WEST SINGHBHUM,JHARKHAND,SINGHBHUM,RANCHI,JHARKHAND
Jojokurma B.O,Branch Post Office,833102,,West Singhbhum,WEST SINGHBHUM,JHARKHAND,SINGHBHUM,RANCHI,JHARKHAND
Padampur B.O,Branch Post Office,833101,,West Singhbhum,WEST SINGHBHUM,JHARKHAND,SINGHBHUM,RANCHI,JHARKHAND
