OFFICE NAME,OFFICE STATUS,PINCODE,TELEPHONE NO.,TALUK,DISTRICT,STATE/U.T.,POSTAL DIVISION,POSTAL REGION,POSTAL CIRCLE
                                                                                                            ,,                                          (THE INFORMATION IS SORTED DISTRICT AND TALUK WISE),,,,,,,
,,,,,,,,,
Awangjiri B.O,Branch Post Office,795134,,nil,BISHNUPUR,MANIPUR,MANIPUR,NORTH EASTERN,NORTH EASTERN
Bishnupur S.O,Sub Post Office,795126,,Nil,BISHNUPUR,MANIPUR,MANIPUR,NORTH EASTERN,NORTH EASTERN
Boroyangbi B.O,Branch Post Office,795133,,nil,BISHNUPUR,MANIPUR,MANIPUR,NORTH EASTERN,NORTH EASTERN
Bunglon B.O,Branch Post Office,795133,,nil,BISHNUPUR,MANIPUR,MANIPUR,NORTH EASTERN,NORTH EASTERN
Bungte Chiru B.O,Branch Post Office,795134,,nil,BISHNUPUR,MANIPUR,MANIPUR,NORTH EASTERN,NORTH EASTERN
Charoi Khullel B.O,Branch Post Office,795124,,nil,BISHNUPUR,MANIPUR,MANIPUR,NORTH EASTERN,NORTH EASTERN
Dolang B.O,Branch Post Office,795118,,Nil,BISHNUPUR,MANIPUR,MANIPUR,NORTH EASTERN,NORTH EASTERN
Dolang B.O,Branch Post Office,795126,,nil,BISHNUPUR,MANIPUR,MANIPUR,NORTH EASTERN,NORTH EASTERN
Dolang Khunou B.O,Branch Post Office,795126,,Nil,BISHNUPUR,MANIPUR,MANIPUR,NORTH EASTERN,NORTH EASTERN
Dopkon B.O,Branch Post Office,795133,,nil,BISHNUPUR,MANIPUR,MANIPUR,NORTH EASTERN,NORTH EASTERN
Ethai Bazar B.O,Branch Post Office,795133,,nil,BISHNUPUR,MANIPUR,MANIPUR,NORTH EASTERN,NORTH EASTERN
Gelmol B.O,Branch Post Office,795133,,nil,BISHNUPUR,MANIPUR,MANIPUR,NORTH EASTERN,NORTH EASTERN
Haotak Khullen B.O,Branch Post Office,795126,,nil,BISHNUPUR,MANIPUR,MANIPUR,NORTH EASTERN,NORTH EASTERN
Haotakphailen B.O,Branch Post Office,795133,,nil,BISHNUPUR,MANIPUR,MANIPUR,NORTH EASTERN,NORTH EASTERN
Heikrujam B.O,Branch Post Office,795134,,nil,BISHNUPUR,MANIPUR,MANIPUR,NORTH EASTERN,NORTH EASTERN
Irengbam B.O,Branch Post Office,795134,,nil,BISHNUPUR,MANIPUR,MANIPUR,NORTH EASTERN,NORTH EASTERN
Isok B.O,Branch Post Office,795134,,nil,BISHNUPUR,MANIPUR,MANIPUR,NORTH EASTERN,NORTH EASTERN
Jiban Nager B.O,Branch Post Office,795124,,nil,BISHNUPUR,MANIPUR,MANIPUR,NORTH EASTERN,NORTH EASTERN
Kabowakching B.O,Branch Post Office,795134,,nil,BISHNUPUR,MANIPUR,MANIPUR,NORTH EASTERN,NORTH EASTERN
Kamong B.O,Branch Post Office,795134,,nil,BISHNUPUR,MANIPUR,MANIPUR,NORTH EASTERN,NORTH EASTERN
Kangathei B.O,Branch Post Office,795133,,nil,BISHNUPUR,MANIPUR,MANIPUR,NORTH EASTERN,NORTH EASTERN
Keinou B.O,Branch Post Office,795134,,nil,BISHNUPUR,MANIPUR,MANIPUR,NORTH EASTERN,NORTH EASTERN
Khabi B.O,Branch Post Office,795134,,nil,BISHNUPUR,MANIPUR,MANIPUR,NORTH EASTERN,NORTH EASTERN
Khathinunggei B.O,Branch Post Office,795133,,nil,BISHNUPUR,MANIPUR,MANIPUR,NORTH EASTERN,NORTH EASTERN
Khoijuman B.O,Branch Post Office,795126,,nil,BISHNUPUR,MANIPUR,MANIPUR,NORTH EASTERN,NORTH EASTERN
Khoirentak B.O,Branch Post Office,795133,,nil,BISHNUPUR,MANIPUR,MANIPUR,NORTH EASTERN,NORTH EASTERN
Khongbung B.O,Branch Post Office,795126,,nil,BISHNUPUR,MANIPUR,MANIPUR,NORTH EASTERN,NORTH EASTERN
Khordak Ichin B.O,Branch Post Office,795133,,nil,BISHNUPUR,MANIPUR,MANIPUR,NORTH EASTERN,NORTH EASTERN
Khousabung B.O,Branch Post Office,795133,,nil,BISHNUPUR,MANIPUR,MANIPUR,NORTH EASTERN,NORTH EASTERN
Khunpi Naosem B.O,Branch Post Office,795126,,nil,BISHNUPUR,MANIPUR,MANIPUR,NORTH EASTERN,NORTH EASTERN
Kumbi (P) B.O,Branch Post Office,795133,,nil,BISHNUPUR,MANIPUR,MANIPUR,NORTH EASTERN,NORTH EASTERN
Kwakta B.O,Branch Post Office,795133,,nil,BISHNUPUR,MANIPUR,MANIPUR,NORTH EASTERN,NORTH EASTERN
Lamdangmei B.O,Branch Post Office,795126,,nil,BISHNUPUR,MANIPUR,MANIPUR,NORTH EASTERN,NORTH EASTERN
Langpok B.O,Branch Post Office,795134,,nil,BISHNUPUR,MANIPUR,MANIPUR,NORTH EASTERN,NORTH EASTERN
Leimapokpam B.O,Branch Post Office,795134,,nil,BISHNUPUR,MANIPUR,MANIPUR,NORTH EASTERN,NORTH EASTERN
Leimatak B.O,Branch Post Office,795124,,nil,BISHNUPUR,MANIPUR,MANIPUR,NORTH EASTERN,NORTH EASTERN
Leimram B.O,Branch Post Office,795134,,nil,BISHNUPUR,MANIPUR,MANIPUR,NORTH EASTERN,NORTH EASTERN
Loktak Project S.O,Sub Post Office,795124,,Nil,BISHNUPUR,MANIPUR,MANIPUR,NORTH EASTERN,NORTH EASTERN
Maibam B.O,Branch Post Office,795134,,nil,BISHNUPUR,MANIPUR,MANIPUR,NORTH EASTERN,NORTH EASTERN
Manamayang B.O,Branch Post Office,795134,,nil,BISHNUPUR,MANIPUR,MANIPUR,NORTH EASTERN,NORTH EASTERN
Mayuran B.O,Branch Post Office,795124,,nil,BISHNUPUR,MANIPUR,MANIPUR,NORTH EASTERN,NORTH EASTERN
Moirang S.O,Sub Post Office,795133,,Nil,BISHNUPUR,MANIPUR,MANIPUR,NORTH EASTERN,NORTH EASTERN
Molphei Tampak B.O,Branch Post Office,795133,,nil,BISHNUPUR,MANIPUR,MANIPUR,NORTH EASTERN,NORTH EASTERN
Nabil (P) B.O,Branch Post Office,795133,,nil,BISHNUPUR,MANIPUR,MANIPUR,NORTH EASTERN,NORTH EASTERN
Nambol S.O,Sub Post Office,795134,,Nil,BISHNUPUR,MANIPUR,MANIPUR,NORTH EASTERN,NORTH EASTERN
Naorem B.O,Branch Post Office,795134,,nil,BISHNUPUR,MANIPUR,MANIPUR,NORTH EASTERN,NORTH EASTERN
Naransena B.O,Branch Post Office,795133,,nil,BISHNUPUR,MANIPUR,MANIPUR,NORTH EASTERN,NORTH EASTERN
Ngaikhong Khullen B.O,Branch Post Office,795126,,nil,BISHNUPUR,MANIPUR,MANIPUR,NORTH EASTERN,NORTH EASTERN
Ngangkha Lawi B.O,Branch Post Office,795133,,nil,BISHNUPUR,MANIPUR,MANIPUR,NORTH EASTERN,NORTH EASTERN
Ngarian B.O,Branch Post Office,795126,,nil,BISHNUPUR,MANIPUR,MANIPUR,NORTH EASTERN,NORTH EASTERN
Ningthoukhong B.O,Branch Post Office,795126,,nil,BISHNUPUR,MANIPUR,MANIPUR,NORTH EASTERN,NORTH EASTERN
Nungsai Chiru B.O,Branch Post Office,795126,,nil,BISHNUPUR,MANIPUR,MANIPUR,NORTH EASTERN,NORTH EASTERN
Nungthangtampak B.O,Branch Post Office,795133,,nil,BISHNUPUR,MANIPUR,MANIPUR,NORTH EASTERN,NORTH EASTERN
Oinam B.O,Branch Post Office,795134,,nil,BISHNUPUR,MANIPUR,MANIPUR,NORTH EASTERN,NORTH EASTERN
Phousabung B.O,Branch Post Office,795133,,nil,BISHNUPUR,MANIPUR,MANIPUR,NORTH EASTERN,NORTH EASTERN
Phubala B.O,Branch Post Office,795126,,nil,BISHNUPUR,MANIPUR,MANIPUR,NORTH EASTERN,NORTH EASTERN
Potsangbam B.O,Branch Post Office,795126,,nil,BISHNUPUR,MANIPUR,MANIPUR,NORTH EASTERN,NORTH EASTERN
Pukhrambam B.O,Branch Post Office,795134,,nil,BISHNUPUR,MANIPUR,MANIPUR,NORTH EASTERN,NORTH EASTERN
Sadukhoiroi B.O,Branch Post Office,795124,,nil,BISHNUPUR,MANIPUR,MANIPUR,NORTH EASTERN,NORTH EASTERN
Sagang B.O,Branch Post Office,795133,,nil,BISHNUPUR,MANIPUR,MANIPUR,NORTH EASTERN,NORTH EASTERN
Saiton B.O,Branch Post Office,795133,,nil,BISHNUPUR,MANIPUR,MANIPUR,NORTH EASTERN,NORTH EASTERN
Terakhongshangbi B.O,Branch Post Office,795133,,nil,BISHNUPUR,MANIPUR,MANIPUR,NORTH EASTERN,NORTH EASTERN
Thanga Karang B.O,Branch Post Office,795133,,nil,BISHNUPUR,MANIPUR,MANIPUR,NORTH EASTERN,NORTH EASTERN
Thanga(P) B.O,Branch Post Office,795133,,nil,BISHNUPUR,MANIPUR,MANIPUR,NORTH EASTERN,NORTH EASTERN
Thangal B.O,Branch Post Office,795126,,nil,BISHNUPUR,MANIPUR,MANIPUR,NORTH EASTERN,NORTH EASTERN
Tharoi Bomdiar B.O,Branch Post Office,795134,,nil,BISHNUPUR,MANIPUR,MANIPUR,NORTH EASTERN,NORTH EASTERN
Thinkai Khullen B.O,Branch Post Office,795134,,nil,BISHNUPUR,MANIPUR,MANIPUR,NORTH EASTERN,NORTH EASTERN
Thinungei B.O,Branch Post Office,795126,,nil,BISHNUPUR,MANIPUR,MANIPUR,NORTH EASTERN,NORTH EASTERN
Thumkhonglok B.O,Branch Post Office,795133,,nil,BISHNUPUR,MANIPUR,MANIPUR,NORTH EASTERN,NORTH EASTERN
Tokpalamdan B.O,Branch Post Office,795124,,nil,BISHNUPUR,MANIPUR,MANIPUR,NORTH EASTERN,NORTH EASTERN
Torbung B.O,Branch Post Office,795133,,nil,BISHNUPUR,MANIPUR,MANIPUR,NORTH EASTERN,NORTH EASTERN
Toubul B.O,Branch Post Office,795126,,nil,BISHNUPUR,MANIPUR,MANIPUR,NORTH EASTERN,NORTH EASTERN
Tronglaobi B.O,Branch Post Office,795133,,nil,BISHNUPUR,MANIPUR,MANIPUR,NORTH EASTERN,NORTH EASTERN
Tuisangthei B.O,Branch Post Office,795133,,nil,BISHNUPUR,MANIPUR,MANIPUR,NORTH EASTERN,NORTH EASTERN
Utlou B.O,Branch Post Office,795134,,nil,BISHNUPUR,MANIPUR,MANIPUR,NORTH EASTERN,NORTH EASTERN
Wangoo B.O,Branch Post Office,795133,,nil,BISHNUPUR,MANIPUR,MANIPUR,NORTH EASTERN,NORTH EASTERN
Wangoo Tera B.O,Branch Post Office,795133,,nil,BISHNUPUR,MANIPUR,MANIPUR,NORTH EASTERN,NORTH EASTERN
Zouzangtek B.O,Branch Post Office,795126,,nil,BISHNUPUR,MANIPUR,MANIPUR,NORTH EASTERN,NORTH EASTERN
Aigejang B.O,Branch Post Office,795102,,nil,CHANDEL,MANIPUR,MANIPUR,NORTH EASTERN,NORTH EASTERN
Anal Khullen B.O,Branch Post Office,795102,,nil,CHANDEL,MANIPUR,MANIPUR,NORTH EASTERN,NORTH EASTERN
Bongajang B.O,Branch Post Office,795131,,nil,CHANDEL,MANIPUR,MANIPUR,NORTH EASTERN,NORTH EASTERN
Bongjoi B.O,Branch Post Office,795131,,nil,CHANDEL,MANIPUR,MANIPUR,NORTH EASTERN,NORTH EASTERN
Chakpikarong S.O,Sub Post Office,795102,,Nil,CHANDEL,MANIPUR,MANIPUR,NORTH EASTERN,NORTH EASTERN
Chandel S.O,Sub Post Office,795127,,Nil,CHANDEL,MANIPUR,MANIPUR,NORTH EASTERN,NORTH EASTERN
Chenpal B.O,Branch Post Office,795131,,nil,CHANDEL,MANIPUR,MANIPUR,NORTH EASTERN,NORTH EASTERN
Duthang B.O,Branch Post Office,795127,,Nil,CHANDEL,MANIPUR,MANIPUR,NORTH EASTERN,NORTH EASTERN
Gamphajal B.O,Branch Post Office,795131,,nil,CHANDEL,MANIPUR,MANIPUR,NORTH EASTERN,NORTH EASTERN
Gobok B.O,Branch Post Office,795102,,nil,CHANDEL,MANIPUR,MANIPUR,NORTH EASTERN,NORTH EASTERN
Khengjoi B.O,Branch Post Office,795102,,nil,CHANDEL,MANIPUR,MANIPUR,NORTH EASTERN,NORTH EASTERN
Khubungh Khullen B.O,Branch Post Office,795102,,nil,CHANDEL,MANIPUR,MANIPUR,NORTH EASTERN,NORTH EASTERN
Khudengthabi B.O,Branch Post Office,795131,,nil,CHANDEL,MANIPUR,MANIPUR,NORTH EASTERN,NORTH EASTERN
Larong B.O,Branch Post Office,795127,,Nil,CHANDEL,MANIPUR,MANIPUR,NORTH EASTERN,NORTH EASTERN
Liwasari B.O,Branch Post Office,795127,,Nil,CHANDEL,MANIPUR,MANIPUR,NORTH EASTERN,NORTH EASTERN
Maojam B.O,Branch Post Office,795131,,nil,CHANDEL,MANIPUR,MANIPUR,NORTH EASTERN,NORTH EASTERN
Mittong B.O,Branch Post Office,795127,,Nil,CHANDEL,MANIPUR,MANIPUR,NORTH EASTERN,NORTH EASTERN
Molchamedbo B.O,Branch Post Office,795131,,nil,CHANDEL,MANIPUR,MANIPUR,NORTH EASTERN,NORTH EASTERN
Monbi B.O,Branch Post Office,795102,,nil,CHANDEL,MANIPUR,MANIPUR,NORTH EASTERN,NORTH EASTERN
Moreh S.O,Sub Post Office,795131,,Nil,CHANDEL,MANIPUR,MANIPUR,NORTH EASTERN,NORTH EASTERN
New Somtal B.O,Branch Post Office,795131,,nil,CHANDEL,MANIPUR,MANIPUR,NORTH EASTERN,NORTH EASTERN
Pallel S.O,Sub Post Office,795135,,Nil,CHANDEL,MANIPUR,MANIPUR,NORTH EASTERN,NORTH EASTERN
Phiran Machet B.O,Branch Post Office,795102,,nil,CHANDEL,MANIPUR,MANIPUR,NORTH EASTERN,NORTH EASTERN
Sajik Tampak B.O,Branch Post Office,795102,,nil,CHANDEL,MANIPUR,MANIPUR,NORTH EASTERN,NORTH EASTERN
Sehao B.O,Branch Post Office,795102,,nil,CHANDEL,MANIPUR,MANIPUR,NORTH EASTERN,NORTH EASTERN
Semol B.O,Branch Post Office,795102,,nil,CHANDEL,MANIPUR,MANIPUR,NORTH EASTERN,NORTH EASTERN
Sugnu S.O,Sub Post Office,795101,,Nil,CHANDEL,MANIPUR,MANIPUR,NORTH EASTERN,NORTH EASTERN
T- Bongmun B.O,Branch Post Office,795131,,nil,CHANDEL,MANIPUR,MANIPUR,NORTH EASTERN,NORTH EASTERN
Tengnoupal B.O,Branch Post Office,795131,,nil,CHANDEL,MANIPUR,MANIPUR,NORTH EASTERN,NORTH EASTERN
Thorchom B.O,Branch Post Office,795102,,nil,CHANDEL,MANIPUR,MANIPUR,NORTH EASTERN,NORTH EASTERN
T-minou B.O,Branch Post Office,795131,,nil,CHANDEL,MANIPUR,MANIPUR,NORTH EASTERN,NORTH EASTERN
Toupokpi B.O,Branch Post Office,795102,,nil,CHANDEL,MANIPUR,MANIPUR,NORTH EASTERN,NORTH EASTERN
Yangoulen B.O,Branch Post Office,795131,,nil,CHANDEL,MANIPUR,MANIPUR,NORTH EASTERN,NORTH EASTERN
Zoupi B.O,Branch Post Office,795102,,nil;,CHANDEL,MANIPUR,MANIPUR,NORTH EASTERN,NORTH EASTERN
Aibulon B.O,Branch Post Office,795143,,nil,CHURACHANDPUR,MANIPUR,MANIPUR,NORTH EASTERN,NORTH EASTERN
Aina B.O,Branch Post Office,795128,,nil,CHURACHANDPUR,MANIPUR,MANIPUR,NORTH EASTERN,NORTH EASTERN
Behiang B.O,Branch Post Office,795139,,nil,CHURACHANDPUR,MANIPUR,MANIPUR,NORTH EASTERN,NORTH EASTERN
Bukpi B.O,Branch Post Office,795143,,nil,CHURACHANDPUR,MANIPUR,MANIPUR,NORTH EASTERN,NORTH EASTERN
Bungmual B.O,Branch Post Office,795128,,nil,CHURACHANDPUR,MANIPUR,MANIPUR,NORTH EASTERN,NORTH EASTERN
Bungpilon B.O,Branch Post Office,795143,,nil,CHURACHANDPUR,MANIPUR,MANIPUR,NORTH EASTERN,NORTH EASTERN
Chehjang B.O,Branch Post Office,795128,,nil,CHURACHANDPUR,MANIPUR,MANIPUR,NORTH EASTERN,NORTH EASTERN
Chingkonpang S.O,Sub Post Office,795158,,Nil,CHURACHANDPUR,MANIPUR,MANIPUR,NORTH EASTERN,NORTH EASTERN
Chothemunpi B.O,Branch Post Office,795128,,nil,CHURACHANDPUR,MANIPUR,MANIPUR,NORTH EASTERN,NORTH EASTERN
Churachandpur S.O,Sub Post Office,795128,,Nil,CHURACHANDPUR,MANIPUR,MANIPUR,NORTH EASTERN,NORTH EASTERN
Geljaing B.O,Branch Post Office,795128,,nil,CHURACHANDPUR,MANIPUR,MANIPUR,NORTH EASTERN,NORTH EASTERN
Hamkeilon B.O,Branch Post Office,795128,,nil,CHURACHANDPUR,MANIPUR,MANIPUR,NORTH EASTERN,NORTH EASTERN
Hanship B.O,Branch Post Office,795143,,nil,CHURACHANDPUR,MANIPUR,MANIPUR,NORTH EASTERN,NORTH EASTERN
Henglep B.O,Branch Post Office,795128,,nil,CHURACHANDPUR,MANIPUR,MANIPUR,NORTH EASTERN,NORTH EASTERN
Hengtam B.O,Branch Post Office,795139,,nil,CHURACHANDPUR,MANIPUR,MANIPUR,NORTH EASTERN,NORTH EASTERN
Kangkap B.O,Branch Post Office,795139,,nil,CHURACHANDPUR,MANIPUR,MANIPUR,NORTH EASTERN,NORTH EASTERN
Kangvai Bazar B.O,Branch Post Office,795128,,nil,CHURACHANDPUR,MANIPUR,MANIPUR,NORTH EASTERN,NORTH EASTERN
Khajang B.O,Branch Post Office,795143,,nil,CHURACHANDPUR,MANIPUR,MANIPUR,NORTH EASTERN,NORTH EASTERN
Khanpi B.O,Branch Post Office,795128,,nil,CHURACHANDPUR,MANIPUR,MANIPUR,NORTH EASTERN,NORTH EASTERN
Khanpi B.O,Branch Post Office,795128,,nil,CHURACHANDPUR,MANIPUR,MANIPUR,NORTH EASTERN,NORTH EASTERN
Khouwpuibung B.O,Branch Post Office,795117,,Nil,CHURACHANDPUR,MANIPUR,MANIPUR,NORTH EASTERN,NORTH EASTERN
Kolhen B.O,Branch Post Office,795128,,nil,CHURACHANDPUR,MANIPUR,MANIPUR,NORTH EASTERN,NORTH EASTERN
Kumbipukhri B.O,Branch Post Office,795128,,nil,CHURACHANDPUR,MANIPUR,MANIPUR,NORTH EASTERN,NORTH EASTERN
Kwanpui B.O,Branch Post Office,795128,,nil,CHURACHANDPUR,MANIPUR,MANIPUR,NORTH EASTERN,NORTH EASTERN
Lailong B.O,Branch Post Office,795128,,nil,CHURACHANDPUR,MANIPUR,MANIPUR,NORTH EASTERN,NORTH EASTERN
Lama Camp B.O,Branch Post Office,795139,,nil,CHURACHANDPUR,MANIPUR,MANIPUR,NORTH EASTERN,NORTH EASTERN
Leijangphai B.O,Branch Post Office,795143,,nil,CHURACHANDPUR,MANIPUR,MANIPUR,NORTH EASTERN,NORTH EASTERN
Leison B.O,Branch Post Office,795143,,nil,CHURACHANDPUR,MANIPUR,MANIPUR,NORTH EASTERN,NORTH EASTERN
Lingshiphai B.O,Branch Post Office,795128,,nil,CHURACHANDPUR,MANIPUR,MANIPUR,NORTH EASTERN,NORTH EASTERN
Lungchin B.O,Branch Post Office,795139,,nil,CHURACHANDPUR,MANIPUR,MANIPUR,NORTH EASTERN,NORTH EASTERN
Lungsai B.O,Branch Post Office,795128,,nil,CHURACHANDPUR,MANIPUR,MANIPUR,NORTH EASTERN,NORTH EASTERN
Lungshung B.O,Branch Post Office,795128,,nil,CHURACHANDPUR,MANIPUR,MANIPUR,NORTH EASTERN,NORTH EASTERN
Lungthul B.O,Branch Post Office,795139,,nil,CHURACHANDPUR,MANIPUR,MANIPUR,NORTH EASTERN,NORTH EASTERN
Millongmun B.O,Branch Post Office,795143,,Nil,CHURACHANDPUR,MANIPUR,MANIPUR,NORTH EASTERN,NORTH EASTERN
Mission Compound B.O,Branch Post Office,795128,,nil,CHURACHANDPUR,MANIPUR,MANIPUR,NORTH EASTERN,NORTH EASTERN
Mual Vaiphei B.O,Branch Post Office,795117,,Nil,CHURACHANDPUR,MANIPUR,MANIPUR,NORTH EASTERN,NORTH EASTERN
Mualkoi B.O,Branch Post Office,795128,,nil,CHURACHANDPUR,MANIPUR,MANIPUR,NORTH EASTERN,NORTH EASTERN
Mualmun B.O,Branch Post Office,795139,,nil,CHURACHANDPUR,MANIPUR,MANIPUR,NORTH EASTERN,NORTH EASTERN
Munpi B.O,Branch Post Office,795128,,nil,CHURACHANDPUR,MANIPUR,MANIPUR,NORTH EASTERN,NORTH EASTERN
Panglian B.O,Branch Post Office,795128,,nil,CHURACHANDPUR,MANIPUR,MANIPUR,NORTH EASTERN,NORTH EASTERN
Parbung B.O,Branch Post Office,795143,,nil,CHURACHANDPUR,MANIPUR,MANIPUR,NORTH EASTERN,NORTH EASTERN
Pearsonmun B.O,Branch Post Office,795128,,nil,CHURACHANDPUR,MANIPUR,MANIPUR,NORTH EASTERN,NORTH EASTERN
Phaijang B.O,Branch Post Office,795143,,nil,CHURACHANDPUR,MANIPUR,MANIPUR,NORTH EASTERN,NORTH EASTERN
Phaipheng B.O,Branch Post Office,795128,,nil,CHURACHANDPUR,MANIPUR,MANIPUR,NORTH EASTERN,NORTH EASTERN
Pherazol B.O,Branch Post Office,795143,,nil,CHURACHANDPUR,MANIPUR,MANIPUR,NORTH EASTERN,NORTH EASTERN
Pmzol B.O,Branch Post Office,795143,,nil,CHURACHANDPUR,MANIPUR,MANIPUR,NORTH EASTERN,NORTH EASTERN
Saiden B.O,Branch Post Office,795128,,nil,CHURACHANDPUR,MANIPUR,MANIPUR,NORTH EASTERN,NORTH EASTERN
Saikhul Village B.O,Branch Post Office,795128,,nil,CHURACHANDPUR,MANIPUR,MANIPUR,NORTH EASTERN,NORTH EASTERN
Saikot S.O,Sub Post Office,795117,,Nil,CHURACHANDPUR,MANIPUR,MANIPUR,NORTH EASTERN,NORTH EASTERN
Saikul S.O,Sub Post Office,795118,,Nil,CHURACHANDPUR,MANIPUR,MANIPUR,NORTH EASTERN,NORTH EASTERN
Sangphou B.O,Branch Post Office,795128,,nil,CHURACHANDPUR,MANIPUR,MANIPUR,NORTH EASTERN,NORTH EASTERN
Santing B.O,Branch Post Office,795128,,nil,CHURACHANDPUR,MANIPUR,MANIPUR,NORTH EASTERN,NORTH EASTERN
Sawaiphaih (T/C/D) B.O,Branch Post Office,795143,,nil,CHURACHANDPUR,MANIPUR,MANIPUR,NORTH EASTERN,NORTH EASTERN
Semon B.O,Branch Post Office,795143,,nil,CHURACHANDPUR,MANIPUR,MANIPUR,NORTH EASTERN,NORTH EASTERN
Siabu B.O,Branch Post Office,795139,,nil,CHURACHANDPUR,MANIPUR,MANIPUR,NORTH EASTERN,NORTH EASTERN
Sielmet B.O,Branch Post Office,795128,,nil,CHURACHANDPUR,MANIPUR,MANIPUR,NORTH EASTERN,NORTH EASTERN
Singhat S.O,Sub Post Office,795139,,Nil,CHURACHANDPUR,MANIPUR,MANIPUR,NORTH EASTERN,NORTH EASTERN
Singjawl B.O,Branch Post Office,795143,,nil,CHURACHANDPUR,MANIPUR,MANIPUR,NORTH EASTERN,NORTH EASTERN
Songdoh B.O,Branch Post Office,795139,,nil,CHURACHANDPUR,MANIPUR,MANIPUR,NORTH EASTERN,NORTH EASTERN
Songtal B.O,Branch Post Office,795139,,nil,CHURACHANDPUR,MANIPUR,MANIPUR,NORTH EASTERN,NORTH EASTERN
South Kotlein B.O,Branch Post Office,795128,,nil,CHURACHANDPUR,MANIPUR,MANIPUR,NORTH EASTERN,NORTH EASTERN
Taithu B.O,Branch Post Office,795143,,nil,CHURACHANDPUR,MANIPUR,MANIPUR,NORTH EASTERN,NORTH EASTERN
Takvam B.O,Branch Post Office,795128,,nil,CHURACHANDPUR,MANIPUR,MANIPUR,NORTH EASTERN,NORTH EASTERN
Teiyong B.O,Branch Post Office,795128,,nil,CHURACHANDPUR,MANIPUR,MANIPUR,NORTH EASTERN,NORTH EASTERN
Thangshi B.O,Branch Post Office,795128,,nil,CHURACHANDPUR,MANIPUR,MANIPUR,NORTH EASTERN,NORTH EASTERN
Thanlon S.O,Sub Post Office,795143,,Nil,CHURACHANDPUR,MANIPUR,MANIPUR,NORTH EASTERN,NORTH EASTERN
Thinkew B.O,Branch Post Office,795128,,nil,CHURACHANDPUR,MANIPUR,MANIPUR,NORTH EASTERN,NORTH EASTERN
Tingsong B.O,Branch Post Office,795143,,nil,CHURACHANDPUR,MANIPUR,MANIPUR,NORTH EASTERN,NORTH EASTERN
Tipaimukh (P) B.O,Branch Post Office,795143,,nil,CHURACHANDPUR,MANIPUR,MANIPUR,NORTH EASTERN,NORTH EASTERN
Tollen B.O,Branch Post Office,795128,,nil,CHURACHANDPUR,MANIPUR,MANIPUR,NORTH EASTERN,NORTH EASTERN
Tolphei B.O,Branch Post Office,795128,,nil,CHURACHANDPUR,MANIPUR,MANIPUR,NORTH EASTERN,NORTH EASTERN
Tuabung B.O,Branch Post Office,795143,,nil,CHURACHANDPUR,MANIPUR,MANIPUR,NORTH EASTERN,NORTH EASTERN
Tuikham B.O,Branch Post Office,795117,,Nil,CHURACHANDPUR,MANIPUR,MANIPUR,NORTH EASTERN,NORTH EASTERN
Tuining B.O,Branch Post Office,795117,,Nil,CHURACHANDPUR,MANIPUR,MANIPUR,NORTH EASTERN,NORTH EASTERN
Tuinom B.O,Branch Post Office,795128,,nil,CHURACHANDPUR,MANIPUR,MANIPUR,NORTH EASTERN,NORTH EASTERN
Tuitengphai B.O,Branch Post Office,795117,,Nil,CHURACHANDPUR,MANIPUR,MANIPUR,NORTH EASTERN,NORTH EASTERN
Tulaphei B.O,Branch Post Office,795128,,nil,CHURACHANDPUR,MANIPUR,MANIPUR,NORTH EASTERN,NORTH EASTERN
Ukha B.O,Branch Post Office,795128,,nil,CHURACHANDPUR,MANIPUR,MANIPUR,NORTH EASTERN,NORTH EASTERN
Vokbual B.O,Branch Post Office,795139,,nil,CHURACHANDPUR,MANIPUR,MANIPUR,NORTH EASTERN,NORTH EASTERN
Awang Konmgpal B.O,Branch Post Office,795005,,Nil,IMPHAL EAST,MANIPUR,MANIPUR,NORTH EASTERN,NORTH EASTERN
Chingmang B.O,Branch Post Office,795010,,Nil,IMPHAL EAST,MANIPUR,MANIPUR,NORTH EASTERN,NORTH EASTERN
Dolaithabi B.O,Branch Post Office,795114,,nil,IMPHAL EAST,MANIPUR,MANIPUR,NORTH EASTERN,NORTH EASTERN
Haraorou B.O,Branch Post Office,795114,,nil,IMPHAL EAST,MANIPUR,MANIPUR,NORTH EASTERN,NORTH EASTERN
Heinoumakhong B.O,Branch Post Office,795010,,Nil,IMPHAL EAST,MANIPUR,MANIPUR,NORTH EASTERN,NORTH EASTERN
Huidrom B.O,Branch Post Office,795010,,Nil,IMPHAL EAST,MANIPUR,MANIPUR,NORTH EASTERN,NORTH EASTERN
Irilbung B.O,Branch Post Office,795008,,Nil,IMPHAL EAST,MANIPUR,MANIPUR,NORTH EASTERN,NORTH EASTERN
Kairang Litan Makhong B.O,Branch Post Office,795114,,nil,IMPHAL EAST,MANIPUR,MANIPUR,NORTH EASTERN,NORTH EASTERN
Kameng Kakching B.O,Branch Post Office,795010,,Nil,IMPHAL EAST,MANIPUR,MANIPUR,NORTH EASTERN,NORTH EASTERN
Keirao Bitra Salam B.O,Branch Post Office,795008,,Nil,IMPHAL EAST,MANIPUR,MANIPUR,NORTH EASTERN,NORTH EASTERN
Keirao Makting B.O,Branch Post Office,795008,,Nil,IMPHAL EAST,MANIPUR,MANIPUR,NORTH EASTERN,NORTH EASTERN
Keirao Wangkhem B.O,Branch Post Office,795008,,Nil,IMPHAL EAST,MANIPUR,MANIPUR,NORTH EASTERN,NORTH EASTERN
Khongangpheidekpi B.O,Branch Post Office,795008,,Nil,IMPHAL EAST,MANIPUR,MANIPUR,NORTH EASTERN,NORTH EASTERN
Khongbal Tangkhul B.O,Branch Post Office,795114,,nil,IMPHAL EAST,MANIPUR,MANIPUR,NORTH EASTERN,NORTH EASTERN
Khumidok (P) B.O,Branch Post Office,795114,,nil,IMPHAL EAST,MANIPUR,MANIPUR,NORTH EASTERN,NORTH EASTERN
Khurai Khongnang Makhong B.O,Branch Post Office,795005,,Nil,IMPHAL EAST,MANIPUR,MANIPUR,NORTH EASTERN,NORTH EASTERN
Kitnapanung B.O,Branch Post Office,795008,,nil,IMPHAL EAST,MANIPUR,MANIPUR,NORTH EASTERN,NORTH EASTERN
Kongba Bazar B.O,Branch Post Office,795008,,Nil,IMPHAL EAST,MANIPUR,MANIPUR,NORTH EASTERN,NORTH EASTERN
Kshetribangoon B.O,Branch Post Office,795008,,Nil,IMPHAL EAST,MANIPUR,MANIPUR,NORTH EASTERN,NORTH EASTERN
Kshetrigao B.O,Branch Post Office,795008,,Nil,IMPHAL EAST,MANIPUR,MANIPUR,NORTH EASTERN,NORTH EASTERN
Laikoiching B.O,Branch Post Office,795010,,Nil,IMPHAL EAST,MANIPUR,MANIPUR,NORTH EASTERN,NORTH EASTERN
Laiphrak Maring B.O,Branch Post Office,795008,,Nil,IMPHAL EAST,MANIPUR,MANIPUR,NORTH EASTERN,NORTH EASTERN
Lamlai B.O,Branch Post Office,795010,,Nil,IMPHAL EAST,MANIPUR,MANIPUR,NORTH EASTERN,NORTH EASTERN
Lamlong S.O,Sub Post Office,795010,,Nil,IMPHAL EAST,MANIPUR,MANIPUR,NORTH EASTERN,NORTH EASTERN
Latingkhal B.O,Branch Post Office,795116,,nil,IMPHAL EAST,MANIPUR,MANIPUR,NORTH EASTERN,NORTH EASTERN
Liklikhong Bazar B.O,Branch Post Office,795114,,nil,IMPHAL EAST,MANIPUR,MANIPUR,NORTH EASTERN,NORTH EASTERN
Manipur University S.O,Sub Post Office,795003,,Nil,IMPHAL EAST,MANIPUR,MANIPUR,NORTH EASTERN,NORTH EASTERN
Mapao Keithelmanbi B.O,Branch Post Office,795114,,nil,IMPHAL EAST,MANIPUR,MANIPUR,NORTH EASTERN,NORTH EASTERN
Moirang Kampu B.O,Branch Post Office,795005,,Nil,IMPHAL EAST,MANIPUR,MANIPUR,NORTH EASTERN,NORTH EASTERN
Moirang Purel B.O,Branch Post Office,795010,,Nil,IMPHAL EAST,MANIPUR,MANIPUR,NORTH EASTERN,NORTH EASTERN
Mongkhang Lambi B.O,Branch Post Office,795008,,Nil,IMPHAL EAST,MANIPUR,MANIPUR,NORTH EASTERN,NORTH EASTERN
Ningthemchakhul B.O,Branch Post Office,795010,,nil,IMPHAL EAST,MANIPUR,MANIPUR,NORTH EASTERN,NORTH EASTERN
Nongdam Tangkhul B.O,Branch Post Office,795010,,nil,IMPHAL EAST,MANIPUR,MANIPUR,NORTH EASTERN,NORTH EASTERN
Nongoda B.O,Branch Post Office,795010,,nil,IMPHAL EAST,MANIPUR,MANIPUR,NORTH EASTERN,NORTH EASTERN
Oinam Thingel B.O,Branch Post Office,795008,,Nil,IMPHAL EAST,MANIPUR,MANIPUR,NORTH EASTERN,NORTH EASTERN
Phaknung B.O,Branch Post Office,795010,,nil,IMPHAL EAST,MANIPUR,MANIPUR,NORTH EASTERN,NORTH EASTERN
Pngaei Yangdong S.O,Sub Post Office,795114,,Nil,IMPHAL EAST,MANIPUR,MANIPUR,NORTH EASTERN,NORTH EASTERN
Porompat S.O,Sub Post Office,795005,,Nil,IMPHAL EAST,MANIPUR,MANIPUR,NORTH EASTERN,NORTH EASTERN
Pukhao Ahallup B.O,Branch Post Office,795114,,nil,IMPHAL EAST,MANIPUR,MANIPUR,NORTH EASTERN,NORTH EASTERN
Sagolmang B.O,Branch Post Office,795114,,nil,IMPHAL EAST,MANIPUR,MANIPUR,NORTH EASTERN,NORTH EASTERN
Satang B.O,Branch Post Office,795114,,nil,IMPHAL EAST,MANIPUR,MANIPUR,NORTH EASTERN,NORTH EASTERN
Sawombung B.O,Branch Post Office,795010,,nil,IMPHAL EAST,MANIPUR,MANIPUR,NORTH EASTERN,NORTH EASTERN
Sekmai S.O,Sub Post Office,795136,,Nil,IMPHAL EAST,MANIPUR,MANIPUR,NORTH EASTERN,NORTH EASTERN
Singjamei S.O,Sub Post Office,795008,,Nil,IMPHAL EAST,MANIPUR,MANIPUR,NORTH EASTERN,NORTH EASTERN
Takhel B.O,Branch Post Office,795005,,Nil,IMPHAL EAST,MANIPUR,MANIPUR,NORTH EASTERN,NORTH EASTERN
Tangkhul Hungdung B.O,Branch Post Office,795010,,Nil,IMPHAL EAST,MANIPUR,MANIPUR,NORTH EASTERN,NORTH EASTERN
Taretkhul B.O,Branch Post Office,795010,,nil,IMPHAL EAST,MANIPUR,MANIPUR,NORTH EASTERN,NORTH EASTERN
Thangal Surung B.O,Branch Post Office,795114,,nil,IMPHAL EAST,MANIPUR,MANIPUR,NORTH EASTERN,NORTH EASTERN
Tulihal S.O,Sub Post Office,795140,,Nil,IMPHAL EAST,MANIPUR,MANIPUR,NORTH EASTERN,NORTH EASTERN
Uchekon B.O,Branch Post Office,795008,,Nil,IMPHAL EAST,MANIPUR,MANIPUR,NORTH EASTERN,NORTH EASTERN
Uyumpok B.O,Branch Post Office,795114,,nil,IMPHAL EAST,MANIPUR,MANIPUR,NORTH EASTERN,NORTH EASTERN
Waiton B.O,Branch Post Office,795114,,nil,IMPHAL EAST,MANIPUR,MANIPUR,NORTH EASTERN,NORTH EASTERN
Wakhen Phai B.O,Branch Post Office,795114,,nil,IMPHAL EAST,MANIPUR,MANIPUR,NORTH EASTERN,NORTH EASTERN
Yourbung B.O,Branch Post Office,795010,,nil,IMPHAL EAST,MANIPUR,MANIPUR,NORTH EASTERN,NORTH EASTERN
Yumnam Khunou B.O,Branch Post Office,795114,,nil,IMPHAL EAST,MANIPUR,MANIPUR,NORTH EASTERN,NORTH EASTERN
Ahallup B.O,Branch Post Office,795002,,Nil,IMPHAL WEST,MANIPUR,MANIPUR,NORTH EASTERN,NORTH EASTERN
Arong B.O,Branch Post Office,795132,,nil,IMPHAL WEST,MANIPUR,MANIPUR,NORTH EASTERN,NORTH EASTERN
Awang Leikinthabi B.O,Branch Post Office,795136,,Nil,IMPHAL WEST,MANIPUR,MANIPUR,NORTH EASTERN,NORTH EASTERN
Awangpotshangbam B.O,Branch Post Office,795002,,Nil,IMPHAL WEST,MANIPUR,MANIPUR,NORTH EASTERN,NORTH EASTERN
Bengoon Maning Leikai B.O,Branch Post Office,795132,,nil,IMPHAL WEST,MANIPUR,MANIPUR,NORTH EASTERN,NORTH EASTERN
Bidyanagar B.O,Branch Post Office,795115,,nil,IMPHAL WEST,MANIPUR,MANIPUR,NORTH EASTERN,NORTH EASTERN
Bongmun B.O,Branch Post Office,795116,,nil,IMPHAL WEST,MANIPUR,MANIPUR,NORTH EASTERN,NORTH EASTERN
Borobekra B.O,Branch Post Office,795116,,nil,IMPHAL WEST,MANIPUR,MANIPUR,NORTH EASTERN,NORTH EASTERN
Br Colony B.O,Branch Post Office,795115,,nil,IMPHAL WEST,MANIPUR,MANIPUR,NORTH EASTERN,NORTH EASTERN
Canchipur (T/C/D) B.O,Branch Post Office,795003,,nil,IMPHAL WEST,MANIPUR,MANIPUR,NORTH EASTERN,NORTH EASTERN
Central Agriculture University B.O,Branch Post Office,795004,,Nil,IMPHAL WEST,MANIPUR,MANIPUR,NORTH EASTERN,NORTH EASTERN
Ch. Khongnangpokpi B.O,Branch Post Office,795136,,Nil,IMPHAL WEST,MANIPUR,MANIPUR,NORTH EASTERN,NORTH EASTERN
Chabung Company B.O,Branch Post Office,795132,,nil,IMPHAL WEST,MANIPUR,MANIPUR,NORTH EASTERN,NORTH EASTERN
Champanagar B.O,Branch Post Office,795116,,nil,IMPHAL WEST,MANIPUR,MANIPUR,NORTH EASTERN,NORTH EASTERN
Chingmun B.O,Branch Post Office,795116,,nil,IMPHAL WEST,MANIPUR,MANIPUR,NORTH EASTERN,NORTH EASTERN
Chirai Muslim B.O,Branch Post Office,795132,,nil,IMPHAL WEST,MANIPUR,MANIPUR,NORTH EASTERN,NORTH EASTERN
Christan Centre Haochong B.O,Branch Post Office,795146,,Nil,IMPHAL WEST,MANIPUR,MANIPUR,NORTH EASTERN,NORTH EASTERN
Crpf Langjing S.O,Sub Post Office,795113,,Nil,IMPHAL WEST,MANIPUR,MANIPUR,NORTH EASTERN,NORTH EASTERN
D.M College S.O,Sub Post Office,795001,,Nil,IMPHAL WEST,MANIPUR,MANIPUR,NORTH EASTERN,NORTH EASTERN
Gularthol S.O,Sub Post Office,795115,,Nil,IMPHAL WEST,MANIPUR,MANIPUR,NORTH EASTERN,NORTH EASTERN
Haorang Kairel B.O,Branch Post Office,795113,,nil,IMPHAL WEST,MANIPUR,MANIPUR,NORTH EASTERN,NORTH EASTERN
Haoreibi B.O,Branch Post Office,795009,,nil,IMPHAL WEST,MANIPUR,MANIPUR,NORTH EASTERN,NORTH EASTERN
Heibong Makhong B.O,Branch Post Office,795132,,nil,IMPHAL WEST,MANIPUR,MANIPUR,NORTH EASTERN,NORTH EASTERN
Heibongpokpi B.O,Branch Post Office,795146,,Nil,IMPHAL WEST,MANIPUR,MANIPUR,NORTH EASTERN,NORTH EASTERN
Heingang B.O,Branch Post Office,795002,,Nil,IMPHAL WEST,MANIPUR,MANIPUR,NORTH EASTERN,NORTH EASTERN
Hiyangthang B.O,Branch Post Office,795009,,nil,IMPHAL WEST,MANIPUR,MANIPUR,NORTH EASTERN,NORTH EASTERN
Ijairong B.O,Branch Post Office,795146,,Nil,IMPHAL WEST,MANIPUR,MANIPUR,NORTH EASTERN,NORTH EASTERN
Imphal Bazar S.O,Sub Post Office,795001,,Nil,IMPHAL WEST,MANIPUR,MANIPUR,NORTH EASTERN,NORTH EASTERN
Imphal H.O,Head Post Office,795001,,Nil,IMPHAL WEST,MANIPUR,MANIPUR,NORTH EASTERN,NORTH EASTERN
Irengnaga B.O,Branch Post Office,795146,,Nil,IMPHAL WEST,MANIPUR,MANIPUR,NORTH EASTERN,NORTH EASTERN
Iroisemaba B.O,Branch Post Office,795004,,nil,IMPHAL WEST,MANIPUR,MANIPUR,NORTH EASTERN,NORTH EASTERN
Irom Meijrao B.O,Branch Post Office,795009,,nil,IMPHAL WEST,MANIPUR,MANIPUR,NORTH EASTERN,NORTH EASTERN
Irong Chessabal B.O,Branch Post Office,795132,,nil,IMPHAL WEST,MANIPUR,MANIPUR,NORTH EASTERN,NORTH EASTERN
Irong Umang Khunou B.O,Branch Post Office,795132,,nil,IMPHAL WEST,MANIPUR,MANIPUR,NORTH EASTERN,NORTH EASTERN
Jakurdhar B.O,Branch Post Office,795116,,nil,IMPHAL WEST,MANIPUR,MANIPUR,NORTH EASTERN,NORTH EASTERN
Jiribam Bazar S.O,Sub Post Office,795116,,Nil,IMPHAL WEST,MANIPUR,MANIPUR,NORTH EASTERN,NORTH EASTERN
Kangchup Chiru B.O,Branch Post Office,795146,,Nil,IMPHAL WEST,MANIPUR,MANIPUR,NORTH EASTERN,NORTH EASTERN
Kangchup Hill (P) B.O,Branch Post Office,795146,,Nil,IMPHAL WEST,MANIPUR,MANIPUR,NORTH EASTERN,NORTH EASTERN
Kangchup Makhong B.O,Branch Post Office,795146,,Nil,IMPHAL WEST,MANIPUR,MANIPUR,NORTH EASTERN,NORTH EASTERN
Kanglatongbi B.O,Branch Post Office,795136,,Nil,IMPHAL WEST,MANIPUR,MANIPUR,NORTH EASTERN,NORTH EASTERN
Karakhul B.O,Branch Post Office,795002,,Nil,IMPHAL WEST,MANIPUR,MANIPUR,NORTH EASTERN,NORTH EASTERN
Karam Vaiphei B.O,Branch Post Office,795146,,Nil,IMPHAL WEST,MANIPUR,MANIPUR,NORTH EASTERN,NORTH EASTERN
Kashimpur B.O,Branch Post Office,795115,,nil,IMPHAL WEST,MANIPUR,MANIPUR,NORTH EASTERN,NORTH EASTERN
Keimai B.O,Branch Post Office,795115,,nil,IMPHAL WEST,MANIPUR,MANIPUR,NORTH EASTERN,NORTH EASTERN
Kh Jaikhan B.O,Branch Post Office,795116,,nil,IMPHAL WEST,MANIPUR,MANIPUR,NORTH EASTERN,NORTH EASTERN
Khamnam Bazar B.O,Branch Post Office,795113,,nil,IMPHAL WEST,MANIPUR,MANIPUR,NORTH EASTERN,NORTH EASTERN
Khangakhul B.O,Branch Post Office,795113,,nil,IMPHAL WEST,MANIPUR,MANIPUR,NORTH EASTERN,NORTH EASTERN
Khelakhong B.O,Branch Post Office,795132,,nil,IMPHAL WEST,MANIPUR,MANIPUR,NORTH EASTERN,NORTH EASTERN
Khonghampat B.O,Branch Post Office,795002,,Nil,IMPHAL WEST,MANIPUR,MANIPUR,NORTH EASTERN,NORTH EASTERN
Khoyathong B.O,Branch Post Office,795001,,Nil,IMPHAL WEST,MANIPUR,MANIPUR,NORTH EASTERN,NORTH EASTERN
Khumbong Bazar B.O,Branch Post Office,795113,,nil,IMPHAL WEST,MANIPUR,MANIPUR,NORTH EASTERN,NORTH EASTERN
Khundong Khukhaiba B.O,Branch Post Office,795146,,Nil,IMPHAL WEST,MANIPUR,MANIPUR,NORTH EASTERN,NORTH EASTERN
Khurukhul B.O,Branch Post Office,795002,,Nil,IMPHAL WEST,MANIPUR,MANIPUR,NORTH EASTERN,NORTH EASTERN
Kodompokpi B.O,Branch Post Office,795009,,nil,IMPHAL WEST,MANIPUR,MANIPUR,NORTH EASTERN,NORTH EASTERN
Komlakhong B.O,Branch Post Office,795132,,nil,IMPHAL WEST,MANIPUR,MANIPUR,NORTH EASTERN,NORTH EASTERN
Konthakhabam B.O,Branch Post Office,795002,,Nil,IMPHAL WEST,MANIPUR,MANIPUR,NORTH EASTERN,NORTH EASTERN
Konthoujam B.O,Branch Post Office,795113,,nil,IMPHAL WEST,MANIPUR,MANIPUR,NORTH EASTERN,NORTH EASTERN
Kunja (P) B.O,Branch Post Office,795003,,nil,IMPHAL WEST,MANIPUR,MANIPUR,NORTH EASTERN,NORTH EASTERN
Kyamgei B.O,Branch Post Office,795003,,Nil,IMPHAL WEST,MANIPUR,MANIPUR,NORTH EASTERN,NORTH EASTERN
Laiphrakom B.O,Branch Post Office,795140,,nil,IMPHAL WEST,MANIPUR,MANIPUR,NORTH EASTERN,NORTH EASTERN
Lairen Sajik B.O,Branch Post Office,795146,,Nil,IMPHAL WEST,MANIPUR,MANIPUR,NORTH EASTERN,NORTH EASTERN
Lalkhai B.O,Branch Post Office,795116,,nil,IMPHAL WEST,MANIPUR,MANIPUR,NORTH EASTERN,NORTH EASTERN
Lamboi Khongnagkhong B.O,Branch Post Office,795004,,Nil,IMPHAL WEST,MANIPUR,MANIPUR,NORTH EASTERN,NORTH EASTERN
Lamdeng B.O,Branch Post Office,795146,,Nil,IMPHAL WEST,MANIPUR,MANIPUR,NORTH EASTERN,NORTH EASTERN
Lamphelpat S.O,Sub Post Office,795004,,Nil,IMPHAL WEST,MANIPUR,MANIPUR,NORTH EASTERN,NORTH EASTERN
Lamsang S.O,Sub Post Office,795146,,Nil,IMPHAL WEST,MANIPUR,MANIPUR,NORTH EASTERN,NORTH EASTERN
Langjing Achouba B.O,Branch Post Office,795113,,nil,IMPHAL WEST,MANIPUR,MANIPUR,NORTH EASTERN,NORTH EASTERN
Langol Housing Complex B.O,Branch Post Office,795004,,nil,IMPHAL WEST,MANIPUR,MANIPUR,NORTH EASTERN,NORTH EASTERN
Langthabal B.O,Branch Post Office,795003,,Nil,IMPHAL WEST,MANIPUR,MANIPUR,NORTH EASTERN,NORTH EASTERN
Laphupat B.O,Branch Post Office,795132,,nil,IMPHAL WEST,MANIPUR,MANIPUR,NORTH EASTERN,NORTH EASTERN
Loitang Leikinthabi B.O,Branch Post Office,795002,,Nil,IMPHAL WEST,MANIPUR,MANIPUR,NORTH EASTERN,NORTH EASTERN
Longa Koireng B.O,Branch Post Office,795113,,Nil,IMPHAL WEST,MANIPUR,MANIPUR,NORTH EASTERN,NORTH EASTERN
Longpi B.O,Branch Post Office,795116,,nil,IMPHAL WEST,MANIPUR,MANIPUR,NORTH EASTERN,NORTH EASTERN
Loukok Mayai Leikai B.O,Branch Post Office,795132,,nil,IMPHAL WEST,MANIPUR,MANIPUR,NORTH EASTERN,NORTH EASTERN
Luwangsangbam B.O,Branch Post Office,795002,,Nil,IMPHAL WEST,MANIPUR,MANIPUR,NORTH EASTERN,NORTH EASTERN
Luwangsangol B.O,Branch Post Office,795136,,Nil,IMPHAL WEST,MANIPUR,MANIPUR,NORTH EASTERN,NORTH EASTERN
Maibam Konjil B.O,Branch Post Office,795132,,nil,IMPHAL WEST,MANIPUR,MANIPUR,NORTH EASTERN,NORTH EASTERN
Makhan B.O,Branch Post Office,795136,,Nil,IMPHAL WEST,MANIPUR,MANIPUR,NORTH EASTERN,NORTH EASTERN
Maklang Bazar B.O,Branch Post Office,795113,,nil,IMPHAL WEST,MANIPUR,MANIPUR,NORTH EASTERN,NORTH EASTERN
Mantripukhri S.O,Sub Post Office,795002,,Nil,IMPHAL WEST,MANIPUR,MANIPUR,NORTH EASTERN,NORTH EASTERN
Mayang Impahl Bengoon B.O,Branch Post Office,795132,,nil,IMPHAL WEST,MANIPUR,MANIPUR,NORTH EASTERN,NORTH EASTERN
Mayang Langjing B.O,Branch Post Office,795146,,Nil,IMPHAL WEST,MANIPUR,MANIPUR,NORTH EASTERN,NORTH EASTERN
Mongsangei B.O,Branch Post Office,795003,,Nil,IMPHAL WEST,MANIPUR,MANIPUR,NORTH EASTERN,NORTH EASTERN
Mutum Phibou B.O,Branch Post Office,795132,,nil,IMPHAL WEST,MANIPUR,MANIPUR,NORTH EASTERN,NORTH EASTERN
Natok Kabui B.O,Branch Post Office,795113,,nil,IMPHAL WEST,MANIPUR,MANIPUR,NORTH EASTERN,NORTH EASTERN
New Keiphundai B.O,Branch Post Office,795115,,nil,IMPHAL WEST,MANIPUR,MANIPUR,NORTH EASTERN,NORTH EASTERN
New Keithelmanbi B.O,Branch Post Office,795113,,Nil,IMPHAL WEST,MANIPUR,MANIPUR,NORTH EASTERN,NORTH EASTERN
Ngairangbam B.O,Branch Post Office,795113,,nil,IMPHAL WEST,MANIPUR,MANIPUR,NORTH EASTERN,NORTH EASTERN
Ngaphabung B.O,Branch Post Office,795116,,nil,IMPHAL WEST,MANIPUR,MANIPUR,NORTH EASTERN,NORTH EASTERN
Ningombam B.O,Branch Post Office,795003,,Nil,IMPHAL WEST,MANIPUR,MANIPUR,NORTH EASTERN,NORTH EASTERN
Noremthong Bazar B.O,Branch Post Office,795004,,Nil,IMPHAL WEST,MANIPUR,MANIPUR,NORTH EASTERN,NORTH EASTERN
Oktan B.O,Branch Post Office,795146,,Nil,IMPHAL WEST,MANIPUR,MANIPUR,NORTH EASTERN,NORTH EASTERN
Paobitek B.O,Branch Post Office,795009,,nil,IMPHAL WEST,MANIPUR,MANIPUR,NORTH EASTERN,NORTH EASTERN
Patpuimun B.O,Branch Post Office,795116,,nil,IMPHAL WEST,MANIPUR,MANIPUR,NORTH EASTERN,NORTH EASTERN
Patsoi Part II B.O,Branch Post Office,795113,,nil,IMPHAL WEST,MANIPUR,MANIPUR,NORTH EASTERN,NORTH EASTERN
Phaibok Mullen B.O,Branch Post Office,795116,,nil,IMPHAL WEST,MANIPUR,MANIPUR,NORTH EASTERN,NORTH EASTERN
Phayeng B.O,Branch Post Office,795146,,Nil,IMPHAL WEST,MANIPUR,MANIPUR,NORTH EASTERN,NORTH EASTERN
Phoubakchao B.O,Branch Post Office,795132,,nil,IMPHAL WEST,MANIPUR,MANIPUR,NORTH EASTERN,NORTH EASTERN
Ponlian B.O,Branch Post Office,795146,,Nil,IMPHAL WEST,MANIPUR,MANIPUR,NORTH EASTERN,NORTH EASTERN
Potsangbam Khoirou B.O,Branch Post Office,795136,,Nil,IMPHAL WEST,MANIPUR,MANIPUR,NORTH EASTERN,NORTH EASTERN
Sagolband Thingom Leikai B.O,Branch Post Office,795004,,Nil,IMPHAL WEST,MANIPUR,MANIPUR,NORTH EASTERN,NORTH EASTERN
Sagoltongba Bazar B.O,Branch Post Office,795113,,nil,IMPHAL WEST,MANIPUR,MANIPUR,NORTH EASTERN,NORTH EASTERN
Samurou B.O,Branch Post Office,795009,,nil,IMPHAL WEST,MANIPUR,MANIPUR,NORTH EASTERN,NORTH EASTERN
Sangaiprou B.O,Branch Post Office,795140,,nil,IMPHAL WEST,MANIPUR,MANIPUR,NORTH EASTERN,NORTH EASTERN
Santhel B.O,Branch Post Office,795132,,nil,IMPHAL WEST,MANIPUR,MANIPUR,NORTH EASTERN,NORTH EASTERN
Sayang Kuraomakhong B.O,Branch Post Office,795004,,Nil,IMPHAL WEST,MANIPUR,MANIPUR,NORTH EASTERN,NORTH EASTERN
Sekmaijin  Khunou Konuma B.O,Branch Post Office,795132,,nil,IMPHAL WEST,MANIPUR,MANIPUR,NORTH EASTERN,NORTH EASTERN
Sekmaijin B.O,Branch Post Office,795132,,nil,IMPHAL WEST,MANIPUR,MANIPUR,NORTH EASTERN,NORTH EASTERN
Sekmaijin Khunou Litan Makhong B.O,Branch Post Office,795132,,nil,IMPHAL WEST,MANIPUR,MANIPUR,NORTH EASTERN,NORTH EASTERN
Soibam Leikai B.O,Branch Post Office,795001,,Nil,IMPHAL WEST,MANIPUR,MANIPUR,NORTH EASTERN,NORTH EASTERN
Sonapur B.O,Branch Post Office,795116,,nil,IMPHAL WEST,MANIPUR,MANIPUR,NORTH EASTERN,NORTH EASTERN
Suangpuimun B.O,Branch Post Office,795116,,nil,IMPHAL WEST,MANIPUR,MANIPUR,NORTH EASTERN,NORTH EASTERN
Tairenpokpi B.O,Branch Post Office,795113,,nil,IMPHAL WEST,MANIPUR,MANIPUR,NORTH EASTERN,NORTH EASTERN
Takyel Khongbal B.O,Branch Post Office,795113,,nil,IMPHAL WEST,MANIPUR,MANIPUR,NORTH EASTERN,NORTH EASTERN
Tendongyang (P) B.O,Branch Post Office,795002,,Nil,IMPHAL WEST,MANIPUR,MANIPUR,NORTH EASTERN,NORTH EASTERN
Tera Bazar B.O,Branch Post Office,795004,,Nil,IMPHAL WEST,MANIPUR,MANIPUR,NORTH EASTERN,NORTH EASTERN
Tera Khoidum Mayai Leikai B.O,Branch Post Office,795132,,nil,IMPHAL WEST,MANIPUR,MANIPUR,NORTH EASTERN,NORTH EASTERN
Tharoijam B.O,Branch Post Office,795113,,nil,IMPHAL WEST,MANIPUR,MANIPUR,NORTH EASTERN,NORTH EASTERN
Tuitengmun B.O,Branch Post Office,795116,,nil,IMPHAL WEST,MANIPUR,MANIPUR,NORTH EASTERN,NORTH EASTERN
Uchiwa B.O,Branch Post Office,795132,,nil,IMPHAL WEST,MANIPUR,MANIPUR,NORTH EASTERN,NORTH EASTERN
Uchiwa Wangban B.O,Branch Post Office,795132,,nil,IMPHAL WEST,MANIPUR,MANIPUR,NORTH EASTERN,NORTH EASTERN
Wangoi S.O,Sub Post Office,795009,,Nil,IMPHAL WEST,MANIPUR,MANIPUR,NORTH EASTERN,NORTH EASTERN
Yarrow Meitram B.O,Branch Post Office,795140,,nil,IMPHAL WEST,MANIPUR,MANIPUR,NORTH EASTERN,NORTH EASTERN
Yumnam Khunou B.O,Branch Post Office,795009,,nil,IMPHAL WEST,MANIPUR,MANIPUR,NORTH EASTERN,NORTH EASTERN
Yurembam B.O,Branch Post Office,795113,,nil,IMPHAL WEST,MANIPUR,MANIPUR,NORTH EASTERN,NORTH EASTERN
Bitrarakhong B.O,Branch Post Office,795009,,nil;,IMPHAL WEST,MANIPUR,MANIPUR,NORTH EASTERN,NORTH EASTERN
Bunglong B.O,Branch Post Office,795118,,Nil,SENAPATI,MANIPUR,MANIPUR,NORTH EASTERN,NORTH EASTERN
Chalwa (P) B.O,Branch Post Office,795112,,nil,SENAPATI,MANIPUR,MANIPUR,NORTH EASTERN,NORTH EASTERN
Chandraman B.O,Branch Post Office,795122,,nil,SENAPATI,MANIPUR,MANIPUR,NORTH EASTERN,NORTH EASTERN
Chawanamei B.O,Branch Post Office,795104,,nil,SENAPATI,MANIPUR,MANIPUR,NORTH EASTERN,NORTH EASTERN
Cheljang B.O,Branch Post Office,795112,,nil,SENAPATI,MANIPUR,MANIPUR,NORTH EASTERN,NORTH EASTERN
Chingai Khullen B.O,Branch Post Office,795104,,nil,SENAPATI,MANIPUR,MANIPUR,NORTH EASTERN,NORTH EASTERN
Galam B.O,Branch Post Office,795118,,Nil,SENAPATI,MANIPUR,MANIPUR,NORTH EASTERN,NORTH EASTERN
Ganel B.O,Branch Post Office,795112,,nil,SENAPATI,MANIPUR,MANIPUR,NORTH EASTERN,NORTH EASTERN
Gangpijang B.O,Branch Post Office,795118,,Nil,SENAPATI,MANIPUR,MANIPUR,NORTH EASTERN,NORTH EASTERN
Haipi B.O,Branch Post Office,795122,,nil,SENAPATI,MANIPUR,MANIPUR,NORTH EASTERN,NORTH EASTERN
Hengbung B.O,Branch Post Office,795129,,nil,SENAPATI,MANIPUR,MANIPUR,NORTH EASTERN,NORTH EASTERN
Ichaigojang B.O,Branch Post Office,795118,,Nil,SENAPATI,MANIPUR,MANIPUR,NORTH EASTERN,NORTH EASTERN
Irang B.O,Branch Post Office,795112,,nil,SENAPATI,MANIPUR,MANIPUR,NORTH EASTERN,NORTH EASTERN
J Phaijang B.O,Branch Post Office,795107,,nil,SENAPATI,MANIPUR,MANIPUR,NORTH EASTERN,NORTH EASTERN
Jangnoi B.O,Branch Post Office,795118,,Nil,SENAPATI,MANIPUR,MANIPUR,NORTH EASTERN,NORTH EASTERN
Kaibi B.O,Branch Post Office,795104,,Nil,SENAPATI,MANIPUR,MANIPUR,NORTH EASTERN,NORTH EASTERN
Kalapahar S.O,Sub Post Office,795122,,Nil,SENAPATI,MANIPUR,MANIPUR,NORTH EASTERN,NORTH EASTERN
Kangpokpi Mission B.O,Branch Post Office,795129,,nil,SENAPATI,MANIPUR,MANIPUR,NORTH EASTERN,NORTH EASTERN
Sorang Phung B.O,Branch Post Office,795142,,nil,UKHRUL,MANIPUR,MANIPUR,NORTH EASTERN,NORTH EASTERN
Sorde B.O,Branch Post Office,795145,,nil,UKHRUL,MANIPUR,MANIPUR,NORTH EASTERN,NORTH EASTERN
T.C. Ground B.O,Branch Post Office,795142,,nil,UKHRUL,MANIPUR,MANIPUR,NORTH EASTERN,NORTH EASTERN
Thawai B.O,Branch Post Office,795145,,nil,UKHRUL,MANIPUR,MANIPUR,NORTH EASTERN,NORTH EASTERN
Thiwa B.O,Branch Post Office,795144,,Nil,UKHRUL,MANIPUR,MANIPUR,NORTH EASTERN,NORTH EASTERN
Tolloi B.O,Branch Post Office,795142,,nil,UKHRUL,MANIPUR,MANIPUR,NORTH EASTERN,NORTH EASTERN
Tuinem B.O,Branch Post Office,795142,,nil,UKHRUL,MANIPUR,MANIPUR,NORTH EASTERN,NORTH EASTERN
Tungou B.O,Branch Post Office,795142,,nil,UKHRUL,MANIPUR,MANIPUR,NORTH EASTERN,NORTH EASTERN
Tushem B.O,Branch Post Office,795142,,nil,UKHRUL,MANIPUR,MANIPUR,NORTH EASTERN,NORTH EASTERN
Ukhrul S.O,Sub Post Office,795142,,Nil,UKHRUL,MANIPUR,MANIPUR,NORTH EASTERN,NORTH EASTERN
Yangangpokpi B.O,Branch Post Office,795145,,nil,UKHRUL,MANIPUR,MANIPUR,NORTH EASTERN,NORTH EASTERN
