OFFICE NAME,OFFICE STATUS,PINCODE,TELEPHONE NO.,TALUK,DISTRICT,STATE/U.T.,POSTAL DIVISION,POSTAL REGION,POSTAL CIRCLE
                                                                                                            ,,                                          (THE INFORMATION IS SORTED DISTRICT AND TALUK WISE),,,,,,,
,,,,,,,,,
Jadigitim B.O,Branch Post Office,794107,,NANGWALBIBRA,EAST GARO HILLS,MEGHALAYA,MEGHALAYA,SHILLONG HQ,NORTH EASTERN
Dagal B.O,Branch Post Office,794108,,RESUBELPARA,EAST GARO HILLS,MEGHALAYA,MEGHALAYA,SHILLONG HQ,NORTH EASTERN
Daram B.O,Branch Post Office,794108,,RESUBELPARA,EAST GARO HILLS,MEGHALAYA,MEGHALAYA,SHILLONG HQ,NORTH EASTERN
Haluapara B.O,Branch Post Office,794108,,RESUBELPARA,EAST GARO HILLS,MEGHALAYA,MEGHALAYA,SHILLONG HQ,NORTH EASTERN
Rongrong B.O,Branch Post Office,794108,,RESUBELPARA,EAST GARO HILLS,MEGHALAYA,MEGHALAYA,SHILLONG HQ,NORTH EASTERN
Thapa B.O,Branch Post Office,794108,,RESUBELPARA,EAST GARO HILLS,MEGHALAYA,MEGHALAYA,SHILLONG HQ,NORTH EASTERN
Dabu B.O,Branch Post Office,794110,,RONGJENG,EAST GARO HILLS,MEGHALAYA,MEGHALAYA,SHILLONG HQ,NORTH EASTERN
Dainadubi B.O,Branch Post Office,794110,,RONGJENG,EAST GARO HILLS,MEGHALAYA,MEGHALAYA,SHILLONG HQ,NORTH EASTERN
Darugiri B.O,Branch Post Office,794110,,RONGJENG,EAST GARO HILLS,MEGHALAYA,MEGHALAYA,SHILLONG HQ,NORTH EASTERN
Gairong B.O,Branch Post Office,794110,,RONGJENG,EAST GARO HILLS,MEGHALAYA,MEGHALAYA,SHILLONG HQ,NORTH EASTERN
Mangsang B.O,Branch Post Office,794110,,RONGJENG,EAST GARO HILLS,MEGHALAYA,MEGHALAYA,SHILLONG HQ,NORTH EASTERN
Nongcharan B.O,Branch Post Office,794110,,RONGJENG,EAST GARO HILLS,MEGHALAYA,MEGHALAYA,SHILLONG HQ,NORTH EASTERN
Ronga Agal B.O,Branch Post Office,794110,,RONGJENG,EAST GARO HILLS,MEGHALAYA,MEGHALAYA,SHILLONG HQ,NORTH EASTERN
Rongchek Akhong B.O,Branch Post Office,794110,,RONGJENG,EAST GARO HILLS,MEGHALAYA,MEGHALAYA,SHILLONG HQ,NORTH EASTERN
Rongjeng S.O,Sub Post Office,794110,,RONGJENG,EAST GARO HILLS,MEGHALAYA,MEGHALAYA,SHILLONG HQ,NORTH EASTERN
Rongmil B.O,Branch Post Office,794110,,RONGJENG,EAST GARO HILLS,MEGHALAYA,MEGHALAYA,SHILLONG HQ,NORTH EASTERN
Wagachi B.O,Branch Post Office,794110,,RONGJENG,EAST GARO HILLS,MEGHALAYA,MEGHALAYA,SHILLONG HQ,NORTH EASTERN
Dokangsi B.O,Branch Post Office,794110,,RONJENG,EAST GARO HILLS,MEGHALAYA,MEGHALAYA,SHILLONG HQ,NORTH EASTERN
Gambil B.O,Branch Post Office,794110,,RONJENG,EAST GARO HILLS,MEGHALAYA,MEGHALAYA,SHILLONG HQ,NORTH EASTERN
Balkinigiri B.O,Branch Post Office,794111,,WILLIAMNAGAR,EAST GARO HILLS,MEGHALAYA,MEGHALAYA,SHILLONG HQ,NORTH EASTERN
Rombagiri B.O,Branch Post Office,794111,,WILLIAMNAGAR,EAST GARO HILLS,MEGHALAYA,MEGHALAYA,SHILLONG HQ,NORTH EASTERN
Rongrengiri B.O,Branch Post Office,794111,,WILLIAMNAGAR,EAST GARO HILLS,MEGHALAYA,MEGHALAYA,SHILLONG HQ,NORTH EASTERN
Rongsakgiri B.O,Branch Post Office,794111,,WILLIAMNAGAR,EAST GARO HILLS,MEGHALAYA,MEGHALAYA,SHILLONG HQ,NORTH EASTERN
Sakhadongiri B.O,Branch Post Office,794111,,WILLIAMNAGAR,EAST GARO HILLS,MEGHALAYA,MEGHALAYA,SHILLONG HQ,NORTH EASTERN
Samanda B.O,Branch Post Office,794111,,WILLIAMNAGAR,EAST GARO HILLS,MEGHALAYA,MEGHALAYA,SHILLONG HQ,NORTH EASTERN
Songsak B.O,Branch Post Office,794111,,WILLIAMNAGAR,EAST GARO HILLS,MEGHALAYA,MEGHALAYA,SHILLONG HQ,NORTH EASTERN
Williamnagar S.O,Sub Post Office,794111,,WILLIAMNAGAR,EAST GARO HILLS,MEGHALAYA,MEGHALAYA,SHILLONG HQ,NORTH EASTERN
Tynger B.O,Branch Post Office,793113,, MAWSYNRAM,EAST KHASI HILLS,MEGHALAYA,MEGHALAYA,SHILLONG HQ,NORTH EASTERN
Gumaghat B.O,Branch Post Office,793106,,.,EAST KHASI HILLS,MEGHALAYA,MEGHALAYA,SHILLONG HQ,NORTH EASTERN
Khonjoy B.O,Branch Post Office,793106,,.,EAST KHASI HILLS,MEGHALAYA,MEGHALAYA,SHILLONG HQ,NORTH EASTERN
Makali B.O,Branch Post Office,793106,,.,EAST KHASI HILLS,MEGHALAYA,MEGHALAYA,SHILLONG HQ,NORTH EASTERN
Mawput B.O,Branch Post Office,793106,,.,EAST KHASI HILLS,MEGHALAYA,MEGHALAYA,SHILLONG HQ,NORTH EASTERN
Munai B.O,Branch Post Office,793106,,.,EAST KHASI HILLS,MEGHALAYA,MEGHALAYA,SHILLONG HQ,NORTH EASTERN
Neigrihms S.O,Sub Post Office,793018,,.,EAST KHASI HILLS,MEGHALAYA,MEGHALAYA,SHILLONG HQ,NORTH EASTERN
Pyndeng Sohsaw B.O,Branch Post Office,793106,,.,EAST KHASI HILLS,MEGHALAYA,MEGHALAYA,SHILLONG HQ,NORTH EASTERN
Sonatola B.O,Branch Post Office,793106,,.,EAST KHASI HILLS,MEGHALAYA,MEGHALAYA,SHILLONG HQ,NORTH EASTERN
Telsora B.O,Branch Post Office,793106,,.,EAST KHASI HILLS,MEGHALAYA,MEGHALAYA,SHILLONG HQ,NORTH EASTERN
Trangpleng B.O,Branch Post Office,793106,,.,EAST KHASI HILLS,MEGHALAYA,MEGHALAYA,SHILLONG HQ,NORTH EASTERN
Wahkdait B.O,Branch Post Office,793109,,.,EAST KHASI HILLS,MEGHALAYA,MEGHALAYA,SHILLONG HQ,NORTH EASTERN
Balat S.O,Sub Post Office,793106,,BALAT,EAST KHASI HILLS,MEGHALAYA,MEGHALAYA,SHILLONG HQ,NORTH EASTERN
Dholai B.O,Branch Post Office,793106,,BALAT,EAST KHASI HILLS,MEGHALAYA,MEGHALAYA,SHILLONG HQ,NORTH EASTERN
Bholaganj Bazar S.O,Sub Post Office,793107,,BHOLAGANJ BAZAR,EAST KHASI HILLS,MEGHALAYA,MEGHALAYA,SHILLONG HQ,NORTH EASTERN
Cherrabazar S.O,Sub Post Office,793111,,CHERRABAZAR,EAST KHASI HILLS,MEGHALAYA,MEGHALAYA,SHILLONG HQ,NORTH EASTERN
Ladmawphlang B.O,Branch Post Office,793111,,CHERRABAZAR,EAST KHASI HILLS,MEGHALAYA,MEGHALAYA,SHILLONG HQ,NORTH EASTERN
Laitduh B.O,Branch Post Office,793111,,CHERRABAZAR,EAST KHASI HILLS,MEGHALAYA,MEGHALAYA,SHILLONG HQ,NORTH EASTERN
Laitryngew B.O,Branch Post Office,793111,,CHERRABAZAR,EAST KHASI HILLS,MEGHALAYA,MEGHALAYA,SHILLONG HQ,NORTH EASTERN
Mawkdok B.O,Branch Post Office,793111,,CHERRABAZAR,EAST KHASI HILLS,MEGHALAYA,MEGHALAYA,SHILLONG HQ,NORTH EASTERN
Ramdait B.O,Branch Post Office,793111,,CHERRABAZAR,EAST KHASI HILLS,MEGHALAYA,MEGHALAYA,SHILLONG HQ,NORTH EASTERN
Tynrong B.O,Branch Post Office,793111,,CHERRABAZAR,EAST KHASI HILLS,MEGHALAYA,MEGHALAYA,SHILLONG HQ,NORTH EASTERN
Cherrapunjee S.O,Sub Post Office,793108,,CHERRAPUNJEE,EAST KHASI HILLS,MEGHALAYA,MEGHALAYA,SHILLONG HQ,NORTH EASTERN
Laitkynsew B.O,Branch Post Office,793108,,CHERRAPUNJEE,EAST KHASI HILLS,MEGHALAYA,MEGHALAYA,SHILLONG HQ,NORTH EASTERN
Mahadeo B.O,Branch Post Office,793108,,CHERRAPUNJEE,EAST KHASI HILLS,MEGHALAYA,MEGHALAYA,SHILLONG HQ,NORTH EASTERN
Mawblang B.O,Branch Post Office,793108,,CHERRAPUNJEE,EAST KHASI HILLS,MEGHALAYA,MEGHALAYA,SHILLONG HQ,NORTH EASTERN
Mawlong B.O,Branch Post Office,793108,,CHERRAPUNJEE,EAST KHASI HILLS,MEGHALAYA,MEGHALAYA,SHILLONG HQ,NORTH EASTERN
Mawmluh B.O,Branch Post Office,793108,,CHERRAPUNJEE,EAST KHASI HILLS,MEGHALAYA,MEGHALAYA,SHILLONG HQ,NORTH EASTERN
Sohbarpunjee B.O,Branch Post Office,793108,,CHERRAPUNJEE,EAST KHASI HILLS,MEGHALAYA,MEGHALAYA,SHILLONG HQ,NORTH EASTERN
Sohkmie B.O,Branch Post Office,793108,,CHERRAPUNJEE,EAST KHASI HILLS,MEGHALAYA,MEGHALAYA,SHILLONG HQ,NORTH EASTERN
Tyrna B.O,Branch Post Office,793108,,CHERRAPUNJEE,EAST KHASI HILLS,MEGHALAYA,MEGHALAYA,SHILLONG HQ,NORTH EASTERN
Wahlong B.O,Branch Post Office,793108,,CHERRAPUNJEE,EAST KHASI HILLS,MEGHALAYA,MEGHALAYA,SHILLONG HQ,NORTH EASTERN
Dawki S.O,Sub Post Office,793109,,DAWKI,EAST KHASI HILLS,MEGHALAYA,MEGHALAYA,SHILLONG HQ,NORTH EASTERN
Umsyiem B.O,Branch Post Office,793109,,DAWKI,EAST KHASI HILLS,MEGHALAYA,MEGHALAYA,SHILLONG HQ,NORTH EASTERN
Lawsohtun B.O,Branch Post Office,793004,,LABAN,EAST KHASI HILLS,MEGHALAYA,MEGHALAYA,SHILLONG HQ,NORTH EASTERN
Laitkor B.O,Branch Post Office,793010,,LAITKOR PEAK,EAST KHASI HILLS,MEGHALAYA,MEGHALAYA,SHILLONG HQ,NORTH EASTERN
Pomlakrai B.O,Branch Post Office,793010,,LAITKOR PEAK,EAST KHASI HILLS,MEGHALAYA,MEGHALAYA,SHILLONG HQ,NORTH EASTERN
Kynton - U - Mon B.O,Branch Post Office,793021,,MADANRITING,EAST KHASI HILLS,MEGHALAYA,MEGHALAYA,SHILLONG HQ,NORTH EASTERN
Mawryngkneng B.O,Branch Post Office,793021,,MADANRITING,EAST KHASI HILLS,MEGHALAYA,MEGHALAYA,SHILLONG HQ,NORTH EASTERN
Pamora B.O,Branch Post Office,793021,,MADANRITING,EAST KHASI HILLS,MEGHALAYA,MEGHALAYA,SHILLONG HQ,NORTH EASTERN
Puriang B.O,Branch Post Office,793021,,MADANRITING,EAST KHASI HILLS,MEGHALAYA,MEGHALAYA,SHILLONG HQ,NORTH EASTERN
Kynton Massar B.O,Branch Post Office,793022,,MAWLAI,EAST KHASI HILLS,MEGHALAYA,MEGHALAYA,SHILLONG HQ,NORTH EASTERN
Mawroh B.O,Branch Post Office,793008,,MAWLAI,EAST KHASI HILLS,MEGHALAYA,MEGHALAYA,SHILLONG HQ,NORTH EASTERN
Mawtawar B.O,Branch Post Office,793022,,MAWLAI,EAST KHASI HILLS,MEGHALAYA,MEGHALAYA,SHILLONG HQ,NORTH EASTERN
Diengpasoh B.O,Branch Post Office,793012,,MAWPAT,EAST KHASI HILLS,MEGHALAYA,MEGHALAYA,SHILLONG HQ,NORTH EASTERN
Mawkhanu B.O,Branch Post Office,793012,,MAWPAT,EAST KHASI HILLS,MEGHALAYA,MEGHALAYA,SHILLONG HQ,NORTH EASTERN
Tynring B.O,Branch Post Office,793012,,MAWPAT,EAST KHASI HILLS,MEGHALAYA,MEGHALAYA,SHILLONG HQ,NORTH EASTERN
Lyngiong B.O,Branch Post Office,793121,,MAWPHLANG,EAST KHASI HILLS,MEGHALAYA,MEGHALAYA,SHILLONG HQ,NORTH EASTERN
Madan Bitaw B.O,Branch Post Office,793121,,MAWPHLANG,EAST KHASI HILLS,MEGHALAYA,MEGHALAYA,SHILLONG HQ,NORTH EASTERN
Marbisu B.O,Branch Post Office,793121,,MAWPHLANG,EAST KHASI HILLS,MEGHALAYA,MEGHALAYA,SHILLONG HQ,NORTH EASTERN
Mawkriah B.O,Branch Post Office,793121,,MAWPHLANG,EAST KHASI HILLS,MEGHALAYA,MEGHALAYA,SHILLONG HQ,NORTH EASTERN
Mawngap B.O,Branch Post Office,793121,,MAWPHLANG,EAST KHASI HILLS,MEGHALAYA,MEGHALAYA,SHILLONG HQ,NORTH EASTERN
Mawphlang S.O,Sub Post Office,793121,,MAWPHLANG,EAST KHASI HILLS,MEGHALAYA,MEGHALAYA,SHILLONG HQ,NORTH EASTERN
Mawpun B.O,Branch Post Office,793121,,MAWPHLANG,EAST KHASI HILLS,MEGHALAYA,MEGHALAYA,SHILLONG HQ,NORTH EASTERN
Mawreng B.O,Branch Post Office,793121,,MAWPHLANG,EAST KHASI HILLS,MEGHALAYA,MEGHALAYA,SHILLONG HQ,NORTH EASTERN
Nongspung B.O,Branch Post Office,793121,,MAWPHLANG,EAST KHASI HILLS,MEGHALAYA,MEGHALAYA,SHILLONG HQ,NORTH EASTERN
Pongkung B.O,Branch Post Office,793121,,MAWPHLANG,EAST KHASI HILLS,MEGHALAYA,MEGHALAYA,SHILLONG HQ,NORTH EASTERN
Rangshken B.O,Branch Post Office,793121,,MAWPHLANG,EAST KHASI HILLS,MEGHALAYA,MEGHALAYA,SHILLONG HQ,NORTH EASTERN
Sohiong B.O,Branch Post Office,793121,,MAWPHLANG,EAST KHASI HILLS,MEGHALAYA,MEGHALAYA,SHILLONG HQ,NORTH EASTERN
Sohpian B.O,Branch Post Office,793121,,MAWPHLANG,EAST KHASI HILLS,MEGHALAYA,MEGHALAYA,SHILLONG HQ,NORTH EASTERN
Tyrsad B.O,Branch Post Office,793121,,MAWPHLANG,EAST KHASI HILLS,MEGHALAYA,MEGHALAYA,SHILLONG HQ,NORTH EASTERN
Weiloi B.O,Branch Post Office,793121,,MAWPHLANG,EAST KHASI HILLS,MEGHALAYA,MEGHALAYA,SHILLONG HQ,NORTH EASTERN
Lawbah B.O,Branch Post Office,793113,,MAWSYNRAM,EAST KHASI HILLS,MEGHALAYA,MEGHALAYA,SHILLONG HQ,NORTH EASTERN
Mawdongbazar B.O,Branch Post Office,793113,,MAWSYNRAM,EAST KHASI HILLS,MEGHALAYA,MEGHALAYA,SHILLONG HQ,NORTH EASTERN
Mawhiang B.O,Branch Post Office,793113,,MAWSYNRAM,EAST KHASI HILLS,MEGHALAYA,MEGHALAYA,SHILLONG HQ,NORTH EASTERN
Mawsynram S.O,Sub Post Office,793113,,MAWSYNRAM,EAST KHASI HILLS,MEGHALAYA,MEGHALAYA,SHILLONG HQ,NORTH EASTERN
Phlang Mawsyrpat B.O,Branch Post Office,793113,,MAWSYNRAM,EAST KHASI HILLS,MEGHALAYA,MEGHALAYA,SHILLONG HQ,NORTH EASTERN
Phlangwanbroi B.O,Branch Post Office,793113,,MAWSYNRAM,EAST KHASI HILLS,MEGHALAYA,MEGHALAYA,SHILLONG HQ,NORTH EASTERN
Ryngkubazar B.O,Branch Post Office,793113,,MAWSYNRAM,EAST KHASI HILLS,MEGHALAYA,MEGHALAYA,SHILLONG HQ,NORTH EASTERN
Syntein B.O,Branch Post Office,793113,,MAWSYNRAM,EAST KHASI HILLS,MEGHALAYA,MEGHALAYA,SHILLONG HQ,NORTH EASTERN
Thyllaw B.O,Branch Post Office,793113,,MAWSYNRAM,EAST KHASI HILLS,MEGHALAYA,MEGHALAYA,SHILLONG HQ,NORTH EASTERN
Mawklot B.O,Branch Post Office,793009,,NONGLYER,EAST KHASI HILLS,MEGHALAYA,MEGHALAYA,SHILLONG HQ,NORTH EASTERN
Mylliem Syllai U Lar B.O,Branch Post Office,793009,,NONGLYER,EAST KHASI HILLS,MEGHALAYA,MEGHALAYA,SHILLONG HQ,NORTH EASTERN
Iewmawiong B.O,Branch Post Office,793110,,PYNURSLA,EAST KHASI HILLS,MEGHALAYA,MEGHALAYA,SHILLONG HQ,NORTH EASTERN
Laitlyngkot B.O,Branch Post Office,793110,,PYNURSLA,EAST KHASI HILLS,MEGHALAYA,MEGHALAYA,SHILLONG HQ,NORTH EASTERN
Langkyrdem B.O,Branch Post Office,793110,,PYNURSLA,EAST KHASI HILLS,MEGHALAYA,MEGHALAYA,SHILLONG HQ,NORTH EASTERN
Mawbeh B.O,Branch Post Office,793110,,PYNURSLA,EAST KHASI HILLS,MEGHALAYA,MEGHALAYA,SHILLONG HQ,NORTH EASTERN
Myllat B.O,Branch Post Office,793110,,PYNURSLA,EAST KHASI HILLS,MEGHALAYA,MEGHALAYA,SHILLONG HQ,NORTH EASTERN
Nongjri B.O,Branch Post Office,793110,,PYNURSLA,EAST KHASI HILLS,MEGHALAYA,MEGHALAYA,SHILLONG HQ,NORTH EASTERN
Nongkynrih B.O,Branch Post Office,793110,,PYNURSLA,EAST KHASI HILLS,MEGHALAYA,MEGHALAYA,SHILLONG HQ,NORTH EASTERN
Pynursla S.O,Sub Post Office,793110,,PYNURSLA,EAST KHASI HILLS,MEGHALAYA,MEGHALAYA,SHILLONG HQ,NORTH EASTERN
Umniuh - Tmar B.O,Branch Post Office,793110,,PYNURSLA,EAST KHASI HILLS,MEGHALAYA,MEGHALAYA,SHILLONG HQ,NORTH EASTERN
Wahshiarkhmut B.O,Branch Post Office,793110,,PYNURSLA,EAST KHASI HILLS,MEGHALAYA,MEGHALAYA,SHILLONG HQ,NORTH EASTERN
Umkdait B.O,Branch Post Office,793006,,RYNJAH,EAST KHASI HILLS,MEGHALAYA,MEGHALAYA,SHILLONG HQ,NORTH EASTERN
Dalia B.O,Branch Post Office,793112,,SHELLA,EAST KHASI HILLS,MEGHALAYA,MEGHALAYA,SHILLONG HQ,NORTH EASTERN
Disong B.O,Branch Post Office,793112,,SHELLA,EAST KHASI HILLS,MEGHALAYA,MEGHALAYA,SHILLONG HQ,NORTH EASTERN
Ichamati B.O,Branch Post Office,793112,,SHELLA,EAST KHASI HILLS,MEGHALAYA,MEGHALAYA,SHILLONG HQ,NORTH EASTERN
Kalatak B.O,Branch Post Office,793112,,SHELLA,EAST KHASI HILLS,MEGHALAYA,MEGHALAYA,SHILLONG HQ,NORTH EASTERN
Shella S.O,Sub Post Office,793112,,SHELLA,EAST KHASI HILLS,MEGHALAYA,MEGHALAYA,SHILLONG HQ,NORTH EASTERN
Assam Rifles S.O,Sub Post Office,793011,,SHILLONG,EAST KHASI HILLS,MEGHALAYA,MEGHALAYA,SHILLONG HQ,NORTH EASTERN
Bishnupur B.O,Branch Post Office,793004,,SHILLONG,EAST KHASI HILLS,MEGHALAYA,MEGHALAYA,SHILLONG HQ,NORTH EASTERN
Happy Valley S.O,Sub Post Office,793007,,SHILLONG,EAST KHASI HILLS,MEGHALAYA,MEGHALAYA,SHILLONG HQ,NORTH EASTERN
Iewduh S.O,Sub Post Office,793002,,SHILLONG,EAST KHASI HILLS,MEGHALAYA,MEGHALAYA,SHILLONG HQ,NORTH EASTERN
Jaiaw S.O,Sub Post Office,793002,,SHILLONG,EAST KHASI HILLS,MEGHALAYA,MEGHALAYA,SHILLONG HQ,NORTH EASTERN
Laban S.O,Sub Post Office,793004,0364-2227900,SHILLONG,EAST KHASI HILLS,MEGHALAYA,MEGHALAYA,SHILLONG HQ,NORTH EASTERN
Laitkor Peak S.O,Sub Post Office,793010,,SHILLONG,EAST KHASI HILLS,MEGHALAYA,MEGHALAYA,SHILLONG HQ,NORTH EASTERN
Laitumkhrah S.O,Sub Post Office,793003,,SHILLONG,EAST KHASI HILLS,MEGHALAYA,MEGHALAYA,SHILLONG HQ,NORTH EASTERN
Madanriting S.O,Sub Post Office,793021,,SHILLONG,EAST KHASI HILLS,MEGHALAYA,MEGHALAYA,SHILLONG HQ,NORTH EASTERN
Mawiong S.O,Sub Post Office,793016,,SHILLONG,EAST KHASI HILLS,MEGHALAYA,MEGHALAYA,SHILLONG HQ,NORTH EASTERN
Mawlai S.O,Sub Post Office,793017,,SHILLONG,EAST KHASI HILLS,MEGHALAYA,MEGHALAYA,SHILLONG HQ,NORTH EASTERN
Mawpat S.O,Sub Post Office,793012,,SHILLONG,EAST KHASI HILLS,MEGHALAYA,MEGHALAYA,SHILLONG HQ,NORTH EASTERN
Meghalaya Secretariat S.O,Sub Post Office,793001,,SHILLONG,EAST KHASI HILLS,MEGHALAYA,MEGHALAYA,SHILLONG HQ,NORTH EASTERN
Nehu S.O,Sub Post Office,793022,,SHILLONG,EAST KHASI HILLS,MEGHALAYA,MEGHALAYA,SHILLONG HQ,NORTH EASTERN
Nonglyer S.O,Sub Post Office,793009,,SHILLONG,EAST KHASI HILLS,MEGHALAYA,MEGHALAYA,SHILLONG HQ,NORTH EASTERN
Nongmynsong B.O,Branch Post Office,793011,,SHILLONG,EAST KHASI HILLS,MEGHALAYA,MEGHALAYA,SHILLONG HQ,NORTH EASTERN
Nongthymmai S.O,Sub Post Office,793014,,SHILLONG,EAST KHASI HILLS,MEGHALAYA,MEGHALAYA,SHILLONG HQ,NORTH EASTERN
Oakland S.O,Sub Post Office,793001,,SHILLONG,EAST KHASI HILLS,MEGHALAYA,MEGHALAYA,SHILLONG HQ,NORTH EASTERN
Phudmawri S.O,Sub Post Office,793008,,SHILLONG,EAST KHASI HILLS,MEGHALAYA,MEGHALAYA,SHILLONG HQ,NORTH EASTERN
Rilbong S.O,Sub Post Office,793004,,SHILLONG,EAST KHASI HILLS,MEGHALAYA,MEGHALAYA,SHILLONG HQ,NORTH EASTERN
Rynjah S.O,Sub Post Office,793006,,SHILLONG,EAST KHASI HILLS,MEGHALAYA,MEGHALAYA,SHILLONG HQ,NORTH EASTERN
Shillong G.P.O. ,Head Post Office,793001,,SHILLONG,EAST KHASI HILLS,MEGHALAYA,MEGHALAYA,SHILLONG HQ,NORTH EASTERN
Smit S.O,Sub Post Office,793015,,SHILLONG,EAST KHASI HILLS,MEGHALAYA,MEGHALAYA,SHILLONG HQ,NORTH EASTERN
Upper Shillong S.O,Sub Post Office,793005,,SHILLONG,EAST KHASI HILLS,MEGHALAYA,MEGHALAYA,SHILLONG HQ,NORTH EASTERN
Jongksha B.O,Branch Post Office,793015,,SMIT,EAST KHASI HILLS,MEGHALAYA,MEGHALAYA,SHILLONG HQ,NORTH EASTERN
Kharang B.O,Branch Post Office,793015,,SMIT,EAST KHASI HILLS,MEGHALAYA,MEGHALAYA,SHILLONG HQ,NORTH EASTERN
Lynshing B.O,Branch Post Office,793015,,SMIT,EAST KHASI HILLS,MEGHALAYA,MEGHALAYA,SHILLONG HQ,NORTH EASTERN
Mawkynrew B.O,Branch Post Office,793015,,SMIT,EAST KHASI HILLS,MEGHALAYA,MEGHALAYA,SHILLONG HQ,NORTH EASTERN
Mawlat B.O,Branch Post Office,793015,,SMIT,EAST KHASI HILLS,MEGHALAYA,MEGHALAYA,SHILLONG HQ,NORTH EASTERN
Mawlong B.O,Branch Post Office,793015,,SMIT,EAST KHASI HILLS,MEGHALAYA,MEGHALAYA,SHILLONG HQ,NORTH EASTERN
Mawlyngngad B.O,Branch Post Office,793015,,SMIT,EAST KHASI HILLS,MEGHALAYA,MEGHALAYA,SHILLONG HQ,NORTH EASTERN
Nongkrem B.O,Branch Post Office,793015,,SMIT,EAST KHASI HILLS,MEGHALAYA,MEGHALAYA,SHILLONG HQ,NORTH EASTERN
Ryngibah B.O,Branch Post Office,793015,,SMIT,EAST KHASI HILLS,MEGHALAYA,MEGHALAYA,SHILLONG HQ,NORTH EASTERN
Sohryngkham B.O,Branch Post Office,793015,,SMIT,EAST KHASI HILLS,MEGHALAYA,MEGHALAYA,SHILLONG HQ,NORTH EASTERN
Thangsning B.O,Branch Post Office,793015,,SMIT,EAST KHASI HILLS,MEGHALAYA,MEGHALAYA,SHILLONG HQ,NORTH EASTERN
Thynroit B.O,Branch Post Office,793015,,SMIT,EAST KHASI HILLS,MEGHALAYA,MEGHALAYA,SHILLONG HQ,NORTH EASTERN
Umphyrnai B.O,Branch Post Office,793015,,SMIT,EAST KHASI HILLS,MEGHALAYA,MEGHALAYA,SHILLONG HQ,NORTH EASTERN
Umsning B.O,Branch Post Office,793015,,SMIT,EAST KHASI HILLS,MEGHALAYA,MEGHALAYA,SHILLONG HQ,NORTH EASTERN
Sumer S.O,Sub Post Office,793104,,SUMER,EAST KHASI HILLS,MEGHALAYA,MEGHALAYA,SHILLONG HQ,NORTH EASTERN
Diengiei B.O,Branch Post Office,793005,,UPPER SHILLONG,EAST KHASI HILLS,MEGHALAYA,MEGHALAYA,SHILLONG HQ,NORTH EASTERN
Nongumlong B.O,Branch Post Office,793005,,UPPER SHILLONG,EAST KHASI HILLS,MEGHALAYA,MEGHALAYA,SHILLONG HQ,NORTH EASTERN
Khatum B.O,Branch Post Office,793200,,.,JAINTIA HILLS,MEGHALAYA,MEGHALAYA,SHILLONG HQ,NORTH EASTERN
Umkiang B.O,Branch Post Office,793200,,.,JAINTIA HILLS,MEGHALAYA,MEGHALAYA,SHILLONG HQ,NORTH EASTERN
Yalang B.O,Branch Post Office,793150,,.,JAINTIA HILLS,MEGHALAYA,MEGHALAYA,SHILLONG HQ,NORTH EASTERN
Amlari B.O,Branch Post Office,793109,,DAWKI,JAINTIA HILLS,MEGHALAYA,MEGHALAYA,SHILLONG HQ,NORTH EASTERN
Darrang B.O,Branch Post Office,793109,,DAWKI,JAINTIA HILLS,MEGHALAYA,MEGHALAYA,SHILLONG HQ,NORTH EASTERN
Lamin B.O,Branch Post Office,793109,,DAWKI,JAINTIA HILLS,MEGHALAYA,MEGHALAYA,SHILLONG HQ,NORTH EASTERN
Lyngkhat B.O,Branch Post Office,793109,,DAWKI,JAINTIA HILLS,MEGHALAYA,MEGHALAYA,SHILLONG HQ,NORTH EASTERN
Muktapur B.O,Branch Post Office,793109,,DAWKI,JAINTIA HILLS,MEGHALAYA,MEGHALAYA,SHILLONG HQ,NORTH EASTERN
Naljuri B.O,Branch Post Office,793109,,DAWKI,JAINTIA HILLS,MEGHALAYA,MEGHALAYA,SHILLONG HQ,NORTH EASTERN
Nongbareh B.O,Branch Post Office,793109,,DAWKI,JAINTIA HILLS,MEGHALAYA,MEGHALAYA,SHILLONG HQ,NORTH EASTERN
Nongtalang B.O,Branch Post Office,793109,,DAWKI,JAINTIA HILLS,MEGHALAYA,MEGHALAYA,SHILLONG HQ,NORTH EASTERN
Nongtyngur B.O,Branch Post Office,793109,,DAWKI,JAINTIA HILLS,MEGHALAYA,MEGHALAYA,SHILLONG HQ,NORTH EASTERN
Padu B.O,Branch Post Office,793109,,DAWKI,JAINTIA HILLS,MEGHALAYA,MEGHALAYA,SHILLONG HQ,NORTH EASTERN
Pamshutia B.O,Branch Post Office,793109,,DAWKI,JAINTIA HILLS,MEGHALAYA,MEGHALAYA,SHILLONG HQ,NORTH EASTERN
Passadwar B.O,Branch Post Office,793109,,DAWKI,JAINTIA HILLS,MEGHALAYA,MEGHALAYA,SHILLONG HQ,NORTH EASTERN
Pongtung B.O,Branch Post Office,793109,,DAWKI,JAINTIA HILLS,MEGHALAYA,MEGHALAYA,SHILLONG HQ,NORTH EASTERN
Rongkhum B.O,Branch Post Office,793109,,DAWKI,JAINTIA HILLS,MEGHALAYA,MEGHALAYA,SHILLONG HQ,NORTH EASTERN
Sohkha B.O,Branch Post Office,793109,,DAWKI,JAINTIA HILLS,MEGHALAYA,MEGHALAYA,SHILLONG HQ,NORTH EASTERN
Syndai B.O,Branch Post Office,793109,,DAWKI,JAINTIA HILLS,MEGHALAYA,MEGHALAYA,SHILLONG HQ,NORTH EASTERN
Amlarem B.O,Branch Post Office,793150,,JOWAI,JAINTIA HILLS,MEGHALAYA,MEGHALAYA,SHILLONG HQ,NORTH EASTERN
Barato B.O,Branch Post Office,793150,,JOWAI,JAINTIA HILLS,MEGHALAYA,MEGHALAYA,SHILLONG HQ,NORTH EASTERN
Iawthymmai B.O,Branch Post Office,793150,,JOWAI,JAINTIA HILLS,MEGHALAYA,MEGHALAYA,SHILLONG HQ,NORTH EASTERN
Jarain B.O,Branch Post Office,793150,,JOWAI,JAINTIA HILLS,MEGHALAYA,MEGHALAYA,SHILLONG HQ,NORTH EASTERN
Jowai S.O,Sub Post Office,793150,03652-220888,JOWAI,JAINTIA HILLS,MEGHALAYA,MEGHALAYA,SHILLONG HQ,NORTH EASTERN
Raksamgiri B.O,Branch Post Office,794109,,TIKRIKILLA,WEST GARO HILLS,MEGHALAYA,MEGHALAYA,SHILLONG HQ,NORTH EASTERN
Tikrikilla S.O,Sub Post Office,794109,,TIKRIKILLA,WEST GARO HILLS,MEGHALAYA,MEGHALAYA,SHILLONG HQ,NORTH EASTERN
Tura H.O,Head Post Office,794001,,TURA,WEST GARO HILLS,MEGHALAYA,MEGHALAYA,SHILLONG HQ,NORTH EASTERN
Nongnah B.O,Branch Post Office,793106,,.,WEST KHASI HILLS,MEGHALAYA,MEGHALAYA,SHILLONG HQ,NORTH EASTERN
Puksora B.O,Branch Post Office,793106,,.,WEST KHASI HILLS,MEGHALAYA,MEGHALAYA,SHILLONG HQ,NORTH EASTERN
Rajapara B.O,Branch Post Office,793106,,.,WEST KHASI HILLS,MEGHALAYA,MEGHALAYA,SHILLONG HQ,NORTH EASTERN
Ranikor B.O,Branch Post Office,793106,,.,WEST KHASI HILLS,MEGHALAYA,MEGHALAYA,SHILLONG HQ,NORTH EASTERN
Rongasora B.O,Branch Post Office,793106,,.,WEST KHASI HILLS,MEGHALAYA,MEGHALAYA,SHILLONG HQ,NORTH EASTERN
Sarin B.O,Branch Post Office,793106,,.,WEST KHASI HILLS,MEGHALAYA,MEGHALAYA,SHILLONG HQ,NORTH EASTERN
Umpung B.O,Branch Post Office,793106,,.,WEST KHASI HILLS,MEGHALAYA,MEGHALAYA,SHILLONG HQ,NORTH EASTERN
Borsora B.O,Branch Post Office,793106,,BALAT,WEST KHASI HILLS,MEGHALAYA,MEGHALAYA,SHILLONG HQ,NORTH EASTERN
Dungki - Ingdong B.O,Branch Post Office,793120,,MAIRANG,WEST KHASI HILLS,MEGHALAYA,MEGHALAYA,SHILLONG HQ,NORTH EASTERN
Iewmaroid B.O,Branch Post Office,793120,,MAIRANG,WEST KHASI HILLS,MEGHALAYA,MEGHALAYA,SHILLONG HQ,NORTH EASTERN
Khlieh Lyngkhoi B.O,Branch Post Office,793120,,MAIRANG,WEST KHASI HILLS,MEGHALAYA,MEGHALAYA,SHILLONG HQ,NORTH EASTERN
Kynrut B.O,Branch Post Office,793120,,MAIRANG,WEST KHASI HILLS,MEGHALAYA,MEGHALAYA,SHILLONG HQ,NORTH EASTERN
Kynshi B.O,Branch Post Office,793120,,MAIRANG,WEST KHASI HILLS,MEGHALAYA,MEGHALAYA,SHILLONG HQ,NORTH EASTERN
Laitdombah B.O,Branch Post Office,793120,,MAIRANG,WEST KHASI HILLS,MEGHALAYA,MEGHALAYA,SHILLONG HQ,NORTH EASTERN
Langtor B.O,Branch Post Office,793120,,MAIRANG,WEST KHASI HILLS,MEGHALAYA,MEGHALAYA,SHILLONG HQ,NORTH EASTERN
Lawbyrtun B.O,Branch Post Office,793120,,MAIRANG,WEST KHASI HILLS,MEGHALAYA,MEGHALAYA,SHILLONG HQ,NORTH EASTERN
Lyngkhoi B.O,Branch Post Office,793120,,MAIRANG,WEST KHASI HILLS,MEGHALAYA,MEGHALAYA,SHILLONG HQ,NORTH EASTERN
Madanbynther B.O,Branch Post Office,793120,,MAIRANG,WEST KHASI HILLS,MEGHALAYA,MEGHALAYA,SHILLONG HQ,NORTH EASTERN
Mairang S.O,Sub Post Office,793120,,MAIRANG,WEST KHASI HILLS,MEGHALAYA,MEGHALAYA,SHILLONG HQ,NORTH EASTERN
Manai B.O,Branch Post Office,793120,,MAIRANG,WEST KHASI HILLS,MEGHALAYA,MEGHALAYA,SHILLONG HQ,NORTH EASTERN
Mawkarah B.O,Branch Post Office,793120,,MAIRANG,WEST KHASI HILLS,MEGHALAYA,MEGHALAYA,SHILLONG HQ,NORTH EASTERN
Myriaw B.O,Branch Post Office,793120,,MAIRANG,WEST KHASI HILLS,MEGHALAYA,MEGHALAYA,SHILLONG HQ,NORTH EASTERN
Nongkhlaw B.O,Branch Post Office,793120,,MAIRANG,WEST KHASI HILLS,MEGHALAYA,MEGHALAYA,SHILLONG HQ,NORTH EASTERN
Nongthliew B.O,Branch Post Office,793120,,MAIRANG,WEST KHASI HILLS,MEGHALAYA,MEGHALAYA,SHILLONG HQ,NORTH EASTERN
Nongum B.O,Branch Post Office,793120,,MAIRANG,WEST KHASI HILLS,MEGHALAYA,MEGHALAYA,SHILLONG HQ,NORTH EASTERN
Pariong B.O,Branch Post Office,793120,,MAIRANG,WEST KHASI HILLS,MEGHALAYA,MEGHALAYA,SHILLONG HQ,NORTH EASTERN
Tihnongbah B.O,Branch Post Office,793120,,MAIRANG,WEST KHASI HILLS,MEGHALAYA,MEGHALAYA,SHILLONG HQ,NORTH EASTERN
Umkrem B.O,Branch Post Office,793120,,MAIRANG,WEST KHASI HILLS,MEGHALAYA,MEGHALAYA,SHILLONG HQ,NORTH EASTERN
Umthlong B.O,Branch Post Office,793120,,MAIRANG,WEST KHASI HILLS,MEGHALAYA,MEGHALAYA,SHILLONG HQ,NORTH EASTERN
Mawshut B.O,Branch Post Office,793120,,MAIRANG ',WEST KHASI HILLS,MEGHALAYA,MEGHALAYA,SHILLONG HQ,NORTH EASTERN
Jakrem B.O,Branch Post Office,793114,,MAWKYRWAT,WEST KHASI HILLS,MEGHALAYA,MEGHALAYA,SHILLONG HQ,NORTH EASTERN
Jashier B.O,Branch Post Office,793114,,MAWKYRWAT,WEST KHASI HILLS,MEGHALAYA,MEGHALAYA,SHILLONG HQ,NORTH EASTERN
Laitnongrim B.O,Branch Post Office,793114,,MAWKYRWAT,WEST KHASI HILLS,MEGHALAYA,MEGHALAYA,SHILLONG HQ,NORTH EASTERN
Mawkyrwat S.O,Sub Post Office,793114,,MAWKYRWAT,WEST KHASI HILLS,MEGHALAYA,MEGHALAYA,SHILLONG HQ,NORTH EASTERN
Mawlyngwir B.O,Branch Post Office,793114,,MAWKYRWAT,WEST KHASI HILLS,MEGHALAYA,MEGHALAYA,SHILLONG HQ,NORTH EASTERN
Mawsaw B.O,Branch Post Office,793114,,MAWKYRWAT,WEST KHASI HILLS,MEGHALAYA,MEGHALAYA,SHILLONG HQ,NORTH EASTERN
Mawten B.O,Branch Post Office,793114,,MAWKYRWAT,WEST KHASI HILLS,MEGHALAYA,MEGHALAYA,SHILLONG HQ,NORTH EASTERN
Mawthapdoh B.O,Branch Post Office,793114,,MAWKYRWAT,WEST KHASI HILLS,MEGHALAYA,MEGHALAYA,SHILLONG HQ,NORTH EASTERN
Ngunraw B.O,Branch Post Office,793114,,MAWKYRWAT,WEST KHASI HILLS,MEGHALAYA,MEGHALAYA,SHILLONG HQ,NORTH EASTERN
Nonglang B.O,Branch Post Office,793114,,MAWKYRWAT,WEST KHASI HILLS,MEGHALAYA,MEGHALAYA,SHILLONG HQ,NORTH EASTERN
Nongsynrih B.O,Branch Post Office,793114,,MAWKYRWAT,WEST KHASI HILLS,MEGHALAYA,MEGHALAYA,SHILLONG HQ,NORTH EASTERN
Phlang Kynshi B.O,Branch Post Office,793114,,MAWKYRWAT,WEST KHASI HILLS,MEGHALAYA,MEGHALAYA,SHILLONG HQ,NORTH EASTERN
Phudjaud B.O,Branch Post Office,793114,,MAWKYRWAT,WEST KHASI HILLS,MEGHALAYA,MEGHALAYA,SHILLONG HQ,NORTH EASTERN
Pyndemsakwang B.O,Branch Post Office,793114,,MAWKYRWAT,WEST KHASI HILLS,MEGHALAYA,MEGHALAYA,SHILLONG HQ,NORTH EASTERN
Rangmaw B.O,Branch Post Office,793114,,MAWKYRWAT,WEST KHASI HILLS,MEGHALAYA,MEGHALAYA,SHILLONG HQ,NORTH EASTERN
Rangthong B.O,Branch Post Office,793114,,MAWKYRWAT,WEST KHASI HILLS,MEGHALAYA,MEGHALAYA,SHILLONG HQ,NORTH EASTERN
Sngimawlein B.O,Branch Post Office,793114,,MAWKYRWAT,WEST KHASI HILLS,MEGHALAYA,MEGHALAYA,SHILLONG HQ,NORTH EASTERN
Umjarain B.O,Branch Post Office,793114,,MAWKYRWAT,WEST KHASI HILLS,MEGHALAYA,MEGHALAYA,SHILLONG HQ,NORTH EASTERN
Mawtiehbah B.O,Branch Post Office,793121,,MAWPHLANG,WEST KHASI HILLS,MEGHALAYA,MEGHALAYA,SHILLONG HQ,NORTH EASTERN
Byrki B.O,Branch Post Office,793119,,NONGSTOIN,WEST KHASI HILLS,MEGHALAYA,MEGHALAYA,SHILLONG HQ,NORTH EASTERN
Jaidoh B.O,Branch Post Office,793119,,NONGSTOIN,WEST KHASI HILLS,MEGHALAYA,MEGHALAYA,SHILLONG HQ,NORTH EASTERN
Khliehmawlieh B.O,Branch Post Office,793119,,NONGSTOIN,WEST KHASI HILLS,MEGHALAYA,MEGHALAYA,SHILLONG HQ,NORTH EASTERN
Laitkseh B.O,Branch Post Office,793119,,NONGSTOIN,WEST KHASI HILLS,MEGHALAYA,MEGHALAYA,SHILLONG HQ,NORTH EASTERN
Langdongdai B.O,Branch Post Office,793119,,NONGSTOIN,WEST KHASI HILLS,MEGHALAYA,MEGHALAYA,SHILLONG HQ,NORTH EASTERN
Marskuin B.O,Branch Post Office,793119,,NONGSTOIN,WEST KHASI HILLS,MEGHALAYA,MEGHALAYA,SHILLONG HQ,NORTH EASTERN
Maweitlyngngam B.O,Branch Post Office,793119,,NONGSTOIN,WEST KHASI HILLS,MEGHALAYA,MEGHALAYA,SHILLONG HQ,NORTH EASTERN
Mawkohngei B.O,Branch Post Office,793119,,NONGSTOIN,WEST KHASI HILLS,MEGHALAYA,MEGHALAYA,SHILLONG HQ,NORTH EASTERN
Mawlieh B.O,Branch Post Office,793119,,NONGSTOIN,WEST KHASI HILLS,MEGHALAYA,MEGHALAYA,SHILLONG HQ,NORTH EASTERN
Mawthengkut B.O,Branch Post Office,793119,,NONGSTOIN,WEST KHASI HILLS,MEGHALAYA,MEGHALAYA,SHILLONG HQ,NORTH EASTERN
Mawthungkper B.O,Branch Post Office,793119,,NONGSTOIN,WEST KHASI HILLS,MEGHALAYA,MEGHALAYA,SHILLONG HQ,NORTH EASTERN
Nongbah B.O,Branch Post Office,793119,,NONGSTOIN,WEST KHASI HILLS,MEGHALAYA,MEGHALAYA,SHILLONG HQ,NORTH EASTERN
Nongkasen B.O,Branch Post Office,793119,,NONGSTOIN,WEST KHASI HILLS,MEGHALAYA,MEGHALAYA,SHILLONG HQ,NORTH EASTERN
Nonglang B.O,Branch Post Office,793119,,NONGSTOIN,WEST KHASI HILLS,MEGHALAYA,MEGHALAYA,SHILLONG HQ,NORTH EASTERN
Nongpyndeng B.O,Branch Post Office,793119,,NONGSTOIN,WEST KHASI HILLS,MEGHALAYA,MEGHALAYA,SHILLONG HQ,NORTH EASTERN
Nongsdad  Dkhar B.O,Branch Post Office,793119,,NONGSTOIN,WEST KHASI HILLS,MEGHALAYA,MEGHALAYA,SHILLONG HQ,NORTH EASTERN
Nongshyrkon B.O,Branch Post Office,793119,,NONGSTOIN,WEST KHASI HILLS,MEGHALAYA,MEGHALAYA,SHILLONG HQ,NORTH EASTERN
Nongstoin S.O,Sub Post Office,793119,,NONGSTOIN,WEST KHASI HILLS,MEGHALAYA,MEGHALAYA,SHILLONG HQ,NORTH EASTERN
Nongthynniew B.O,Branch Post Office,793119,,NONGSTOIN,WEST KHASI HILLS,MEGHALAYA,MEGHALAYA,SHILLONG HQ,NORTH EASTERN
Pam Briew B.O,Branch Post Office,793119,,NONGSTOIN,WEST KHASI HILLS,MEGHALAYA,MEGHALAYA,SHILLONG HQ,NORTH EASTERN
Phlangdiloin B.O,Branch Post Office,793119,,NONGSTOIN,WEST KHASI HILLS,MEGHALAYA,MEGHALAYA,SHILLONG HQ,NORTH EASTERN
Pyndengrei B.O,Branch Post Office,793119,,NONGSTOIN,WEST KHASI HILLS,MEGHALAYA,MEGHALAYA,SHILLONG HQ,NORTH EASTERN
Rambrai B.O,Branch Post Office,793119,,NONGSTOIN,WEST KHASI HILLS,MEGHALAYA,MEGHALAYA,SHILLONG HQ,NORTH EASTERN
Rangblang B.O,Branch Post Office,793119,,NONGSTOIN,WEST KHASI HILLS,MEGHALAYA,MEGHALAYA,SHILLONG HQ,NORTH EASTERN
Riangdo Bazar B.O,Branch Post Office,793119,,NONGSTOIN,WEST KHASI HILLS,MEGHALAYA,MEGHALAYA,SHILLONG HQ,NORTH EASTERN
Seinduli Bazar B.O,Branch Post Office,793119,,NONGSTOIN,WEST KHASI HILLS,MEGHALAYA,MEGHALAYA,SHILLONG HQ,NORTH EASTERN
Shallang B.O,Branch Post Office,793119,,NONGSTOIN,WEST KHASI HILLS,MEGHALAYA,MEGHALAYA,SHILLONG HQ,NORTH EASTERN
Thangpylleng Pyndemkseh B.O,Branch Post Office,793119,,NONGSTOIN,WEST KHASI HILLS,MEGHALAYA,MEGHALAYA,SHILLONG HQ,NORTH EASTERN
Umdohlun B.O,Branch Post Office,793119,,NONGSTOIN,WEST KHASI HILLS,MEGHALAYA,MEGHALAYA,SHILLONG HQ,NORTH EASTERN
Umsohpieng B.O,Branch Post Office,793119,,NONGSTOIN,WEST KHASI HILLS,MEGHALAYA,MEGHALAYA,SHILLONG HQ,NORTH EASTERN
Umyap B.O,Branch Post Office,793119,,NONGSTOIN,WEST KHASI HILLS,MEGHALAYA,MEGHALAYA,SHILLONG HQ,NORTH EASTERN
Wahkaji B.O,Branch Post Office,793119,,NONGSTOIN,WEST KHASI HILLS,MEGHALAYA,MEGHALAYA,SHILLONG HQ,NORTH EASTERN
