OFFICE NAME,OFFICE STATUS,PINCODE,TELEPHONE NO.,TALUK,DISTRICT,STATE/U.T.,POSTAL DIVISION,POSTAL REGION,POSTAL CIRCLE
                                                                                                            ,,                                          (THE INFORMATION IS SORTED DISTRICT AND TALUK WISE),,,,,,,
,,,,,,,,,
Aoyimti B.O,Branch Post Office,797115,,ARTC,DIMAPUR,NAGALAND,NAGALAND,NORTH EASTERN,NORTH EASTERN
Daroga Pathar B.O,Branch Post Office,797115,,ARTC,DIMAPUR,NAGALAND,NAGALAND,NORTH EASTERN,NORTH EASTERN
Diphupar B.O,Branch Post Office,797115,,ARTC,DIMAPUR,NAGALAND,NAGALAND,NORTH EASTERN,NORTH EASTERN
Eralibill B.O,Branch Post Office,797115,,ARTC,DIMAPUR,NAGALAND,NAGALAND,NORTH EASTERN,NORTH EASTERN
Showba Old B.O,Branch Post Office,797115,,ARTC,DIMAPUR,NAGALAND,NAGALAND,NORTH EASTERN,NORTH EASTERN
Suger Mill B.O,Branch Post Office,797115,,ARTC,DIMAPUR,NAGALAND,NAGALAND,NORTH EASTERN,NORTH EASTERN
Sukhovi B.O,Branch Post Office,797115,,ARTC,DIMAPUR,NAGALAND,NAGALAND,NORTH EASTERN,NORTH EASTERN
Khopoanaula B.O,Branch Post Office,797103,,CHUMUKEDIMA,DIMAPUR,NAGALAND,NAGALAND,NORTH EASTERN,NORTH EASTERN
Moaikam B.O,Branch Post Office,797103,,CHUMUKEDIMA,DIMAPUR,NAGALAND,NAGALAND,NORTH EASTERN,NORTH EASTERN
Nihekhu B.O,Branch Post Office,797103,,CHUMUKEDIMA,DIMAPUR,NAGALAND,NAGALAND,NORTH EASTERN,NORTH EASTERN
P C College B.O,Branch Post Office,797103,,CHUMUKEDIMA,DIMAPUR,NAGALAND,NAGALAND,NORTH EASTERN,NORTH EASTERN
Pimla B.O,Branch Post Office,797103,,CHUMUKEDIMA,DIMAPUR,NAGALAND,NAGALAND,NORTH EASTERN,NORTH EASTERN
Tenyiphe B.O,Branch Post Office,797103,,CHUMUKEDIMA,DIMAPUR,NAGALAND,NAGALAND,NORTH EASTERN,NORTH EASTERN
Artc S.O,Sub Post Office,797115,03862-243389,DIMAPUR,DIMAPUR,NAGALAND,NAGALAND,NORTH EASTERN,NORTH EASTERN
Chumukedima S.O,Sub Post Office,797103,03862-240450,DIMAPUR,DIMAPUR,NAGALAND,NAGALAND,NORTH EASTERN,NORTH EASTERN
Circular Road S.O,Sub Post Office,797117,,DIMAPUR,DIMAPUR,NAGALAND,NAGALAND,NORTH EASTERN,NORTH EASTERN
Dimapur Bazar S.O,Sub Post Office,797116,03862-230413,DIMAPUR,DIMAPUR,NAGALAND,NAGALAND,NORTH EASTERN,NORTH EASTERN
Dimapur S.O,Sub Post Office,797112,03862-229193,DIMAPUR,DIMAPUR,NAGALAND,NAGALAND,NORTH EASTERN,NORTH EASTERN
Medziphema S.O,Sub Post Office,797106,03862-247262,DIMAPUR,DIMAPUR,NAGALAND,NAGALAND,NORTH EASTERN,NORTH EASTERN
New Nepaligaon S.O,Sub Post Office,797113,03862-234807,DIMAPUR,DIMAPUR,NAGALAND,NAGALAND,NORTH EASTERN,NORTH EASTERN
Khehekhu B.O,Branch Post Office,797116,,DIMAPUR BAZAR,DIMAPUR,NAGALAND,NAGALAND,NORTH EASTERN,NORTH EASTERN
Kuhuboto B.O,Branch Post Office,797116,,DIMAPUR BAZAR,DIMAPUR,NAGALAND,NAGALAND,NORTH EASTERN,NORTH EASTERN
Kushiabill B.O,Branch Post Office,797116,,DIMAPUR BAZAR,DIMAPUR,NAGALAND,NAGALAND,NORTH EASTERN,NORTH EASTERN
Padampukhuri B.O,Branch Post Office,797116,,DIMAPUR BAZAR,DIMAPUR,NAGALAND,NAGALAND,NORTH EASTERN,NORTH EASTERN
Vihokhu B.O,Branch Post Office,797116,,DIMAPUR BAZAR,DIMAPUR,NAGALAND,NAGALAND,NORTH EASTERN,NORTH EASTERN
Doyapur B.O,Branch Post Office,797112,,DIMAPUR MDG,DIMAPUR,NAGALAND,NAGALAND,NORTH EASTERN,NORTH EASTERN
Hening Kunglwa B.O,Branch Post Office,797112,,DIMAPUR MDG,DIMAPUR,NAGALAND,NAGALAND,NORTH EASTERN,NORTH EASTERN
Jalukiekam B.O,Branch Post Office,797112,,DIMAPUR MDG,DIMAPUR,NAGALAND,NAGALAND,NORTH EASTERN,NORTH EASTERN
Khermahal B.O,Branch Post Office,797112,,DIMAPUR MDG,DIMAPUR,NAGALAND,NAGALAND,NORTH EASTERN,NORTH EASTERN
Kuda B.O,Branch Post Office,797112,,DIMAPUR MDG,DIMAPUR,NAGALAND,NAGALAND,NORTH EASTERN,NORTH EASTERN
Nuiland B.O,Branch Post Office,797112,,DIMAPUR MDG,DIMAPUR,NAGALAND,NAGALAND,NORTH EASTERN,NORTH EASTERN
Phaipijan B.O,Branch Post Office,797112,,DIMAPUR MDG,DIMAPUR,NAGALAND,NAGALAND,NORTH EASTERN,NORTH EASTERN
Pwd Colony B.O,Branch Post Office,797117,,DIMAPUR MDG,DIMAPUR,NAGALAND,NAGALAND,NORTH EASTERN,NORTH EASTERN
Ralan B.O,Branch Post Office,797112,,DIMAPUR MDG,DIMAPUR,NAGALAND,NAGALAND,NORTH EASTERN,NORTH EASTERN
Rangapahar B.O,Branch Post Office,797117,,DIMAPUR MDG,DIMAPUR,NAGALAND,NAGALAND,NORTH EASTERN,NORTH EASTERN
Razaphima B.O,Branch Post Office,797112,,DIMAPUR MDG,DIMAPUR,NAGALAND,NAGALAND,NORTH EASTERN,NORTH EASTERN
Singal Village B.O,Branch Post Office,797117,,DIMAPUR MDG,DIMAPUR,NAGALAND,NAGALAND,NORTH EASTERN,NORTH EASTERN
Singrijan B.O,Branch Post Office,797112,,DIMAPUR MDG,DIMAPUR,NAGALAND,NAGALAND,NORTH EASTERN,NORTH EASTERN
Thahekhu B.O,Branch Post Office,797117,,DIMAPUR MDG,DIMAPUR,NAGALAND,NAGALAND,NORTH EASTERN,NORTH EASTERN
Yampha B.O,Branch Post Office,797112,,DIMAPUR MDG,DIMAPUR,NAGALAND,NAGALAND,NORTH EASTERN,NORTH EASTERN
Zeliangrong B.O,Branch Post Office,797117,,DIMAPUR MDG,DIMAPUR,NAGALAND,NAGALAND,NORTH EASTERN,NORTH EASTERN
Agri College B.O,Branch Post Office,797106,,MEDZIPHEMA,DIMAPUR,NAGALAND,NAGALAND,NORTH EASTERN,NORTH EASTERN
Jharnapani B.O,Branch Post Office,797106,,MEDZIPHEMA,DIMAPUR,NAGALAND,NAGALAND,NORTH EASTERN,NORTH EASTERN
Khaibung B.O,Branch Post Office,797106,,MEDZIPHEMA,DIMAPUR,NAGALAND,NAGALAND,NORTH EASTERN,NORTH EASTERN
Chozuba S.O,Sub Post Office,797104,,PHEK,PHEK,NAGALAND,NAGALAND,NORTH EASTERN,NORTH EASTERN
Ketsapo B.O,Branch Post Office,797108,,PHEK,PHEK,NAGALAND,NAGALAND,NORTH EASTERN,NORTH EASTERN
Khuzami B.O,Branch Post Office,797108,,PHEK,PHEK,NAGALAND,NAGALAND,NORTH EASTERN,NORTH EASTERN
Losami B.O,Branch Post Office,797108,,PHEK,PHEK,NAGALAND,NAGALAND,NORTH EASTERN,NORTH EASTERN
Luzaphuhu B.O,Branch Post Office,797108,,PHEK,PHEK,NAGALAND,NAGALAND,NORTH EASTERN,NORTH EASTERN
Meluri S.O,Sub Post Office,797114,03865-261240,PHEK,PHEK,NAGALAND,NAGALAND,NORTH EASTERN,NORTH EASTERN
Old Phek B.O,Branch Post Office,797108,,PHEK,PHEK,NAGALAND,NAGALAND,NORTH EASTERN,NORTH EASTERN
Pfutsero S.O,Sub Post Office,797107,,PHEK,PHEK,NAGALAND,NAGALAND,NORTH EASTERN,NORTH EASTERN
Phek S.O,Sub Post Office,797108,,PHEK,PHEK,NAGALAND,NAGALAND,NORTH EASTERN,NORTH EASTERN
Zavame B.O,Branch Post Office,797107,,PHEK,PHEK,NAGALAND,NAGALAND,NORTH EASTERN,NORTH EASTERN
Angangba B.O,Branch Post Office,798616,,LONGKHIM,TUENSANG,NAGALAND,NAGALAND,NORTH EASTERN,NORTH EASTERN
Chungtore B.O,Branch Post Office,798616,,LONGKHIM,TUENSANG,NAGALAND,NAGALAND,NORTH EASTERN,NORTH EASTERN
Kongsang B.O,Branch Post Office,798616,,LONGKHIM,TUENSANG,NAGALAND,NAGALAND,NORTH EASTERN,NORTH EASTERN
Noksen B.O,Branch Post Office,798616,,LONGKHIM,TUENSANG,NAGALAND,NAGALAND,NORTH EASTERN,NORTH EASTERN
Yangli B.O,Branch Post Office,798616,,LONGKHIM,TUENSANG,NAGALAND,NAGALAND,NORTH EASTERN,NORTH EASTERN
Chimonger B.O,Branch Post Office,798616,,LONKHIM,TUENSANG,NAGALAND,NAGALAND,NORTH EASTERN,NORTH EASTERN
Choklangan B.O,Branch Post Office,798626,,NOKLAK,TUENSANG,NAGALAND,NAGALAND,NORTH EASTERN,NORTH EASTERN
Nokhu B.O,Branch Post Office,798626,,NOKLAK,TUENSANG,NAGALAND,NAGALAND,NORTH EASTERN,NORTH EASTERN
Pangsha B.O,Branch Post Office,798626,,NOKLAK,TUENSANG,NAGALAND,NAGALAND,NORTH EASTERN,NORTH EASTERN
Pessu B.O,Branch Post Office,798626,,NOKLAK,TUENSANG,NAGALAND,NAGALAND,NORTH EASTERN,NORTH EASTERN
Sanglao B.O,Branch Post Office,798626,,NOKLAK,TUENSANG,NAGALAND,NAGALAND,NORTH EASTERN,NORTH EASTERN
Chessore B.O,Branch Post Office,798612,,TUENSANG,TUENSANG,NAGALAND,NAGALAND,NORTH EASTERN,NORTH EASTERN
Chingmei B.O,Branch Post Office,798612,,TUENSANG,TUENSANG,NAGALAND,NAGALAND,NORTH EASTERN,NORTH EASTERN
Huker B.O,Branch Post Office,798612,,TUENSANG,TUENSANG,NAGALAND,NAGALAND,NORTH EASTERN,NORTH EASTERN
Kuthur B.O,Branch Post Office,798612,,TUENSANG,TUENSANG,NAGALAND,NAGALAND,NORTH EASTERN,NORTH EASTERN
Longkhim S.O,Sub Post Office,798616,,TUENSANG,TUENSANG,NAGALAND,NAGALAND,NORTH EASTERN,NORTH EASTERN
Noklak S.O,Sub Post Office,798626,,TUENSANG,TUENSANG,NAGALAND,NAGALAND,NORTH EASTERN,NORTH EASTERN
Panso B.O,Branch Post Office,798612,,TUENSANG,TUENSANG,NAGALAND,NAGALAND,NORTH EASTERN,NORTH EASTERN
Sangsanyu B.O,Branch Post Office,798612,,TUENSANG,TUENSANG,NAGALAND,NAGALAND,NORTH EASTERN,NORTH EASTERN
Saramati B.O,Branch Post Office,798612,,TUENSANG,TUENSANG,NAGALAND,NAGALAND,NORTH EASTERN,NORTH EASTERN
Shamator B.O,Branch Post Office,798612,,TUENSANG,TUENSANG,NAGALAND,NAGALAND,NORTH EASTERN,NORTH EASTERN
Shampur B.O,Branch Post Office,798612,,TUENSANG,TUENSANG,NAGALAND,NAGALAND,NORTH EASTERN,NORTH EASTERN
Shiponger B.O,Branch Post Office,798612,,TUENSANG,TUENSANG,NAGALAND,NAGALAND,NORTH EASTERN,NORTH EASTERN
Sotokur B.O,Branch Post Office,798612,,TUENSANG,TUENSANG,NAGALAND,NAGALAND,NORTH EASTERN,NORTH EASTERN
Thonokhunyu B.O,Branch Post Office,798612,,TUENSANG,TUENSANG,NAGALAND,NAGALAND,NORTH EASTERN,NORTH EASTERN
Tuensang S.O,Sub Post Office,798612,,TUENSANG,TUENSANG,NAGALAND,NAGALAND,NORTH EASTERN,NORTH EASTERN
Tuensang Village B.O,Branch Post Office,798612,,TUENSANG,TUENSANG,NAGALAND,NAGALAND,NORTH EASTERN,NORTH EASTERN
Aitepyong B.O,Branch Post Office,797100,,DOYANG H PROJECT,WOKHA,NAGALAND,NAGALAND,NORTH EASTERN,NORTH EASTERN
Baghty B.O,Branch Post Office,797111,,DOYANG H PROJECT,WOKHA,NAGALAND,NAGALAND,NORTH EASTERN,NORTH EASTERN
Englan B.O,Branch Post Office,797111,,DOYANG H PROJECT,WOKHA,NAGALAND,NAGALAND,NORTH EASTERN,NORTH EASTERN
Longtsung B.O,Branch Post Office,797100,,DOYANG H PROJECT,WOKHA,NAGALAND,NAGALAND,NORTH EASTERN,NORTH EASTERN
Lotsu B.O,Branch Post Office,797100,,DOYANG H PROJECT,WOKHA,NAGALAND,NAGALAND,NORTH EASTERN,NORTH EASTERN
Moilan B.O,Branch Post Office,797100,,DOYANG H PROJECT,WOKHA,NAGALAND,NAGALAND,NORTH EASTERN,NORTH EASTERN
Sanis B.O,Branch Post Office,797100,,DOYANG H PROJECT,WOKHA,NAGALAND,NAGALAND,NORTH EASTERN,NORTH EASTERN
Yamhon B.O,Branch Post Office,797100,,DOYANG H PROJECT,WOKHA,NAGALAND,NAGALAND,NORTH EASTERN,NORTH EASTERN
Bhandari B.O,Branch Post Office,797111,,DOYANG H. PROJECT,WOKHA,NAGALAND,NAGALAND,NORTH EASTERN,NORTH EASTERN
Chukitong B.O,Branch Post Office,797111,,WOKHA,WOKHA,NAGALAND,NAGALAND,NORTH EASTERN,NORTH EASTERN
Doyang Hydel Project S.O,Sub Post Office,797100,,WOKHA,WOKHA,NAGALAND,NAGALAND,NORTH EASTERN,NORTH EASTERN
Elumnyu B.O,Branch Post Office,797111,,WOKHA,WOKHA,NAGALAND,NAGALAND,NORTH EASTERN,NORTH EASTERN
Humtsu B.O,Branch Post Office,797111,,WOKHA,WOKHA,NAGALAND,NAGALAND,NORTH EASTERN,NORTH EASTERN
Mekhukla B.O,Branch Post Office,797111,,WOKHA,WOKHA,NAGALAND,NAGALAND,NORTH EASTERN,NORTH EASTERN
N. Longidong B.O,Branch Post Office,797111,,WOKHA,WOKHA,NAGALAND,NAGALAND,NORTH EASTERN,NORTH EASTERN
Nyiro B.O,Branch Post Office,797111,,WOKHA,WOKHA,NAGALAND,NAGALAND,NORTH EASTERN,NORTH EASTERN
Pangti B.O,Branch Post Office,797100,,WOKHA,WOKHA,NAGALAND,NAGALAND,NORTH EASTERN,NORTH EASTERN
Pongitong B.O,Branch Post Office,797111,,WOKHA,WOKHA,NAGALAND,NAGALAND,NORTH EASTERN,NORTH EASTERN
Sungro B.O,Branch Post Office,797100,,WOKHA,WOKHA,NAGALAND,NAGALAND,NORTH EASTERN,NORTH EASTERN
Tsungtsutong B.O,Branch Post Office,797111,,WOKHA,WOKHA,NAGALAND,NAGALAND,NORTH EASTERN,NORTH EASTERN
Wokha S.O,Sub Post Office,797111,,WOKHA,WOKHA,NAGALAND,NAGALAND,NORTH EASTERN,NORTH EASTERN
Wokha Village B.O,Branch Post Office,797111,,WOKHA,WOKHA,NAGALAND,NAGALAND,NORTH EASTERN,NORTH EASTERN
Wozhru B.O,Branch Post Office,797111,,WOKHA,WOKHA,NAGALAND,NAGALAND,NORTH EASTERN,NORTH EASTERN
Yikhum B.O,Branch Post Office,797111,,WOKHA,WOKHA,NAGALAND,NAGALAND,NORTH EASTERN,NORTH EASTERN
Aizuto B.O,Branch Post Office,798619,,AKULUTO,ZUNHEBOTTO,NAGALAND,NAGALAND,NORTH EASTERN,NORTH EASTERN
Akuhaito B.O,Branch Post Office,798619,,Akuluto,ZUNHEBOTTO,NAGALAND,NAGALAND,NORTH EASTERN,NORTH EASTERN
Asukuto B.O,Branch Post Office,798619,,AKULUTO,ZUNHEBOTTO,NAGALAND,NAGALAND,NORTH EASTERN,NORTH EASTERN
Aghunato B.O,Branch Post Office,798620,,ZUNHEBOTO,ZUNHEBOTTO,NAGALAND,NAGALAND,NORTH EASTERN,NORTH EASTERN
Akuluto S.O,Sub Post Office,798619,0369-2260242,ZUNHEBOTO,ZUNHEBOTTO,NAGALAND,NAGALAND,NORTH EASTERN,NORTH EASTERN
Asukhomi B.O,Branch Post Office,798620,,ZUNHEBOTO,ZUNHEBOTTO,NAGALAND,NAGALAND,NORTH EASTERN,NORTH EASTERN
Asuto B.O,Branch Post Office,798620,,ZUNHEBOTO,ZUNHEBOTTO,NAGALAND,NAGALAND,NORTH EASTERN,NORTH EASTERN
Hosephu B.O,Branch Post Office,798620,,ZUNHEBOTO,ZUNHEBOTTO,NAGALAND,NAGALAND,NORTH EASTERN,NORTH EASTERN
Kichilimi B.O,Branch Post Office,798620,,ZUNHEBOTO,ZUNHEBOTTO,NAGALAND,NAGALAND,NORTH EASTERN,NORTH EASTERN
Phisami B.O,Branch Post Office,798620,,ZUNHEBOTO,ZUNHEBOTTO,NAGALAND,NAGALAND,NORTH EASTERN,NORTH EASTERN
Saghemi B.O,Branch Post Office,798620,,ZUNHEBOTO,ZUNHEBOTTO,NAGALAND,NAGALAND,NORTH EASTERN,NORTH EASTERN
Satakha B.O,Branch Post Office,798620,,ZUNHEBOTO,ZUNHEBOTTO,NAGALAND,NAGALAND,NORTH EASTERN,NORTH EASTERN
Satami B.O,Branch Post Office,798620,,ZUNHEBOTO,ZUNHEBOTTO,NAGALAND,NAGALAND,NORTH EASTERN,NORTH EASTERN
Satoi B.O,Branch Post Office,798620,,ZUNHEBOTO,ZUNHEBOTTO,NAGALAND,NAGALAND,NORTH EASTERN,NORTH EASTERN
Suruhuto B.O,Branch Post Office,798620,,ZUNHEBOTO,ZUNHEBOTTO,NAGALAND,NAGALAND,NORTH EASTERN,NORTH EASTERN
Surumi B.O,Branch Post Office,798620,,ZUNHEBOTO,ZUNHEBOTTO,NAGALAND,NAGALAND,NORTH EASTERN,NORTH EASTERN
Tokiye B.O,Branch Post Office,798620,,ZUNHEBOTO,ZUNHEBOTTO,NAGALAND,NAGALAND,NORTH EASTERN,NORTH EASTERN
Zunheboto S.O,Sub Post Office,798620,,ZUNHEBOTO,ZUNHEBOTTO,NAGALAND,NAGALAND,NORTH EASTERN,NORTH EASTERN
