OFFICE NAME,OFFICE STATUS,PINCODE,TELEPHONE NO.,TALUK,DISTRICT,STATE/U.T.,POSTAL DIVISION,POSTAL REGION,POSTAL CIRCLE
                                                                                                            ,,                                          (THE INFORMATION IS SORTED DISTRICT AND TALUK WISE),,,,,,,
,,,,,,,,,
Dikchu S.O,Sub Post Office,737107,,Dikchu,EAST SIKKIM,SIKKIM,SIKKIM,SILIGURI,WEST BENGAL
Gor B.O,Branch Post Office,737107,,Dikchu,EAST SIKKIM,SIKKIM,SIKKIM,SILIGURI,WEST BENGAL
Lumlingthyang B.O,Branch Post Office,737107,,Dikchu,EAST SIKKIM,SIKKIM,SIKKIM,SILIGURI,WEST BENGAL
Rakdong B.O,Branch Post Office,737107,,Dikchu,EAST SIKKIM,SIKKIM,SIKKIM,SILIGURI,WEST BENGAL
Raley Khesey B.O,Branch Post Office,737107,,Dikchu,EAST SIKKIM,SIKKIM,SIKKIM,SILIGURI,WEST BENGAL
Samdong B.O,Branch Post Office,737107,,Dikchu,EAST SIKKIM,SIKKIM,SIKKIM,SILIGURI,WEST BENGAL
Bhusuk B.O,Branch Post Office,737103,,Gangtok,EAST SIKKIM,SIKKIM,SIKKIM,SILIGURI,WEST BENGAL
Bojoghari B.O,Branch Post Office,737103,,Gangtok,EAST SIKKIM,SIKKIM,SIKKIM,SILIGURI,WEST BENGAL
Deorali S.O,Sub Post Office,737102,,Gangtok,EAST SIKKIM,SIKKIM,SIKKIM,SILIGURI,WEST BENGAL
Dhajey B.O,Branch Post Office,737102,,Gangtok,EAST SIKKIM,SIKKIM,SIKKIM,SILIGURI,WEST BENGAL
Gangtok Bazar S.O,Sub Post Office,737101,,Gangtok,EAST SIKKIM,SIKKIM,SIKKIM,SILIGURI,WEST BENGAL
Gangtok H.O,Head Post Office,737101,,Gangtok,EAST SIKKIM,SIKKIM,SIKKIM,SILIGURI,WEST BENGAL
Gnathang B.O,Branch Post Office,737102,,Gangtok,EAST SIKKIM,SIKKIM,SIKKIM,SILIGURI,WEST BENGAL
Kyanglasha B.O,Branch Post Office,737102,,Gangtok,EAST SIKKIM,SIKKIM,SIKKIM,SILIGURI,WEST BENGAL
Lingdok B.O,Branch Post Office,737103,,Gangtok,EAST SIKKIM,SIKKIM,SIKKIM,SILIGURI,WEST BENGAL
Yangyang B.O,Branch Post Office,737134,,Singtam,EAST SIKKIM,SIKKIM,SIKKIM,SILIGURI,WEST BENGAL
Chungthang S.O,Sub Post Office,737120,,Chungthang,NORTH SIKKIM,SIKKIM,SIKKIM,SILIGURI,WEST BENGAL
Lachen B.O,Branch Post Office,737120,,Chungthang,NORTH SIKKIM,SIKKIM,SIKKIM,SILIGURI,WEST BENGAL
Lachung B.O,Branch Post Office,737120,,Chungthang,NORTH SIKKIM,SIKKIM,SIKKIM,SILIGURI,WEST BENGAL
Naga B.O,Branch Post Office,737120,,Chungthang,NORTH SIKKIM,SIKKIM,SIKKIM,SILIGURI,WEST BENGAL
Shipgyare B.O,Branch Post Office,737120,,Chungthang,NORTH SIKKIM,SIKKIM,SIKKIM,SILIGURI,WEST BENGAL
Kabi S.O,Sub Post Office,737117,,Mangan,NORTH SIKKIM,SIKKIM,SIKKIM,SILIGURI,WEST BENGAL
Lingthem B.O,Branch Post Office,737116,,Mangan,NORTH SIKKIM,SIKKIM,SIKKIM,SILIGURI,WEST BENGAL
Lingthem B.O,Branch Post Office,737116,,Mangan,NORTH SIKKIM,SIKKIM,SIKKIM,SILIGURI,WEST BENGAL
Lower Dzongu B.O,Branch Post Office,737116,,Mangan,NORTH SIKKIM,SIKKIM,SIKKIM,SILIGURI,WEST BENGAL
Mangan S.O,Sub Post Office,737116,,Mangan,NORTH SIKKIM,SIKKIM,SIKKIM,SILIGURI,WEST BENGAL
Manul B.O,Branch Post Office,737116,,Mangan,NORTH SIKKIM,SIKKIM,SIKKIM,SILIGURI,WEST BENGAL
Men Rong Rong B.O,Branch Post Office,737116,,Mangan,NORTH SIKKIM,SIKKIM,SIKKIM,SILIGURI,WEST BENGAL
Namok B.O,Branch Post Office,737116,,Mangan,NORTH SIKKIM,SIKKIM,SIKKIM,SILIGURI,WEST BENGAL
Phamtam B.O,Branch Post Office,737116,,Mangan,NORTH SIKKIM,SIKKIM,SIKKIM,SILIGURI,WEST BENGAL
Phensong S.O,Sub Post Office,737118,,Mangan,NORTH SIKKIM,SIKKIM,SIKKIM,SILIGURI,WEST BENGAL
Phudong S.O,Sub Post Office,737119,,Mangan,NORTH SIKKIM,SIKKIM,SIKKIM,SILIGURI,WEST BENGAL
Ramthang B.O,Branch Post Office,737116,,Mangan,NORTH SIKKIM,SIKKIM,SIKKIM,SILIGURI,WEST BENGAL
Rangrang B.O,Branch Post Office,737116,,Mangan,NORTH SIKKIM,SIKKIM,SIKKIM,SILIGURI,WEST BENGAL
Sangkalan B.O,Branch Post Office,737116,,Mangan,NORTH SIKKIM,SIKKIM,SIKKIM,SILIGURI,WEST BENGAL
Singhik B.O,Branch Post Office,737116,,Mangan,NORTH SIKKIM,SIKKIM,SIKKIM,SILIGURI,WEST BENGAL
Tingchim B.O,Branch Post Office,737116,,Mangan,NORTH SIKKIM,SIKKIM,SIKKIM,SILIGURI,WEST BENGAL
Tingvong B.O,Branch Post Office,737116,,Mangan,NORTH SIKKIM,SIKKIM,SIKKIM,SILIGURI,WEST BENGAL
Okharey B.O,Branch Post Office,737121,,Jorethang,SOUTH SIKKIM,SIKKIM,SIKKIM,SILIGURI,WEST BENGAL
Pipalay B.O,Branch Post Office,737121,,Jorethang,SOUTH SIKKIM,SIKKIM,SIKKIM,SILIGURI,WEST BENGAL
Reshi B.O,Branch Post Office,737121,,Jorethang,SOUTH SIKKIM,SIKKIM,SIKKIM,SILIGURI,WEST BENGAL
Ribdi-bhareng B.O,Branch Post Office,737121,,Jorethang,SOUTH SIKKIM,SIKKIM,SIKKIM,SILIGURI,WEST BENGAL
Sanchabarey Daramdim B.O,Branch Post Office,737121,,Jorethang,SOUTH SIKKIM,SIKKIM,SIKKIM,SILIGURI,WEST BENGAL
Sanganath B.O,Branch Post Office,737121,,Jorethang,SOUTH SIKKIM,SIKKIM,SIKKIM,SILIGURI,WEST BENGAL
Sombaria B.O,Branch Post Office,737121,,Jorethang,SOUTH SIKKIM,SIKKIM,SIKKIM,SILIGURI,WEST BENGAL
Soreng B.O,Branch Post Office,737121,,Jorethang,SOUTH SIKKIM,SIKKIM,SIKKIM,SILIGURI,WEST BENGAL
Kerabari B.O,Branch Post Office,737128,,Melli,SOUTH SIKKIM,SIKKIM,SIKKIM,SILIGURI,WEST BENGAL
Lungchuk B.O,Branch Post Office,737128,,Melli,SOUTH SIKKIM,SIKKIM,SIKKIM,SILIGURI,WEST BENGAL
Manpur B.O,Branch Post Office,737128,,Melli,SOUTH SIKKIM,SIKKIM,SIKKIM,SILIGURI,WEST BENGAL
Melli Bazar S.O,Sub Post Office,737128,,Melli,SOUTH SIKKIM,SIKKIM,SIKKIM,SILIGURI,WEST BENGAL
Melli Dara B.O,Branch Post Office,737128,,Melli,SOUTH SIKKIM,SIKKIM,SIKKIM,SILIGURI,WEST BENGAL
Payiong B.O,Branch Post Office,737128,,Melli,SOUTH SIKKIM,SIKKIM,SIKKIM,SILIGURI,WEST BENGAL
Rateypani B.O,Branch Post Office,737128,,Melli,SOUTH SIKKIM,SIKKIM,SIKKIM,SILIGURI,WEST BENGAL
Sadam B.O,Branch Post Office,737128,,Melli,SOUTH SIKKIM,SIKKIM,SIKKIM,SILIGURI,WEST BENGAL
Sumbuk B.O,Branch Post Office,737128,,Melli,SOUTH SIKKIM,SIKKIM,SIKKIM,SILIGURI,WEST BENGAL
Turuk B.O,Branch Post Office,737128,,Melli,SOUTH SIKKIM,SIKKIM,SIKKIM,SILIGURI,WEST BENGAL
Assangthang B.O,Branch Post Office,737126,,Namchi,SOUTH SIKKIM,SIKKIM,SIKKIM,SILIGURI,WEST BENGAL
Damthang B.O,Branch Post Office,737126,,Namchi,SOUTH SIKKIM,SIKKIM,SIKKIM,SILIGURI,WEST BENGAL
Kitam B.O,Branch Post Office,737126,,Namchi,SOUTH SIKKIM,SIKKIM,SIKKIM,SILIGURI,WEST BENGAL
Kupup B.O,Branch Post Office,737102,,Namchi,SOUTH SIKKIM,SIKKIM,SIKKIM,SILIGURI,WEST BENGAL
Maniram B.O,Branch Post Office,737126,,Namchi,SOUTH SIKKIM,SIKKIM,SIKKIM,SILIGURI,WEST BENGAL
Mic Khola B.O,Branch Post Office,737126,,Namchi,SOUTH SIKKIM,SIKKIM,SIKKIM,SILIGURI,WEST BENGAL
Namchi S.O,Sub Post Office,737126,,Namchi,SOUTH SIKKIM,SIKKIM,SIKKIM,SILIGURI,WEST BENGAL
Nandugaon B.O,Branch Post Office,737126,,namchi,SOUTH SIKKIM,SIKKIM,SIKKIM,SILIGURI,WEST BENGAL
Pabong B.O,Branch Post Office,737126,,Namchi,SOUTH SIKKIM,SIKKIM,SIKKIM,SILIGURI,WEST BENGAL
Perbing B.O,Branch Post Office,737126,,Namchi,SOUTH SIKKIM,SIKKIM,SIKKIM,SILIGURI,WEST BENGAL
Phalidara B.O,Branch Post Office,737126,,Namchi,SOUTH SIKKIM,SIKKIM,SIKKIM,SILIGURI,WEST BENGAL
Poklok B.O,Branch Post Office,737126,,Namchi,SOUTH SIKKIM,SIKKIM,SIKKIM,SILIGURI,WEST BENGAL
Rong B.O,Branch Post Office,737126,,Namchi,SOUTH SIKKIM,SIKKIM,SIKKIM,SILIGURI,WEST BENGAL
Shalghari B.O,Branch Post Office,737126,,Namchi,SOUTH SIKKIM,SIKKIM,SIKKIM,SILIGURI,WEST BENGAL
Singhithang B.O,Branch Post Office,737126,,Namchi,SOUTH SIKKIM,SIKKIM,SIKKIM,SILIGURI,WEST BENGAL
Sorok B.O,Branch Post Office,737126,,Namchi,SOUTH SIKKIM,SIKKIM,SIKKIM,SILIGURI,WEST BENGAL
Wok B.O,Branch Post Office,737126,,Namchi,SOUTH SIKKIM,SIKKIM,SIKKIM,SILIGURI,WEST BENGAL
Barfung B.O,Branch Post Office,737139,,Ravangla,SOUTH SIKKIM,SIKKIM,SIKKIM,SILIGURI,WEST BENGAL
Ben B.O,Branch Post Office,737139,,Ravangla,SOUTH SIKKIM,SIKKIM,SIKKIM,SILIGURI,WEST BENGAL
Berang B.O,Branch Post Office,737139,,Ravangla,SOUTH SIKKIM,SIKKIM,SIKKIM,SILIGURI,WEST BENGAL
Kewzing B.O,Branch Post Office,737139,,Ravangla,SOUTH SIKKIM,SIKKIM,SIKKIM,SILIGURI,WEST BENGAL
Phamtam B.O,Branch Post Office,737139,,Ravangla,SOUTH SIKKIM,SIKKIM,SIKKIM,SILIGURI,WEST BENGAL
Ralang B.O,Branch Post Office,737139,,Ravangla,SOUTH SIKKIM,SIKKIM,SIKKIM,SILIGURI,WEST BENGAL
Ravangla S.O,Sub Post Office,737139,,Ravangla,SOUTH SIKKIM,SIKKIM,SIKKIM,SILIGURI,WEST BENGAL
Sangmoo B.O,Branch Post Office,737139,,Ravangla,SOUTH SIKKIM,SIKKIM,SIKKIM,SILIGURI,WEST BENGAL
Tingmoo B.O,Branch Post Office,737139,,Ravangla,SOUTH SIKKIM,SIKKIM,SIKKIM,SILIGURI,WEST BENGAL
Tinkitam B.O,Branch Post Office,737139,,Ravangla,SOUTH SIKKIM,SIKKIM,SIKKIM,SILIGURI,WEST BENGAL
Arithang B.O,Branch Post Office,737111,,Gayzing,WEST SIKKIM,SIKKIM,SIKKIM,SILIGURI,WEST BENGAL
Bhaluthang B.O,Branch Post Office,737111,,Gayzing,WEST SIKKIM,SIKKIM,SIKKIM,SILIGURI,WEST BENGAL
Chingthang B.O,Branch Post Office,737111,,Gayzing,WEST SIKKIM,SIKKIM,SIKKIM,SILIGURI,WEST BENGAL
Gayzing S.O,Sub Post Office,737111,,Gayzing,WEST SIKKIM,SIKKIM,SIKKIM,SILIGURI,WEST BENGAL
Gerathang B.O,Branch Post Office,737111,,Gayzing,WEST SIKKIM,SIKKIM,SIKKIM,SILIGURI,WEST BENGAL
Karjee B.O,Branch Post Office,737111,,Gayzing,WEST SIKKIM,SIKKIM,SIKKIM,SILIGURI,WEST BENGAL
Legship B.O,Branch Post Office,737111,,Gayzing,WEST SIKKIM,SIKKIM,SIKKIM,SILIGURI,WEST BENGAL
Lingchom B.O,Branch Post Office,737111,,Gayzing,WEST SIKKIM,SIKKIM,SIKKIM,SILIGURI,WEST BENGAL
Rangship B.O,Branch Post Office,737111,,Gayzing,WEST SIKKIM,SIKKIM,SIKKIM,SILIGURI,WEST BENGAL
Rinchenpong B.O,Branch Post Office,737111,,Gayzing,WEST SIKKIM,SIKKIM,SIKKIM,SILIGURI,WEST BENGAL
Sinek B.O,Branch Post Office,737111,,Gayzing,WEST SIKKIM,SIKKIM,SIKKIM,SILIGURI,WEST BENGAL
Tashiding B.O,Branch Post Office,737111,,Gayzing,WEST SIKKIM,SIKKIM,SIKKIM,SILIGURI,WEST BENGAL
Yangtey B.O,Branch Post Office,737111,,Gayzing,WEST SIKKIM,SIKKIM,SIKKIM,SILIGURI,WEST BENGAL
Yangthang B.O,Branch Post Office,737111,,Gayzing,WEST SIKKIM,SIKKIM,SIKKIM,SILIGURI,WEST BENGAL
Arubotay B.O,Branch Post Office,737121,,Jorethang,WEST SIKKIM,SIKKIM,SIKKIM,SILIGURI,WEST BENGAL
Budang B.O,Branch Post Office,737121,,Jorethang,WEST SIKKIM,SIKKIM,SIKKIM,SILIGURI,WEST BENGAL
Buriakhop B.O,Branch Post Office,737121,,Jorethang,WEST SIKKIM,SIKKIM,SIKKIM,SILIGURI,WEST BENGAL
Chakung B.O,Branch Post Office,737121,,Jorethang,WEST SIKKIM,SIKKIM,SIKKIM,SILIGURI,WEST BENGAL
Chumbong B.O,Branch Post Office,737121,,Jorethang,WEST SIKKIM,SIKKIM,SIKKIM,SILIGURI,WEST BENGAL
Majitar B.O,Branch Post Office,737121,,Jorethang,WEST SIKKIM,SIKKIM,SIKKIM,SILIGURI,WEST BENGAL
Malbasey B.O,Branch Post Office,737121,,Jorethang,WEST SIKKIM,SIKKIM,SIKKIM,SILIGURI,WEST BENGAL
Naya Bazar S.O,Sub Post Office,737121,,Jorethang,WEST SIKKIM,SIKKIM,SIKKIM,SILIGURI,WEST BENGAL
Sri Badam B.O,Branch Post Office,737121,,Jorethang,WEST SIKKIM,SIKKIM,SIKKIM,SILIGURI,WEST BENGAL
Suldung B.O,Branch Post Office,737121,,Jorethang,WEST SIKKIM,SIKKIM,SIKKIM,SILIGURI,WEST BENGAL
Takuthang B.O,Branch Post Office,737121,,Jorethang,WEST SIKKIM,SIKKIM,SIKKIM,SILIGURI,WEST BENGAL
Tharpu B.O,Branch Post Office,737121,,Jorethang,WEST SIKKIM,SIKKIM,SIKKIM,SILIGURI,WEST BENGAL
Tikpur B.O,Branch Post Office,737121,,Jorethang,WEST SIKKIM,SIKKIM,SIKKIM,SILIGURI,WEST BENGAL
Timburbong B.O,Branch Post Office,737121,,Jorethang,WEST SIKKIM,SIKKIM,SIKKIM,SILIGURI,WEST BENGAL
Zoom B.O,Branch Post Office,737121,,Jorethang,WEST SIKKIM,SIKKIM,SIKKIM,SILIGURI,WEST BENGAL
Darap B.O,Branch Post Office,737113,,Pelling,WEST SIKKIM,SIKKIM,SIKKIM,SILIGURI,WEST BENGAL
Dentam B.O,Branch Post Office,737113,,Pelling,WEST SIKKIM,SIKKIM,SIKKIM,SILIGURI,WEST BENGAL
Hee Gaon B.O,Branch Post Office,737113,,Pelling,WEST SIKKIM,SIKKIM,SIKKIM,SILIGURI,WEST BENGAL
Kaluk B.O,Branch Post Office,737113,,Pelling,WEST SIKKIM,SIKKIM,SIKKIM,SILIGURI,WEST BENGAL
Karmatar B.O,Branch Post Office,737113,,Pelling,WEST SIKKIM,SIKKIM,SIKKIM,SILIGURI,WEST BENGAL
Khechuperi B.O,Branch Post Office,737113,,Pelling,WEST SIKKIM,SIKKIM,SIKKIM,SILIGURI,WEST BENGAL
Mechi Aching B.O,Branch Post Office,737113,,Pelling,WEST SIKKIM,SIKKIM,SIKKIM,SILIGURI,WEST BENGAL
Namphu B.O,Branch Post Office,737113,,Pelling,WEST SIKKIM,SIKKIM,SIKKIM,SILIGURI,WEST BENGAL
Pelling S.O,Sub Post Office,737113,,Pelling,WEST SIKKIM,SIKKIM,SIKKIM,SILIGURI,WEST BENGAL
Radhu Khandu B.O,Branch Post Office,737113,,Pelling,WEST SIKKIM,SIKKIM,SIKKIM,SILIGURI,WEST BENGAL
Rimbi B.O,Branch Post Office,737113,,Pelling,WEST SIKKIM,SIKKIM,SIKKIM,SILIGURI,WEST BENGAL
Thingling B.O,Branch Post Office,737113,,Pelling,WEST SIKKIM,SIKKIM,SIKKIM,SILIGURI,WEST BENGAL
Uttarey B.O,Branch Post Office,737113,,Pelling,WEST SIKKIM,SIKKIM,SIKKIM,SILIGURI,WEST BENGAL
Yuksom B.O,Branch Post Office,737113,,Pelling,WEST SIKKIM,SIKKIM,SIKKIM,SILIGURI,WEST BENGAL
