OFFICE NAME,OFFICE STATUS,PINCODE,TELEPHONE NO.,TALUK,DISTRICT,STATE/U.T.,POSTAL DIVISION,POSTAL REGION,POSTAL CIRCLE
                                                                                                            ,,                                          (THE INFORMATION IS SORTED DISTRICT AND TALUK WISE),,,,,,,
,,,,,,,,,
Lambagara B.O,Branch Post Office,263625,,.,ALMORA,UTTARAKHAND,ALMORA,DEHRADUN,UTTARAKHAND
Almora College S.O,Sub Post Office,263601,,Almora,ALMORA,UTTARAKHAND,ALMORA,DEHRADUN,UTTARAKHAND
Almora Court S.O,Sub Post Office,263601,05962-230054,Almora,ALMORA,UTTARAKHAND,ALMORA,DEHRADUN,UTTARAKHAND
Almora H.O,Head Post Office,263601,05962-230019,Almora,ALMORA,UTTARAKHAND,ALMORA,DEHRADUN,UTTARAKHAND
Ayarpani B.O,Branch Post Office,263601,,Almora,ALMORA,UTTARAKHAND,ALMORA,DEHRADUN,UTTARAKHAND
Bajwar B.O,Branch Post Office,263601,,Almora,ALMORA,UTTARAKHAND,ALMORA,DEHRADUN,UTTARAKHAND
Baldhoti S.O,Sub Post Office,263601,05962-234305,Almora,ALMORA,UTTARAKHAND,ALMORA,DEHRADUN,UTTARAKHAND
Balta B.O,Branch Post Office,263601,,Almora,ALMORA,UTTARAKHAND,ALMORA,DEHRADUN,UTTARAKHAND
Barechhina S.O,Sub Post Office,263624,05962-261021,Almora,ALMORA,UTTARAKHAND,ALMORA,DEHRADUN,UTTARAKHAND
Barsimi B.O,Branch Post Office,263636,,Almora,ALMORA,UTTARAKHAND,ALMORA,DEHRADUN,UTTARAKHAND
Basoli B.O,Branch Post Office,263622,,Almora,ALMORA,UTTARAKHAND,ALMORA,DEHRADUN,UTTARAKHAND
Bergaon B.O,Branch Post Office,263678,,Almora,ALMORA,UTTARAKHAND,ALMORA,DEHRADUN,UTTARAKHAND
Bey B.O,Branch Post Office,263601,,Almora,ALMORA,UTTARAKHAND,ALMORA,DEHRADUN,UTTARAKHAND
Bhainsiachhana B.O,Branch Post Office,263624,,Almora,ALMORA,UTTARAKHAND,ALMORA,DEHRADUN,UTTARAKHAND
Bhainsori S.O,Sub Post Office,263684,,Almora,ALMORA,UTTARAKHAND,ALMORA,DEHRADUN,UTTARAKHAND
Bhatkola B.O,Branch Post Office,263601,,Almora,ALMORA,UTTARAKHAND,ALMORA,DEHRADUN,UTTARAKHAND
Birora B.O,Branch Post Office,263601,,Almora,ALMORA,UTTARAKHAND,ALMORA,DEHRADUN,UTTARAKHAND
Chamu Uchyur B.O,Branch Post Office,263601,,Almora,ALMORA,UTTARAKHAND,ALMORA,DEHRADUN,UTTARAKHAND
Chaunsli B.O,Branch Post Office,263601,,Almora,ALMORA,UTTARAKHAND,ALMORA,DEHRADUN,UTTARAKHAND
Chitai B.O,Branch Post Office,263601,,Almora,ALMORA,UTTARAKHAND,ALMORA,DEHRADUN,UTTARAKHAND
Dal B.O,Branch Post Office,263601,,Almora,ALMORA,UTTARAKHAND,ALMORA,DEHRADUN,UTTARAKHAND
Darmar Tikhun B.O,Branch Post Office,263643,,Almora,ALMORA,UTTARAKHAND,ALMORA,DEHRADUN,UTTARAKHAND
Deolikhan B.O,Branch Post Office,263643,,Almora,ALMORA,UTTARAKHAND,ALMORA,DEHRADUN,UTTARAKHAND
Dhamas B.O,Branch Post Office,263601,,Almora,ALMORA,UTTARAKHAND,ALMORA,DEHRADUN,UTTARAKHAND
Dhaura B.O,Branch Post Office,263601,,Almora,ALMORA,UTTARAKHAND,ALMORA,DEHRADUN,UTTARAKHAND
Dinapani B.O,Branch Post Office,263601,,Almora,ALMORA,UTTARAKHAND,ALMORA,DEHRADUN,UTTARAKHAND
Dova B.O,Branch Post Office,263601,,Almora,ALMORA,UTTARAKHAND,ALMORA,DEHRADUN,UTTARAKHAND
Gurkande B.O,Branch Post Office,263636,,Almora,ALMORA,UTTARAKHAND,ALMORA,DEHRADUN,UTTARAKHAND
Hawalbagh S.O,Sub Post Office,263636,05962-241009,Almora,ALMORA,UTTARAKHAND,ALMORA,DEHRADUN,UTTARAKHAND
I.T.I. Almora B.O,Branch Post Office,263601,,Almora,ALMORA,UTTARAKHAND,ALMORA,DEHRADUN,UTTARAKHAND
Jamrari B.O,Branch Post Office,263624,,Almora,ALMORA,UTTARAKHAND,ALMORA,DEHRADUN,UTTARAKHAND
Jeoli B.O,Branch Post Office,263643,,Almora,ALMORA,UTTARAKHAND,ALMORA,DEHRADUN,UTTARAKHAND
Kafarkhan B.O,Branch Post Office,263601,,Almora,ALMORA,UTTARAKHAND,ALMORA,DEHRADUN,UTTARAKHAND
Kanarichhina B.O,Branch Post Office,263624,,Almora,ALMORA,UTTARAKHAND,ALMORA,DEHRADUN,UTTARAKHAND
Kathpuria B.O,Branch Post Office,263643,,Almora,ALMORA,UTTARAKHAND,ALMORA,DEHRADUN,UTTARAKHAND
Kayala B.O,Branch Post Office,263643,,Almora,ALMORA,UTTARAKHAND,ALMORA,DEHRADUN,UTTARAKHAND
Kharaun B.O,Branch Post Office,263601,,Almora,ALMORA,UTTARAKHAND,ALMORA,DEHRADUN,UTTARAKHAND
Khastilari B.O,Branch Post Office,263624,,Almora,ALMORA,UTTARAKHAND,ALMORA,DEHRADUN,UTTARAKHAND
Kirara B.O,Branch Post Office,263601,,Almora,ALMORA,UTTARAKHAND,ALMORA,DEHRADUN,UTTARAKHAND
Kosi S.O,Sub Post Office,263643,05962-241016,Almora,ALMORA,UTTARAKHAND,ALMORA,DEHRADUN,UTTARAKHAND
Lala Bazar S.O,Sub Post Office,263601,05962-234008,Almora,ALMORA,UTTARAKHAND,ALMORA,DEHRADUN,UTTARAKHAND
Laxmeshwar S.O,Sub Post Office,263601,05962-233228,Almora,ALMORA,UTTARAKHAND,ALMORA,DEHRADUN,UTTARAKHAND
Lodhia B.O,Branch Post Office,263601,,Almora,ALMORA,UTTARAKHAND,ALMORA,DEHRADUN,UTTARAKHAND
Mangalta B.O,Branch Post Office,263624,,Almora,ALMORA,UTTARAKHAND,ALMORA,DEHRADUN,UTTARAKHAND
Maniagar B.O,Branch Post Office,263624,,Almora,ALMORA,UTTARAKHAND,ALMORA,DEHRADUN,UTTARAKHAND
Nagarkhan B.O,Branch Post Office,263624,,Almora,ALMORA,UTTARAKHAND,ALMORA,DEHRADUN,UTTARAKHAND
Naraindewal B.O,Branch Post Office,263624,,Almora,ALMORA,UTTARAKHAND,ALMORA,DEHRADUN,UTTARAKHAND
Palyun B.O,Branch Post Office,263624,,Almora,ALMORA,UTTARAKHAND,ALMORA,DEHRADUN,UTTARAKHAND
Patia B.O,Branch Post Office,263601,,Almora,ALMORA,UTTARAKHAND,ALMORA,DEHRADUN,UTTARAKHAND
Petshal B.O,Branch Post Office,263601,,Almora,ALMORA,UTTARAKHAND,ALMORA,DEHRADUN,UTTARAKHAND
Pokharkhali S.O,Sub Post Office,263601,05962-234056,Almora,ALMORA,UTTARAKHAND,ALMORA,DEHRADUN,UTTARAKHAND
Ranikhet H.O,Head Post Office,263645,05966-220226,Almora,ALMORA,UTTARAKHAND,ALMORA,DEHRADUN,UTTARAKHAND
Sainj B.O,Branch Post Office,263624,,Almora,ALMORA,UTTARAKHAND,ALMORA,DEHRADUN,UTTARAKHAND
Salla Bhatkote B.O,Branch Post Office,263624,,Almora,ALMORA,UTTARAKHAND,ALMORA,DEHRADUN,UTTARAKHAND
Shitalakhet S.O,Sub Post Office,263678,05962-244027,Almora,ALMORA,UTTARAKHAND,ALMORA,DEHRADUN,UTTARAKHAND
Sunoli B.O,Branch Post Office,263601,,Almora,ALMORA,UTTARAKHAND,ALMORA,DEHRADUN,UTTARAKHAND
Suri B.O,Branch Post Office,263678,,Almora,ALMORA,UTTARAKHAND,ALMORA,DEHRADUN,UTTARAKHAND
Syalidhar B.O,Branch Post Office,263601,,Almora,ALMORA,UTTARAKHAND,ALMORA,DEHRADUN,UTTARAKHAND
Thana Bazar S.O,Sub Post Office,263601,,Almora,ALMORA,UTTARAKHAND,ALMORA,DEHRADUN,UTTARAKHAND
Zoor B.O,Branch Post Office,263601,,Almora,ALMORA,UTTARAKHAND,ALMORA,DEHRADUN,UTTARAKHAND
Pilkha B.O,Branch Post Office,263601,,Almora.,ALMORA,UTTARAKHAND,ALMORA,DEHRADUN,UTTARAKHAND
Andoli B.O,Branch Post Office,263623,,Bhanoli,ALMORA,UTTARAKHAND,ALMORA,DEHRADUN,UTTARAKHAND
Badiyar B.O,Branch Post Office,263622,,Bhanoli,ALMORA,UTTARAKHAND,ALMORA,DEHRADUN,UTTARAKHAND
Bamanswal B.O,Branch Post Office,263623,,Bhanoli,ALMORA,UTTARAKHAND,ALMORA,DEHRADUN,UTTARAKHAND
Banthok B.O,Branch Post Office,263623,,Bhanoli,ALMORA,UTTARAKHAND,ALMORA,DEHRADUN,UTTARAKHAND
Bhanoli S.O,Sub Post Office,263687,,Bhanoli,ALMORA,UTTARAKHAND,ALMORA,DEHRADUN,UTTARAKHAND
Birkola B.O,Branch Post Office,263622,,Bhanoli,ALMORA,UTTARAKHAND,ALMORA,DEHRADUN,UTTARAKHAND
Chagethi B.O,Branch Post Office,263623,,Bhanoli,ALMORA,UTTARAKHAND,ALMORA,DEHRADUN,UTTARAKHAND
Chamtola B.O,Branch Post Office,263622,,Bhanoli,ALMORA,UTTARAKHAND,ALMORA,DEHRADUN,UTTARAKHAND
Charchalikhan B.O,Branch Post Office,263623,,Bhanoli,ALMORA,UTTARAKHAND,ALMORA,DEHRADUN,UTTARAKHAND
Chaun Dungri B.O,Branch Post Office,263622,,Bhanoli,ALMORA,UTTARAKHAND,ALMORA,DEHRADUN,UTTARAKHAND
Chelchhina B.O,Branch Post Office,263623,,Bhanoli,ALMORA,UTTARAKHAND,ALMORA,DEHRADUN,UTTARAKHAND
Dania S.O,Sub Post Office,263622,05962-271021,Bhanoli,ALMORA,UTTARAKHAND,ALMORA,DEHRADUN,UTTARAKHAND
Dasolibadiyar B.O,Branch Post Office,263622,,Bhanoli,ALMORA,UTTARAKHAND,ALMORA,DEHRADUN,UTTARAKHAND
Dauligarh B.O,Branch Post Office,263622,,Bhanoli,ALMORA,UTTARAKHAND,ALMORA,DEHRADUN,UTTARAKHAND
Dhauladevi S.O,Sub Post Office,263683,,Bhanoli,ALMORA,UTTARAKHAND,ALMORA,DEHRADUN,UTTARAKHAND
Dhaulchhina S.O,Sub Post Office,263681,,Bhanoli,ALMORA,UTTARAKHAND,ALMORA,DEHRADUN,UTTARAKHAND
Dhura B.O,Branch Post Office,263622,,Bhanoli,ALMORA,UTTARAKHAND,ALMORA,DEHRADUN,UTTARAKHAND
Dhyari B.O,Branch Post Office,263622,,Bhanoli,ALMORA,UTTARAKHAND,ALMORA,DEHRADUN,UTTARAKHAND
Doram B.O,Branch Post Office,263623,,Bhanoli,ALMORA,UTTARAKHAND,ALMORA,DEHRADUN,UTTARAKHAND
Dunar B.O,Branch Post Office,263623,,Bhanoli,ALMORA,UTTARAKHAND,ALMORA,DEHRADUN,UTTARAKHAND
Garurabanj B.O,Branch Post Office,263623,,Bhanoli,ALMORA,UTTARAKHAND,ALMORA,DEHRADUN,UTTARAKHAND
Gunaditya B.O,Branch Post Office,263623,,Bhanoli,ALMORA,UTTARAKHAND,ALMORA,DEHRADUN,UTTARAKHAND
Jageshwar B.O,Branch Post Office,263623,,Bhanoli,ALMORA,UTTARAKHAND,ALMORA,DEHRADUN,UTTARAKHAND
Jhankarsaim B.O,Branch Post Office,263623,,Bhanoli,ALMORA,UTTARAKHAND,ALMORA,DEHRADUN,UTTARAKHAND
Jingoli Toli B.O,Branch Post Office,263622,,Bhanoli,ALMORA,UTTARAKHAND,ALMORA,DEHRADUN,UTTARAKHAND
Kafalisuwakhan B.O,Branch Post Office,263623,,Bhanoli,ALMORA,UTTARAKHAND,ALMORA,DEHRADUN,UTTARAKHAND
Kafalni B.O,Branch Post Office,263622,,Bhanoli,ALMORA,UTTARAKHAND,ALMORA,DEHRADUN,UTTARAKHAND
Kasermanya B.O,Branch Post Office,263623,,Bhanoli,ALMORA,UTTARAKHAND,ALMORA,DEHRADUN,UTTARAKHAND
Khatiyola B.O,Branch Post Office,263622,,Bhanoli,ALMORA,UTTARAKHAND,ALMORA,DEHRADUN,UTTARAKHAND
Kheti B.O,Branch Post Office,263622,,Bhanoli,ALMORA,UTTARAKHAND,ALMORA,DEHRADUN,UTTARAKHAND
Khola B.O,Branch Post Office,263623,,Bhanoli,ALMORA,UTTARAKHAND,ALMORA,DEHRADUN,UTTARAKHAND
Maharagaon B.O,Branch Post Office,263623,,Bhanoli,ALMORA,UTTARAKHAND,ALMORA,DEHRADUN,UTTARAKHAND
Mayoli B.O,Branch Post Office,263622,,Bhanoli,ALMORA,UTTARAKHAND,ALMORA,DEHRADUN,UTTARAKHAND
Mirtola B.O,Branch Post Office,263623,,Bhanoli,ALMORA,UTTARAKHAND,ALMORA,DEHRADUN,UTTARAKHAND
Naini B.O,Branch Post Office,263623,,Bhanoli,ALMORA,UTTARAKHAND,ALMORA,DEHRADUN,UTTARAKHAND
Nali B.O,Branch Post Office,263623,,Bhanoli,ALMORA,UTTARAKHAND,ALMORA,DEHRADUN,UTTARAKHAND
Neoliharara B.O,Branch Post Office,263623,,Bhanoli,ALMORA,UTTARAKHAND,ALMORA,DEHRADUN,UTTARAKHAND
Panuwanaula S.O,Sub Post Office,263623,05962-263013,Bhanoli,ALMORA,UTTARAKHAND,ALMORA,DEHRADUN,UTTARAKHAND
Pitoli B.O,Branch Post Office,263622,,Bhanoli,ALMORA,UTTARAKHAND,ALMORA,DEHRADUN,UTTARAKHAND
Pokhari B.O,Branch Post Office,263622,,Bhanoli,ALMORA,UTTARAKHAND,ALMORA,DEHRADUN,UTTARAKHAND
Salparh B.O,Branch Post Office,263622,,Bhanoli,ALMORA,UTTARAKHAND,ALMORA,DEHRADUN,UTTARAKHAND
Sona Shilling B.O,Branch Post Office,263622,,Bhanoli,ALMORA,UTTARAKHAND,ALMORA,DEHRADUN,UTTARAKHAND
Tapani B.O,Branch Post Office,263622,,Bhanoli,ALMORA,UTTARAKHAND,ALMORA,DEHRADUN,UTTARAKHAND
Thali B.O,Branch Post Office,263622,,Bhanoli,ALMORA,UTTARAKHAND,ALMORA,DEHRADUN,UTTARAKHAND
Thikalna B.O,Branch Post Office,263623,,Bhanoli,ALMORA,UTTARAKHAND,ALMORA,DEHRADUN,UTTARAKHAND
Airari Bisht B.O,Branch Post Office,263665,,Bhikiyasen,ALMORA,UTTARAKHAND,ALMORA,DEHRADUN,UTTARAKHAND
Basai B.O,Branch Post Office,263661,,Bhikiyasen,ALMORA,UTTARAKHAND,ALMORA,DEHRADUN,UTTARAKHAND
Bawari Kichar B.O,Branch Post Office,263665,,Bhikiyasen,ALMORA,UTTARAKHAND,ALMORA,DEHRADUN,UTTARAKHAND
Bhatronjkhan S.O,Sub Post Office,263646,05966-287003,Bhikiyasen,ALMORA,UTTARAKHAND,ALMORA,DEHRADUN,UTTARAKHAND
Bhikiyasen S.O,Sub Post Office,263667,05966-248433,Bhikiyasen,ALMORA,UTTARAKHAND,ALMORA,DEHRADUN,UTTARAKHAND
Bisrakhet B.O,Branch Post Office,263661,,Bhikiyasen,ALMORA,UTTARAKHAND,ALMORA,DEHRADUN,UTTARAKHAND
Chachroti B.O,Branch Post Office,263661,,Bhikiyasen,ALMORA,UTTARAKHAND,ALMORA,DEHRADUN,UTTARAKHAND
Chaunallia S.O,Sub Post Office,263680,05966-287006,Bhikiyasen,ALMORA,UTTARAKHAND,ALMORA,DEHRADUN,UTTARAKHAND
Daula S.O,Sub Post Office,263660,05966-253011,Bhikiyasen,ALMORA,UTTARAKHAND,ALMORA,DEHRADUN,UTTARAKHAND
Deghat S.O,Sub Post Office,263659,05966-247124,Bhikiyasen,ALMORA,UTTARAKHAND,ALMORA,DEHRADUN,UTTARAKHAND
Gudlekh B.O,Branch Post Office,263661,,Bhikiyasen,ALMORA,UTTARAKHAND,ALMORA,DEHRADUN,UTTARAKHAND
Jayanteshwar Simalchaura B.O,Branch Post Office,263661,,Bhikiyasen,ALMORA,UTTARAKHAND,ALMORA,DEHRADUN,UTTARAKHAND
Kelani B.O,Branch Post Office,263661,,Bhikiyasen,ALMORA,UTTARAKHAND,ALMORA,DEHRADUN,UTTARAKHAND
Khadalgaon B.O,Branch Post Office,263661,,Bhikiyasen,ALMORA,UTTARAKHAND,ALMORA,DEHRADUN,UTTARAKHAND
Kulanteshwar B.O,Branch Post Office,263661,,Bhikiyasen,ALMORA,UTTARAKHAND,ALMORA,DEHRADUN,UTTARAKHAND
Matela S.O,Sub Post Office,263665,,Bhikiyasen,ALMORA,UTTARAKHAND,ALMORA,DEHRADUN,UTTARAKHAND
Maulekhal S.O,Sub Post Office,263676,05966-238706,Bhikiyasen,ALMORA,UTTARAKHAND,ALMORA,DEHRADUN,UTTARAKHAND
Nail Chaukote B.O,Branch Post Office,263665,,Bhikiyasen,ALMORA,UTTARAKHAND,ALMORA,DEHRADUN,UTTARAKHAND
Patharkhola B.O,Branch Post Office,263661,,Bhikiyasen,ALMORA,UTTARAKHAND,ALMORA,DEHRADUN,UTTARAKHAND
Pipalkhal B.O,Branch Post Office,263661,,Bhikiyasen,ALMORA,UTTARAKHAND,ALMORA,DEHRADUN,UTTARAKHAND
Rudoli B.O,Branch Post Office,263661,,Bhikiyasen,ALMORA,UTTARAKHAND,ALMORA,DEHRADUN,UTTARAKHAND
Sarikhet B.O,Branch Post Office,263661,,Bhikiyasen,ALMORA,UTTARAKHAND,ALMORA,DEHRADUN,UTTARAKHAND
Syalde S.O,Sub Post Office,263661,05966-247423,Bhikiyasen,ALMORA,UTTARAKHAND,ALMORA,DEHRADUN,UTTARAKHAND
Tamadhaun B.O,Branch Post Office,263661,,Bhikiyasen,ALMORA,UTTARAKHAND,ALMORA,DEHRADUN,UTTARAKHAND
Udepur B.O,Branch Post Office,263661,,Bhikiyasen,ALMORA,UTTARAKHAND,ALMORA,DEHRADUN,UTTARAKHAND
Bhairongkhal S.O,Sub Post Office,244718,,Bhikyasain,ALMORA,UTTARAKHAND,NAINITAL,DEHRADUN,UTTARAKHAND
Bhagoti B.O,Branch Post Office,263656,,Chaukhutia,ALMORA,UTTARAKHAND,ALMORA,DEHRADUN,UTTARAKHAND
Bhatkote B.O,Branch Post Office,263656,,Chaukhutia,ALMORA,UTTARAKHAND,ALMORA,DEHRADUN,UTTARAKHAND
Bheltgaon B.O,Branch Post Office,263656,,Chaukhutia,ALMORA,UTTARAKHAND,ALMORA,DEHRADUN,UTTARAKHAND
Chhitar B.O,Branch Post Office,263656,,Chaukhutia,ALMORA,UTTARAKHAND,ALMORA,DEHRADUN,UTTARAKHAND
Dhamdewal B.O,Branch Post Office,263656,,Chaukhutia,ALMORA,UTTARAKHAND,ALMORA,DEHRADUN,UTTARAKHAND
Gairkhet B.O,Branch Post Office,263658,,Chaukhutia,ALMORA,UTTARAKHAND,ALMORA,DEHRADUN,UTTARAKHAND
Ganai S.O,Sub Post Office,263656,05966-255083,Chaukhutia,ALMORA,UTTARAKHAND,ALMORA,DEHRADUN,UTTARAKHAND
Godi B.O,Branch Post Office,263656,,Chaukhutia,ALMORA,UTTARAKHAND,ALMORA,DEHRADUN,UTTARAKHAND
Jairambakhal B.O,Branch Post Office,263656,,Chaukhutia,ALMORA,UTTARAKHAND,ALMORA,DEHRADUN,UTTARAKHAND
Jaurasi B.O,Branch Post Office,263656,,Chaukhutia,ALMORA,UTTARAKHAND,ALMORA,DEHRADUN,UTTARAKHAND
Jharkote B.O,Branch Post Office,263658,,Chaukhutia,ALMORA,UTTARAKHAND,ALMORA,DEHRADUN,UTTARAKHAND
Khatyari B.O,Branch Post Office,263656,,Chaukhutia,ALMORA,UTTARAKHAND,ALMORA,DEHRADUN,UTTARAKHAND
Khira B.O,Branch Post Office,263656,,Chaukhutia,ALMORA,UTTARAKHAND,ALMORA,DEHRADUN,UTTARAKHAND
Marku Bakhal B.O,Branch Post Office,263656,,Chaukhutia,ALMORA,UTTARAKHAND,ALMORA,DEHRADUN,UTTARAKHAND
Masi S.O,Sub Post Office,263658,05966-257214,Chaukhutia,ALMORA,UTTARAKHAND,ALMORA,DEHRADUN,UTTARAKHAND
Naikana B.O,Branch Post Office,263658,,Chaukhutia,ALMORA,UTTARAKHAND,ALMORA,DEHRADUN,UTTARAKHAND
Naula B.O,Branch Post Office,263658,,Chaukhutia,ALMORA,UTTARAKHAND,ALMORA,DEHRADUN,UTTARAKHAND
Panduwakhal B.O,Branch Post Office,263656,,Chaukhutia,ALMORA,UTTARAKHAND,ALMORA,DEHRADUN,UTTARAKHAND
Rampur B.O,Branch Post Office,263656,,Chaukhutia,ALMORA,UTTARAKHAND,ALMORA,DEHRADUN,UTTARAKHAND
Rotapani B.O,Branch Post Office,263658,,Chaukhutia,ALMORA,UTTARAKHAND,ALMORA,DEHRADUN,UTTARAKHAND
Sanara B.O,Branch Post Office,263658,,Chaukhutia,ALMORA,UTTARAKHAND,ALMORA,DEHRADUN,UTTARAKHAND
Taragtal B.O,Branch Post Office,263656,,Chaukhutia,ALMORA,UTTARAKHAND,ALMORA,DEHRADUN,UTTARAKHAND
Timilkhal B.O,Branch Post Office,263658,,Chaukhutia,ALMORA,UTTARAKHAND,ALMORA,DEHRADUN,UTTARAKHAND
Turachaura B.O,Branch Post Office,263658,,Chaukhutia,ALMORA,UTTARAKHAND,ALMORA,DEHRADUN,UTTARAKHAND
Dwarahat S.O,Sub Post Office,263653,05966-244221,Dawarahat,ALMORA,UTTARAKHAND,ALMORA,DEHRADUN,UTTARAKHAND
Kafara S.O,Sub Post Office,263675,,Dawarahat,ALMORA,UTTARAKHAND,ALMORA,DEHRADUN,UTTARAKHAND
Jalali S.O,Sub Post Office,263662,,Dawaraht,ALMORA,UTTARAKHAND,ALMORA,DEHRADUN,UTTARAKHAND
Asgoli S.O,Sub Post Office,263654,,Dwarahat,ALMORA,UTTARAKHAND,ALMORA,DEHRADUN,UTTARAKHAND
Bagwalipokhar S.O,Sub Post Office,263621,05966-254127,Dwarahat,ALMORA,UTTARAKHAND,ALMORA,DEHRADUN,UTTARAKHAND
Kausani Estate S.O,Sub Post Office,263620,05962-258004,Garur,ALMORA,UTTARAKHAND,ALMORA,DEHRADUN,UTTARAKHAND
Kausani S.O,Sub Post Office,263639,05962-258034,Garur,ALMORA,UTTARAKHAND,ALMORA,DEHRADUN,UTTARAKHAND
Anuli B.O,Branch Post Office,263625,,Jainti,ALMORA,UTTARAKHAND,ALMORA,DEHRADUN,UTTARAKHAND
Bagswar B.O,Branch Post Office,263626,,Jainti,ALMORA,UTTARAKHAND,ALMORA,DEHRADUN,UTTARAKHAND
Basantpur B.O,Branch Post Office,263626,,Jainti,ALMORA,UTTARAKHAND,ALMORA,DEHRADUN,UTTARAKHAND
Bedchula B.O,Branch Post Office,263625,,Jainti,ALMORA,UTTARAKHAND,ALMORA,DEHRADUN,UTTARAKHAND
Bhabu B.O,Branch Post Office,263626,,Jainti,ALMORA,UTTARAKHAND,ALMORA,DEHRADUN,UTTARAKHAND
Birkham B.O,Branch Post Office,263626,,Jainti,ALMORA,UTTARAKHAND,ALMORA,DEHRADUN,UTTARAKHAND
Chaikhan B.O,Branch Post Office,263625,,Jainti,ALMORA,UTTARAKHAND,ALMORA,DEHRADUN,UTTARAKHAND
Chhana Kharkota B.O,Branch Post Office,263626,,Jainti,ALMORA,UTTARAKHAND,ALMORA,DEHRADUN,UTTARAKHAND
Dharkhola B.O,Branch Post Office,263625,,Jainti,ALMORA,UTTARAKHAND,ALMORA,DEHRADUN,UTTARAKHAND
Dhyuli B.O,Branch Post Office,263625,,Jainti,ALMORA,UTTARAKHAND,ALMORA,DEHRADUN,UTTARAKHAND
Jainti S.O,Sub Post Office,263626,05962-275604,Jainti,ALMORA,UTTARAKHAND,ALMORA,DEHRADUN,UTTARAKHAND
Jakh B.O,Branch Post Office,263625,,Jainti,ALMORA,UTTARAKHAND,ALMORA,DEHRADUN,UTTARAKHAND
Jalna S.O,Sub Post Office,263625,05962-256003,Jainti,ALMORA,UTTARAKHAND,ALMORA,DEHRADUN,UTTARAKHAND
Jhaldungra B.O,Branch Post Office,263626,,Jainti,ALMORA,UTTARAKHAND,ALMORA,DEHRADUN,UTTARAKHAND
Mathena B.O,Branch Post Office,263625,,Jainti,ALMORA,UTTARAKHAND,ALMORA,DEHRADUN,UTTARAKHAND
Motiapathar B.O,Branch Post Office,263625,,Jainti,ALMORA,UTTARAKHAND,ALMORA,DEHRADUN,UTTARAKHAND
Nail B.O,Branch Post Office,263625,,Jainti,ALMORA,UTTARAKHAND,ALMORA,DEHRADUN,UTTARAKHAND
Naura B.O,Branch Post Office,263625,,Jainti,ALMORA,UTTARAKHAND,ALMORA,DEHRADUN,UTTARAKHAND
Pubhaon B.O,Branch Post Office,263626,,Jainti,ALMORA,UTTARAKHAND,ALMORA,DEHRADUN,UTTARAKHAND
Rajyura B.O,Branch Post Office,263626,,Jainti,ALMORA,UTTARAKHAND,ALMORA,DEHRADUN,UTTARAKHAND
Satyun B.O,Branch Post Office,263625,,Jainti,ALMORA,UTTARAKHAND,ALMORA,DEHRADUN,UTTARAKHAND
Shaharphatak B.O,Branch Post Office,263625,,Jainti,ALMORA,UTTARAKHAND,ALMORA,DEHRADUN,UTTARAKHAND
Syunai B.O,Branch Post Office,263625,,Jainti,ALMORA,UTTARAKHAND,ALMORA,DEHRADUN,UTTARAKHAND
Aina B.O,Branch Post Office,263652,,RANIKHET,ALMORA,UTTARAKHAND,ALMORA,DEHRADUN,UTTARAKHAND
Ajoli Malli B.O,Branch Post Office,263646,,Ranikhet,ALMORA,UTTARAKHAND,ALMORA,DEHRADUN,UTTARAKHAND
Almiankande B.O,Branch Post Office,263645,,Ranikhet,ALMORA,UTTARAKHAND,ALMORA,DEHRADUN,UTTARAKHAND
Amyari B.O,Branch Post Office,263645,,Ranikhet,ALMORA,UTTARAKHAND,ALMORA,DEHRADUN,UTTARAKHAND
Bamsyun B.O,Branch Post Office,263645,,Ranikhet,ALMORA,UTTARAKHAND,ALMORA,DEHRADUN,UTTARAKHAND
Barangal B.O,Branch Post Office,263659,,Ranikhet,ALMORA,UTTARAKHAND,ALMORA,DEHRADUN,UTTARAKHAND
Basbhira B.O,Branch Post Office,263653,,Ranikhet,ALMORA,UTTARAKHAND,ALMORA,DEHRADUN,UTTARAKHAND
Basot B.O,Branch Post Office,263680,,Ranikhet,ALMORA,UTTARAKHAND,ALMORA,DEHRADUN,UTTARAKHAND
Bayeri B.O,Branch Post Office,263663,,Ranikhet,ALMORA,UTTARAKHAND,ALMORA,DEHRADUN,UTTARAKHAND
Bhainsoli B.O,Branch Post Office,263652,,Ranikhet,ALMORA,UTTARAKHAND,ALMORA,DEHRADUN,UTTARAKHAND
Bhaunkhal B.O,Branch Post Office,263646,,Ranikhet,ALMORA,UTTARAKHAND,ALMORA,DEHRADUN,UTTARAKHAND
Bhujan B.O,Branch Post Office,263645,,Ranikhet,ALMORA,UTTARAKHAND,ALMORA,DEHRADUN,UTTARAKHAND
Bilekh B.O,Branch Post Office,263663,,Ranikhet,ALMORA,UTTARAKHAND,ALMORA,DEHRADUN,UTTARAKHAND
Binta B.O,Branch Post Office,263621,,Ranikhet,ALMORA,UTTARAKHAND,ALMORA,DEHRADUN,UTTARAKHAND
Bitholi B.O,Branch Post Office,263653,,Ranikhet,ALMORA,UTTARAKHAND,ALMORA,DEHRADUN,UTTARAKHAND
Chakargaon B.O,Branch Post Office,263659,,Ranikhet,ALMORA,UTTARAKHAND,ALMORA,DEHRADUN,UTTARAKHAND
Chamarkhan B.O,Branch Post Office,263664,,Ranikhet,ALMORA,UTTARAKHAND,ALMORA,DEHRADUN,UTTARAKHAND
Chantharia B.O,Branch Post Office,263653,,Ranikhet,ALMORA,UTTARAKHAND,ALMORA,DEHRADUN,UTTARAKHAND
Chaubattia S.O,Sub Post Office,263651,05966-220608,Ranikhet,ALMORA,UTTARAKHAND,ALMORA,DEHRADUN,UTTARAKHAND
Chaukuni B.O,Branch Post Office,263645,,Ranikhet,ALMORA,UTTARAKHAND,ALMORA,DEHRADUN,UTTARAKHAND
Chhana B.O,Branch Post Office,263645,,Ranikhet,ALMORA,UTTARAKHAND,ALMORA,DEHRADUN,UTTARAKHAND
Chhatena B.O,Branch Post Office,263653,,Ranikhet,ALMORA,UTTARAKHAND,ALMORA,DEHRADUN,UTTARAKHAND
Chhatgulla B.O,Branch Post Office,263653,,Ranikhet,ALMORA,UTTARAKHAND,ALMORA,DEHRADUN,UTTARAKHAND
Chilianaula B.O,Branch Post Office,263645,,Ranikhet,ALMORA,UTTARAKHAND,ALMORA,DEHRADUN,UTTARAKHAND
Chitreshwar B.O,Branch Post Office,263653,,Ranikhet,ALMORA,UTTARAKHAND,ALMORA,DEHRADUN,UTTARAKHAND
Dabhra B.O,Branch Post Office,263667,,Ranikhet,ALMORA,UTTARAKHAND,ALMORA,DEHRADUN,UTTARAKHAND
Darmar B.O,Branch Post Office,263645,,Ranikhet,ALMORA,UTTARAKHAND,ALMORA,DEHRADUN,UTTARAKHAND
Daurakhal B.O,Branch Post Office,263664,,Ranikhet,ALMORA,UTTARAKHAND,ALMORA,DEHRADUN,UTTARAKHAND
Deolikhet S.O,Sub Post Office,263664,05966-255119,Ranikhet,ALMORA,UTTARAKHAND,ALMORA,DEHRADUN,UTTARAKHAND
Dhamera B.O,Branch Post Office,263660,,Ranikhet,ALMORA,UTTARAKHAND,ALMORA,DEHRADUN,UTTARAKHAND
Dunagiri B.O,Branch Post Office,263653,,Ranikhet,ALMORA,UTTARAKHAND,ALMORA,DEHRADUN,UTTARAKHAND
Dwarson B.O,Branch Post Office,263652,,Ranikhet,ALMORA,UTTARAKHAND,ALMORA,DEHRADUN,UTTARAKHAND
Ganiadeoli S.O,Sub Post Office,263677,,Ranikhet,ALMORA,UTTARAKHAND,ALMORA,DEHRADUN,UTTARAKHAND
Gewar B.O,Branch Post Office,263653,,Ranikhet,ALMORA,UTTARAKHAND,ALMORA,DEHRADUN,UTTARAKHAND
Ghatti B.O,Branch Post Office,263646,,Ranikhet,ALMORA,UTTARAKHAND,ALMORA,DEHRADUN,UTTARAKHAND
Ghuguti Kelani B.O,Branch Post Office,263659,,Ranikhet,ALMORA,UTTARAKHAND,ALMORA,DEHRADUN,UTTARAKHAND
Haldiyani B.O,Branch Post Office,263645,,Ranikhet,ALMORA,UTTARAKHAND,ALMORA,DEHRADUN,UTTARAKHAND
Harara B.O,Branch Post Office,263646,,Ranikhet,ALMORA,UTTARAKHAND,ALMORA,DEHRADUN,UTTARAKHAND
Irah B.O,Branch Post Office,263653,,Ranikhet,ALMORA,UTTARAKHAND,ALMORA,DEHRADUN,UTTARAKHAND
Jaikhal B.O,Branch Post Office,263659,,Ranikhet,ALMORA,UTTARAKHAND,ALMORA,DEHRADUN,UTTARAKHAND
Jakh B.O,Branch Post Office,263646,,Ranikhet,ALMORA,UTTARAKHAND,ALMORA,DEHRADUN,UTTARAKHAND
Jamoli B.O,Branch Post Office,263667,,Ranikhet,ALMORA,UTTARAKHAND,ALMORA,DEHRADUN,UTTARAKHAND
Kalika Estate B.O,Branch Post Office,263645,,Ranikhet,ALMORA,UTTARAKHAND,ALMORA,DEHRADUN,UTTARAKHAND
Kanoli B.O,Branch Post Office,263664,,Ranikhet,ALMORA,UTTARAKHAND,ALMORA,DEHRADUN,UTTARAKHAND
Khalna B.O,Branch Post Office,263653,,Ranikhet,ALMORA,UTTARAKHAND,ALMORA,DEHRADUN,UTTARAKHAND
Khirkhet B.O,Branch Post Office,263645,,Ranikhet,ALMORA,UTTARAKHAND,ALMORA,DEHRADUN,UTTARAKHAND
Kotagiwai B.O,Branch Post Office,263680,,Ranikhet,ALMORA,UTTARAKHAND,ALMORA,DEHRADUN,UTTARAKHAND
Kotar B.O,Branch Post Office,263663,,Ranikhet,ALMORA,UTTARAKHAND,ALMORA,DEHRADUN,UTTARAKHAND
Kotuli Malli B.O,Branch Post Office,263646,,Ranikhet,ALMORA,UTTARAKHAND,ALMORA,DEHRADUN,UTTARAKHAND
Kulsibi B.O,Branch Post Office,263652,,Ranikhet,ALMORA,UTTARAKHAND,ALMORA,DEHRADUN,UTTARAKHAND
Kunhil B.O,Branch Post Office,263667,,Ranikhet,ALMORA,UTTARAKHAND,ALMORA,DEHRADUN,UTTARAKHAND
Kuwali B.O,Branch Post Office,263652,,Ranikhet,ALMORA,UTTARAKHAND,ALMORA,DEHRADUN,UTTARAKHAND
Machhor B.O,Branch Post Office,263646,,Ranikhet,ALMORA,UTTARAKHAND,ALMORA,DEHRADUN,UTTARAKHAND
Mahakaleshwar B.O,Branch Post Office,263653,,Ranikhet,ALMORA,UTTARAKHAND,ALMORA,DEHRADUN,UTTARAKHAND
Majkhali S.O,Sub Post Office,263652,05966-240330,Ranikhet,ALMORA,UTTARAKHAND,ALMORA,DEHRADUN,UTTARAKHAND
Manela B.O,Branch Post Office,263645,,Ranikhet,ALMORA,UTTARAKHAND,ALMORA,DEHRADUN,UTTARAKHAND
Mangdoli B.O,Branch Post Office,263645,,Ranikhet,ALMORA,UTTARAKHAND,ALMORA,DEHRADUN,UTTARAKHAND
Manila B.O,Branch Post Office,263667,,Ranikhet,ALMORA,UTTARAKHAND,ALMORA,DEHRADUN,UTTARAKHAND
Manuli B.O,Branch Post Office,263667,,Ranikhet,ALMORA,UTTARAKHAND,ALMORA,DEHRADUN,UTTARAKHAND
Masar B.O,Branch Post Office,263645,,Ranikhet,ALMORA,UTTARAKHAND,ALMORA,DEHRADUN,UTTARAKHAND
Mirai Malli B.O,Branch Post Office,263645,,Ranikhet,ALMORA,UTTARAKHAND,ALMORA,DEHRADUN,UTTARAKHAND
Munani B.O,Branch Post Office,263659,,Ranikhet,ALMORA,UTTARAKHAND,ALMORA,DEHRADUN,UTTARAKHAND
Nagarjhan B.O,Branch Post Office,263653,,Ranikhet,ALMORA,UTTARAKHAND,ALMORA,DEHRADUN,UTTARAKHAND
Naila B.O,Branch Post Office,263660,,Ranikhet,ALMORA,UTTARAKHAND,ALMORA,DEHRADUN,UTTARAKHAND
Naubara B.O,Branch Post Office,263660,,Ranikhet,ALMORA,UTTARAKHAND,ALMORA,DEHRADUN,UTTARAKHAND
Naulakote B.O,Branch Post Office,263621,,Ranikhet,ALMORA,UTTARAKHAND,ALMORA,DEHRADUN,UTTARAKHAND
Paithani B.O,Branch Post Office,263653,,Ranikhet,ALMORA,UTTARAKHAND,ALMORA,DEHRADUN,UTTARAKHAND
Pali B.O,Branch Post Office,263680,,Ranikhet,ALMORA,UTTARAKHAND,ALMORA,DEHRADUN,UTTARAKHAND
Pandekota B.O,Branch Post Office,263645,,Ranikhet,ALMORA,UTTARAKHAND,ALMORA,DEHRADUN,UTTARAKHAND
Pantgaon B.O,Branch Post Office,263680,,Ranikhet,ALMORA,UTTARAKHAND,ALMORA,DEHRADUN,UTTARAKHAND
Pantkotuli B.O,Branch Post Office,263645,,Ranikhet,ALMORA,UTTARAKHAND,ALMORA,DEHRADUN,UTTARAKHAND
Panuwadeokhan B.O,Branch Post Office,263646,,Ranikhet,ALMORA,UTTARAKHAND,ALMORA,DEHRADUN,UTTARAKHAND
Pilkholi S.O,Sub Post Office,263671,,Ranikhet,ALMORA,UTTARAKHAND,ALMORA,DEHRADUN,UTTARAKHAND
Querala B.O,Branch Post Office,263667,,Ranikhet,ALMORA,UTTARAKHAND,ALMORA,DEHRADUN,UTTARAKHAND
Ranikhet Kutchery S.O,Sub Post Office,263645,05966-220619,Ranikhet,ALMORA,UTTARAKHAND,ALMORA,DEHRADUN,UTTARAKHAND
Ranikhet Sadar Bazar S.O,Sub Post Office,263645,05966-220642,Ranikhet,ALMORA,UTTARAKHAND,ALMORA,DEHRADUN,UTTARAKHAND
Ratgal B.O,Branch Post Office,263652,,Ranikhet,ALMORA,UTTARAKHAND,ALMORA,DEHRADUN,UTTARAKHAND
Rokhon B.O,Branch Post Office,263659,,Ranikhet,ALMORA,UTTARAKHAND,ALMORA,DEHRADUN,UTTARAKHAND
Sagneti B.O,Branch Post Office,263664,,Ranikhet,ALMORA,UTTARAKHAND,ALMORA,DEHRADUN,UTTARAKHAND
Sainmanpur B.O,Branch Post Office,263667,,Ranikhet,ALMORA,UTTARAKHAND,ALMORA,DEHRADUN,UTTARAKHAND
Saknara B.O,Branch Post Office,263667,,Ranikhet,ALMORA,UTTARAKHAND,ALMORA,DEHRADUN,UTTARAKHAND
Sauni B.O,Branch Post Office,263663,,Ranikhet,ALMORA,UTTARAKHAND,ALMORA,DEHRADUN,UTTARAKHAND
Seem B.O,Branch Post Office,263680,,Ranikhet,ALMORA,UTTARAKHAND,ALMORA,DEHRADUN,UTTARAKHAND
Shishuwa B.O,Branch Post Office,263663,,Ranikhet,ALMORA,UTTARAKHAND,ALMORA,DEHRADUN,UTTARAKHAND
Silor Mahadev B.O,Branch Post Office,263645,,Ranikhet,ALMORA,UTTARAKHAND,ALMORA,DEHRADUN,UTTARAKHAND
Sinar B.O,Branch Post Office,263667,,Ranikhet,ALMORA,UTTARAKHAND,ALMORA,DEHRADUN,UTTARAKHAND
Sinora B.O,Branch Post Office,263645,,Ranikhet,ALMORA,UTTARAKHAND,ALMORA,DEHRADUN,UTTARAKHAND
Sure B.O,Branch Post Office,263653,,Ranikhet,ALMORA,UTTARAKHAND,ALMORA,DEHRADUN,UTTARAKHAND
Tarikhet S.O,Sub Post Office,263663,05966-264221,Ranikhet,ALMORA,UTTARAKHAND,ALMORA,DEHRADUN,UTTARAKHAND
Taya B.O,Branch Post Office,263680,,Ranikhet,ALMORA,UTTARAKHAND,ALMORA,DEHRADUN,UTTARAKHAND
Timtha B.O,Branch Post Office,263660,,Ranikhet,ALMORA,UTTARAKHAND,ALMORA,DEHRADUN,UTTARAKHAND
Tolyun B.O,Branch Post Office,263646,,Ranikhet,ALMORA,UTTARAKHAND,ALMORA,DEHRADUN,UTTARAKHAND
Totam B.O,Branch Post Office,263646,,Ranikhet,ALMORA,UTTARAKHAND,ALMORA,DEHRADUN,UTTARAKHAND
Ugalia B.O,Branch Post Office,263680,,Ranikhet,ALMORA,UTTARAKHAND,ALMORA,DEHRADUN,UTTARAKHAND
Ujrar B.O,Branch Post Office,263667,,Ranikhet,ALMORA,UTTARAKHAND,ALMORA,DEHRADUN,UTTARAKHAND
Uprari Chaukote B.O,Branch Post Office,263659,,Ranikhet,ALMORA,UTTARAKHAND,ALMORA,DEHRADUN,UTTARAKHAND
Uprari S.O,Sub Post Office,263686,,Ranikhet,ALMORA,UTTARAKHAND,ALMORA,DEHRADUN,UTTARAKHAND
Amdhar B.O,Branch Post Office,263676,,Salt,ALMORA,UTTARAKHAND,ALMORA,DEHRADUN,UTTARAKHAND
Bangidhar B.O,Branch Post Office,263676,,salt,ALMORA,UTTARAKHAND,ALMORA,DEHRADUN,UTTARAKHAND
Bhyari B.O,Branch Post Office,263676,,salt,ALMORA,UTTARAKHAND,ALMORA,DEHRADUN,UTTARAKHAND
Chamkana B.O,Branch Post Office,263676,,salt,ALMORA,UTTARAKHAND,ALMORA,DEHRADUN,UTTARAKHAND
Debikhal B.O,Branch Post Office,263676,,salt,ALMORA,UTTARAKHAND,ALMORA,DEHRADUN,UTTARAKHAND
Garkote Malla B.O,Branch Post Office,263676,,salt,ALMORA,UTTARAKHAND,ALMORA,DEHRADUN,UTTARAKHAND
Jhimar B.O,Branch Post Office,263676,,salt,ALMORA,UTTARAKHAND,ALMORA,DEHRADUN,UTTARAKHAND
Kafalata Malla B.O,Branch Post Office,263676,,salt,ALMORA,UTTARAKHAND,ALMORA,DEHRADUN,UTTARAKHAND
Khumar B.O,Branch Post Office,263676,,salt,ALMORA,UTTARAKHAND,ALMORA,DEHRADUN,UTTARAKHAND
Maithani B.O,Branch Post Office,263676,,salt,ALMORA,UTTARAKHAND,ALMORA,DEHRADUN,UTTARAKHAND
Manhet B.O,Branch Post Office,263676,,salt,ALMORA,UTTARAKHAND,ALMORA,DEHRADUN,UTTARAKHAND
Painsia B.O,Branch Post Office,263676,,salt,ALMORA,UTTARAKHAND,ALMORA,DEHRADUN,UTTARAKHAND
Pipna B.O,Branch Post Office,263676,,salt,ALMORA,UTTARAKHAND,ALMORA,DEHRADUN,UTTARAKHAND
Bainskhet B.O,Branch Post Office,263655,,Someshwar,ALMORA,UTTARAKHAND,ALMORA,DEHRADUN,UTTARAKHAND
Baninsargaon B.O,Branch Post Office,263627,,Someshwar,ALMORA,UTTARAKHAND,ALMORA,DEHRADUN,UTTARAKHAND
Bhagtola S.O,Sub Post Office,263689,,Someshwar,ALMORA,UTTARAKHAND,ALMORA,DEHRADUN,UTTARAKHAND
Bhoolgaon B.O,Branch Post Office,263627,,Someshwar,ALMORA,UTTARAKHAND,ALMORA,DEHRADUN,UTTARAKHAND
Chanoda S.O,Sub Post Office,263629,05962-243006,Someshwar,ALMORA,UTTARAKHAND,ALMORA,DEHRADUN,UTTARAKHAND
Dhaulaghat S.O,Sub Post Office,263655,05962-246012,Someshwar,ALMORA,UTTARAKHAND,ALMORA,DEHRADUN,UTTARAKHAND
Dhaulara Totashilling B.O,Branch Post Office,263629,,Someshwar,ALMORA,UTTARAKHAND,ALMORA,DEHRADUN,UTTARAKHAND
Dhaularh B.O,Branch Post Office,263627,,Someshwar,ALMORA,UTTARAKHAND,ALMORA,DEHRADUN,UTTARAKHAND
Dhaunigarh B.O,Branch Post Office,263627,,Someshwar,ALMORA,UTTARAKHAND,ALMORA,DEHRADUN,UTTARAKHAND
Gewapani B.O,Branch Post Office,263655,,Someshwar,ALMORA,UTTARAKHAND,ALMORA,DEHRADUN,UTTARAKHAND
Golchhina B.O,Branch Post Office,263655,,Someshwar,ALMORA,UTTARAKHAND,ALMORA,DEHRADUN,UTTARAKHAND
Jhupulchaura B.O,Branch Post Office,263627,,Someshwar,ALMORA,UTTARAKHAND,ALMORA,DEHRADUN,UTTARAKHAND
Kantali B.O,Branch Post Office,263639,,Someshwar,ALMORA,UTTARAKHAND,ALMORA,DEHRADUN,UTTARAKHAND
Lakhani B.O,Branch Post Office,263639,,Someshwar,ALMORA,UTTARAKHAND,ALMORA,DEHRADUN,UTTARAKHAND
Laubanj B.O,Branch Post Office,263639,,Someshwar,ALMORA,UTTARAKHAND,ALMORA,DEHRADUN,UTTARAKHAND
Lod B.O,Branch Post Office,263627,,Someshwar,ALMORA,UTTARAKHAND,ALMORA,DEHRADUN,UTTARAKHAND
Lweshal B.O,Branch Post Office,263629,,Someshwar,ALMORA,UTTARAKHAND,ALMORA,DEHRADUN,UTTARAKHAND
Manan S.O,Sub Post Office,263638,05962-242009,Someshwar,ALMORA,UTTARAKHAND,ALMORA,DEHRADUN,UTTARAKHAND
Naughar Estate B.O,Branch Post Office,263639,,Someshwar,ALMORA,UTTARAKHAND,ALMORA,DEHRADUN,UTTARAKHAND
Patalibangar B.O,Branch Post Office,263636,,Someshwar,ALMORA,UTTARAKHAND,ALMORA,DEHRADUN,UTTARAKHAND
Pokhari B.O,Branch Post Office,263638,,Someshwar,ALMORA,UTTARAKHAND,ALMORA,DEHRADUN,UTTARAKHAND
Ramara B.O,Branch Post Office,263655,,Someshwar,ALMORA,UTTARAKHAND,ALMORA,DEHRADUN,UTTARAKHAND
Ranban B.O,Branch Post Office,263638,,Someshwar,ALMORA,UTTARAKHAND,ALMORA,DEHRADUN,UTTARAKHAND
Rasyaragaon B.O,Branch Post Office,263627,,Someshwar,ALMORA,UTTARAKHAND,ALMORA,DEHRADUN,UTTARAKHAND
Rikhe B.O,Branch Post Office,263655,,Someshwar,ALMORA,UTTARAKHAND,ALMORA,DEHRADUN,UTTARAKHAND
Someshwar S.O,Sub Post Office,263627,05962-243003,Someshwar,ALMORA,UTTARAKHAND,ALMORA,DEHRADUN,UTTARAKHAND
Takula S.O,Sub Post Office,263628,05962-253019,Someshwar,ALMORA,UTTARAKHAND,ALMORA,DEHRADUN,UTTARAKHAND
Thapania B.O,Branch Post Office,263636,,Someshwar,ALMORA,UTTARAKHAND,ALMORA,DEHRADUN,UTTARAKHAND
Amsarkote B.O,Branch Post Office,263642,,Bageshwar,BAGESHWAR,UTTARAKHAND,ALMORA,DEHRADUN,UTTARAKHAND
Are B.O,Branch Post Office,263642,,Bageshwar,BAGESHWAR,UTTARAKHAND,ALMORA,DEHRADUN,UTTARAKHAND
Ason B.O,Branch Post Office,263642,,Bageshwar,BAGESHWAR,UTTARAKHAND,ALMORA,DEHRADUN,UTTARAKHAND
Ason Mallakote B.O,Branch Post Office,263628,,Bageshwar,BAGESHWAR,UTTARAKHAND,ALMORA,DEHRADUN,UTTARAKHAND
Bageshwar S.O,Sub Post Office,263642,05963-220010,Bageshwar,BAGESHWAR,UTTARAKHAND,ALMORA,DEHRADUN,UTTARAKHAND
Bahuli B.O,Branch Post Office,263642,,Bageshwar,BAGESHWAR,UTTARAKHAND,ALMORA,DEHRADUN,UTTARAKHAND
Baisani B.O,Branch Post Office,263642,,Bageshwar,BAGESHWAR,UTTARAKHAND,ALMORA,DEHRADUN,UTTARAKHAND
Bauri B.O,Branch Post Office,263628,,Bageshwar,BAGESHWAR,UTTARAKHAND,ALMORA,DEHRADUN,UTTARAKHAND
Bhairu Chaubatta B.O,Branch Post Office,263610,,Bageshwar,BAGESHWAR,UTTARAKHAND,ALMORA,DEHRADUN,UTTARAKHAND
Bhataura B.O,Branch Post Office,263610,,Bageshwar,BAGESHWAR,UTTARAKHAND,ALMORA,DEHRADUN,UTTARAKHAND
Bhatoli B.O,Branch Post Office,263642,,Bageshwar,BAGESHWAR,UTTARAKHAND,ALMORA,DEHRADUN,UTTARAKHAND
Billori S.O,Sub Post Office,263630,05963-255017,Bageshwar,BAGESHWAR,UTTARAKHAND,ALMORA,DEHRADUN,UTTARAKHAND
Bilonasera B.O,Branch Post Office,263642,,Bageshwar,BAGESHWAR,UTTARAKHAND,ALMORA,DEHRADUN,UTTARAKHAND
Bohala B.O,Branch Post Office,263628,,Bageshwar,BAGESHWAR,UTTARAKHAND,ALMORA,DEHRADUN,UTTARAKHAND
Chamarthal B.O,Branch Post Office,263610,,Bageshwar,BAGESHWAR,UTTARAKHAND,ALMORA,DEHRADUN,UTTARAKHAND
Chaura B.O,Branch Post Office,263610,,Bageshwar,BAGESHWAR,UTTARAKHAND,ALMORA,DEHRADUN,UTTARAKHAND
Chhani B.O,Branch Post Office,263628,,Bageshwar,BAGESHWAR,UTTARAKHAND,ALMORA,DEHRADUN,UTTARAKHAND
Chirang B.O,Branch Post Office,263642,,Bageshwar,BAGESHWAR,UTTARAKHAND,ALMORA,DEHRADUN,UTTARAKHAND
Darimthok B.O,Branch Post Office,263642,,Bageshwar,BAGESHWAR,UTTARAKHAND,ALMORA,DEHRADUN,UTTARAKHAND
Dewalchaura B.O,Branch Post Office,263642,,Bageshwar,BAGESHWAR,UTTARAKHAND,ALMORA,DEHRADUN,UTTARAKHAND
Dewaldhar B.O,Branch Post Office,263630,,Bageshwar,BAGESHWAR,UTTARAKHAND,ALMORA,DEHRADUN,UTTARAKHAND
Doba Katyur B.O,Branch Post Office,263642,,Bageshwar,BAGESHWAR,UTTARAKHAND,ALMORA,DEHRADUN,UTTARAKHAND
Dug Bazar S.O,Sub Post Office,263642,05963-220065,Bageshwar,BAGESHWAR,UTTARAKHAND,ALMORA,DEHRADUN,UTTARAKHAND
Falyati B.O,Branch Post Office,263642,,Bageshwar,BAGESHWAR,UTTARAKHAND,ALMORA,DEHRADUN,UTTARAKHAND
Gairar B.O,Branch Post Office,263610,,Bageshwar,BAGESHWAR,UTTARAKHAND,ALMORA,DEHRADUN,UTTARAKHAND
Ghingartola S.O,Sub Post Office,263610,,Bageshwar,BAGESHWAR,UTTARAKHAND,ALMORA,DEHRADUN,UTTARAKHAND
Ghiroli B.O,Branch Post Office,263642,,Bageshwar,BAGESHWAR,UTTARAKHAND,ALMORA,DEHRADUN,UTTARAKHAND
Gurna Kamsyar B.O,Branch Post Office,263610,,Bageshwar,BAGESHWAR,UTTARAKHAND,ALMORA,DEHRADUN,UTTARAKHAND
Harbarh B.O,Branch Post Office,263642,,Bageshwar,BAGESHWAR,UTTARAKHAND,ALMORA,DEHRADUN,UTTARAKHAND
Harsila B.O,Branch Post Office,263642,,Bageshwar,BAGESHWAR,UTTARAKHAND,ALMORA,DEHRADUN,UTTARAKHAND
Jagthana B.O,Branch Post Office,263642,,Bageshwar,BAGESHWAR,UTTARAKHAND,ALMORA,DEHRADUN,UTTARAKHAND
Janoti Palari B.O,Branch Post Office,263630,,Bageshwar,BAGESHWAR,UTTARAKHAND,ALMORA,DEHRADUN,UTTARAKHAND
Jaulkande B.O,Branch Post Office,263642,,Bageshwar,BAGESHWAR,UTTARAKHAND,ALMORA,DEHRADUN,UTTARAKHAND
Kafaligair B.O,Branch Post Office,263628,,Bageshwar,BAGESHWAR,UTTARAKHAND,ALMORA,DEHRADUN,UTTARAKHAND
Kanyalikote B.O,Branch Post Office,263642,,Bageshwar,BAGESHWAR,UTTARAKHAND,ALMORA,DEHRADUN,UTTARAKHAND
Kathayatbara B.O,Branch Post Office,263642,,Bageshwar,BAGESHWAR,UTTARAKHAND,ALMORA,DEHRADUN,UTTARAKHAND
Kathpurchhina B.O,Branch Post Office,263628,,Bageshwar,BAGESHWAR,UTTARAKHAND,ALMORA,DEHRADUN,UTTARAKHAND
Khankar B.O,Branch Post Office,263628,,Bageshwar,BAGESHWAR,UTTARAKHAND,ALMORA,DEHRADUN,UTTARAKHAND
Khaulsir B.O,Branch Post Office,263628,,Bageshwar,BAGESHWAR,UTTARAKHAND,ALMORA,DEHRADUN,UTTARAKHAND
Lob B.O,Branch Post Office,263628,,Bageshwar,BAGESHWAR,UTTARAKHAND,ALMORA,DEHRADUN,UTTARAKHAND
Malta B.O,Branch Post Office,263642,,Bageshwar,BAGESHWAR,UTTARAKHAND,ALMORA,DEHRADUN,UTTARAKHAND
Mandalsera B.O,Branch Post Office,263642,,Bageshwar,BAGESHWAR,UTTARAKHAND,ALMORA,DEHRADUN,UTTARAKHAND
Okhalisirod B.O,Branch Post Office,263628,,Bageshwar,BAGESHWAR,UTTARAKHAND,ALMORA,DEHRADUN,UTTARAKHAND
Pandrapali B.O,Branch Post Office,263642,,Bageshwar,BAGESHWAR,UTTARAKHAND,ALMORA,DEHRADUN,UTTARAKHAND
Queralli B.O,Branch Post Office,263642,,Bageshwar,BAGESHWAR,UTTARAKHAND,ALMORA,DEHRADUN,UTTARAKHAND
Simyari B.O,Branch Post Office,263628,,Bageshwar,BAGESHWAR,UTTARAKHAND,ALMORA,DEHRADUN,UTTARAKHAND
Syaldova B.O,Branch Post Office,263610,,Bageshwar,BAGESHWAR,UTTARAKHAND,ALMORA,DEHRADUN,UTTARAKHAND
Tachhani B.O,Branch Post Office,263610,,Bageshwar,BAGESHWAR,UTTARAKHAND,ALMORA,DEHRADUN,UTTARAKHAND
Tuper B.O,Branch Post Office,263642,,Bageshwar,BAGESHWAR,UTTARAKHAND,ALMORA,DEHRADUN,UTTARAKHAND
Udera B.O,Branch Post Office,263642,,Bageshwar,BAGESHWAR,UTTARAKHAND,ALMORA,DEHRADUN,UTTARAKHAND
Anna B.O,Branch Post Office,263641,,Garur,BAGESHWAR,UTTARAKHAND,ALMORA,DEHRADUN,UTTARAKHAND
Baijnath S.O,Sub Post Office,263641,05963-250001,GARUR,BAGESHWAR,UTTARAKHAND,ALMORA,DEHRADUN,UTTARAKHAND
Bamrari B.O,Branch Post Office,263641,,Garur,BAGESHWAR,UTTARAKHAND,ALMORA,DEHRADUN,UTTARAKHAND
Bantoli B.O,Branch Post Office,263641,,Garur,BAGESHWAR,UTTARAKHAND,ALMORA,DEHRADUN,UTTARAKHAND
Bheta B.O,Branch Post Office,263641,,Garur,BAGESHWAR,UTTARAKHAND,ALMORA,DEHRADUN,UTTARAKHAND
Bhilkote B.O,Branch Post Office,263635,,Garur,BAGESHWAR,UTTARAKHAND,ALMORA,DEHRADUN,UTTARAKHAND
Charson B.O,Branch Post Office,263635,,Garur,BAGESHWAR,UTTARAKHAND,ALMORA,DEHRADUN,UTTARAKHAND
Dangoli S.O,Sub Post Office,263635,05963-250011,Garur,BAGESHWAR,UTTARAKHAND,ALMORA,DEHRADUN,UTTARAKHAND
Deonai B.O,Branch Post Office,263641,,Garur,BAGESHWAR,UTTARAKHAND,ALMORA,DEHRADUN,UTTARAKHAND
Gagarigole S.O,Sub Post Office,263688,,Garur,BAGESHWAR,UTTARAKHAND,ALMORA,DEHRADUN,UTTARAKHAND
Jakhera B.O,Branch Post Office,263635,,Garur,BAGESHWAR,UTTARAKHAND,ALMORA,DEHRADUN,UTTARAKHAND
Kandhar B.O,Branch Post Office,263635,,Garur,BAGESHWAR,UTTARAKHAND,ALMORA,DEHRADUN,UTTARAKHAND
Kapkoti B.O,Branch Post Office,263641,,Garur,BAGESHWAR,UTTARAKHAND,ALMORA,DEHRADUN,UTTARAKHAND
Kotiyura B.O,Branch Post Office,263635,,Garur,BAGESHWAR,UTTARAKHAND,ALMORA,DEHRADUN,UTTARAKHAND
Kulaon B.O,Branch Post Office,263635,,Garur,BAGESHWAR,UTTARAKHAND,ALMORA,DEHRADUN,UTTARAKHAND
Maigri Estate B.O,Branch Post Office,263635,,Garur,BAGESHWAR,UTTARAKHAND,ALMORA,DEHRADUN,UTTARAKHAND
Matena B.O,Branch Post Office,263641,,Garur,BAGESHWAR,UTTARAKHAND,ALMORA,DEHRADUN,UTTARAKHAND
Mostgaon B.O,Branch Post Office,263641,,Garur,BAGESHWAR,UTTARAKHAND,ALMORA,DEHRADUN,UTTARAKHAND
Okhalson B.O,Branch Post Office,263641,,Garur,BAGESHWAR,UTTARAKHAND,ALMORA,DEHRADUN,UTTARAKHAND
Patli B.O,Branch Post Office,263641,,Garur,BAGESHWAR,UTTARAKHAND,ALMORA,DEHRADUN,UTTARAKHAND
Payya B.O,Branch Post Office,263635,,Garur,BAGESHWAR,UTTARAKHAND,ALMORA,DEHRADUN,UTTARAKHAND
Pinglow B.O,Branch Post Office,263635,,Garur,BAGESHWAR,UTTARAKHAND,ALMORA,DEHRADUN,UTTARAKHAND
Ratisera B.O,Branch Post Office,263635,,Garur,BAGESHWAR,UTTARAKHAND,ALMORA,DEHRADUN,UTTARAKHAND
Rawaikhal B.O,Branch Post Office,263641,,Garur,BAGESHWAR,UTTARAKHAND,ALMORA,DEHRADUN,UTTARAKHAND
Salani B.O,Branch Post Office,263635,,Garur,BAGESHWAR,UTTARAKHAND,ALMORA,DEHRADUN,UTTARAKHAND
Sirkote B.O,Branch Post Office,263635,,Garur,BAGESHWAR,UTTARAKHAND,ALMORA,DEHRADUN,UTTARAKHAND
Tilsari B.O,Branch Post Office,263641,,Garur,BAGESHWAR,UTTARAKHAND,ALMORA,DEHRADUN,UTTARAKHAND
Wajyula B.O,Branch Post Office,263635,,Garur,BAGESHWAR,UTTARAKHAND,ALMORA,DEHRADUN,UTTARAKHAND
Bantola B.O,Branch Post Office,263640,,Kanda,BAGESHWAR,UTTARAKHAND,ALMORA,DEHRADUN,UTTARAKHAND
Dewal Bichral B.O,Branch Post Office,263631,,Kanda,BAGESHWAR,UTTARAKHAND,ALMORA,DEHRADUN,UTTARAKHAND
Dhapolasera B.O,Branch Post Office,263631,,Kanda,BAGESHWAR,UTTARAKHAND,ALMORA,DEHRADUN,UTTARAKHAND
Dhapti B.O,Branch Post Office,263640,,Kanda,BAGESHWAR,UTTARAKHAND,ALMORA,DEHRADUN,UTTARAKHAND
Jakhani B.O,Branch Post Office,263640,,Kanda,BAGESHWAR,UTTARAKHAND,ALMORA,DEHRADUN,UTTARAKHAND
Jethai B.O,Branch Post Office,263631,,Kanda,BAGESHWAR,UTTARAKHAND,ALMORA,DEHRADUN,UTTARAKHAND
Jhankra B.O,Branch Post Office,263640,,Kanda,BAGESHWAR,UTTARAKHAND,ALMORA,DEHRADUN,UTTARAKHAND
Kameridevi S.O,Sub Post Office,263640,,Kanda,BAGESHWAR,UTTARAKHAND,ALMORA,DEHRADUN,UTTARAKHAND
Kanda S.O,Sub Post Office,263631,05963-241005,Kanda,BAGESHWAR,UTTARAKHAND,ALMORA,DEHRADUN,UTTARAKHAND
Kapoori B.O,Branch Post Office,263631,,Kanda,BAGESHWAR,UTTARAKHAND,ALMORA,DEHRADUN,UTTARAKHAND
Khantoli B.O,Branch Post Office,263640,,Kanda,BAGESHWAR,UTTARAKHAND,ALMORA,DEHRADUN,UTTARAKHAND
Khatigaon B.O,Branch Post Office,263631,,Kanda,BAGESHWAR,UTTARAKHAND,ALMORA,DEHRADUN,UTTARAKHAND
Mahruri B.O,Branch Post Office,263640,,Kanda,BAGESHWAR,UTTARAKHAND,ALMORA,DEHRADUN,UTTARAKHAND
Malsoona B.O,Branch Post Office,263640,,Kanda,BAGESHWAR,UTTARAKHAND,ALMORA,DEHRADUN,UTTARAKHAND
Mantoli B.O,Branch Post Office,263631,,Kanda,BAGESHWAR,UTTARAKHAND,ALMORA,DEHRADUN,UTTARAKHAND
Nargoli B.O,Branch Post Office,263631,,Kanda,BAGESHWAR,UTTARAKHAND,ALMORA,DEHRADUN,UTTARAKHAND
Rawatsera B.O,Branch Post Office,263631,,Kanda,BAGESHWAR,UTTARAKHAND,ALMORA,DEHRADUN,UTTARAKHAND
Sani Udiyar B.O,Branch Post Office,263631,,Kanda,BAGESHWAR,UTTARAKHAND,ALMORA,DEHRADUN,UTTARAKHAND
Simkuna B.O,Branch Post Office,263631,,Kanda,BAGESHWAR,UTTARAKHAND,ALMORA,DEHRADUN,UTTARAKHAND
Syankote B.O,Branch Post Office,263640,,Kanda,BAGESHWAR,UTTARAKHAND,ALMORA,DEHRADUN,UTTARAKHAND
Uprara B.O,Branch Post Office,263631,,Kanda,BAGESHWAR,UTTARAKHAND,ALMORA,DEHRADUN,UTTARAKHAND
Vijaipur B.O,Branch Post Office,263640,,Kanda,BAGESHWAR,UTTARAKHAND,ALMORA,DEHRADUN,UTTARAKHAND
Badiakote B.O,Branch Post Office,263632,,Kapkote,BAGESHWAR,UTTARAKHAND,ALMORA,DEHRADUN,UTTARAKHAND
Baghar B.O,Branch Post Office,263632,,Kapkote,BAGESHWAR,UTTARAKHAND,ALMORA,DEHRADUN,UTTARAKHAND
Baira B.O,Branch Post Office,263634,,Kapkote,BAGESHWAR,UTTARAKHAND,ALMORA,DEHRADUN,UTTARAKHAND
Banlekh B.O,Branch Post Office,263634,,Kapkote,BAGESHWAR,UTTARAKHAND,ALMORA,DEHRADUN,UTTARAKHAND
Bhanar B.O,Branch Post Office,263633,,Kapkote,BAGESHWAR,UTTARAKHAND,ALMORA,DEHRADUN,UTTARAKHAND
Bharari S.O,Sub Post Office,263679,05963-253028,Kapkote,BAGESHWAR,UTTARAKHAND,ALMORA,DEHRADUN,UTTARAKHAND
Daula B.O,Branch Post Office,263632,,Kapkote,BAGESHWAR,UTTARAKHAND,ALMORA,DEHRADUN,UTTARAKHAND
Dofar S.O,Sub Post Office,263634,,Kapkote,BAGESHWAR,UTTARAKHAND,ALMORA,DEHRADUN,UTTARAKHAND
Farsali B.O,Branch Post Office,263679,,Kapkote,BAGESHWAR,UTTARAKHAND,ALMORA,DEHRADUN,UTTARAKHAND
Fulwari B.O,Branch Post Office,263632,,Kapkote,BAGESHWAR,UTTARAKHAND,ALMORA,DEHRADUN,UTTARAKHAND
Gadera B.O,Branch Post Office,263642,,Kapkote,BAGESHWAR,UTTARAKHAND,ALMORA,DEHRADUN,UTTARAKHAND
Gasi B.O,Branch Post Office,263679,,Kapkote,BAGESHWAR,UTTARAKHAND,ALMORA,DEHRADUN,UTTARAKHAND
Gogina B.O,Branch Post Office,263633,,Kapkote,BAGESHWAR,UTTARAKHAND,ALMORA,DEHRADUN,UTTARAKHAND
Guler B.O,Branch Post Office,263679,,Kapkote,BAGESHWAR,UTTARAKHAND,ALMORA,DEHRADUN,UTTARAKHAND
Harkote B.O,Branch Post Office,263679,,Kapkote,BAGESHWAR,UTTARAKHAND,ALMORA,DEHRADUN,UTTARAKHAND
Harsingiabaghar B.O,Branch Post Office,263679,,Kapkote,BAGESHWAR,UTTARAKHAND,ALMORA,DEHRADUN,UTTARAKHAND
Horali B.O,Branch Post Office,263634,,Kapkote,BAGESHWAR,UTTARAKHAND,ALMORA,DEHRADUN,UTTARAKHAND
Jarati B.O,Branch Post Office,263634,,Kapkote,BAGESHWAR,UTTARAKHAND,ALMORA,DEHRADUN,UTTARAKHAND
Jhuni B.O,Branch Post Office,263679,,Kapkote,BAGESHWAR,UTTARAKHAND,ALMORA,DEHRADUN,UTTARAKHAND
Junayal B.O,Branch Post Office,263634,,Kapkote,BAGESHWAR,UTTARAKHAND,ALMORA,DEHRADUN,UTTARAKHAND
Kafali B.O,Branch Post Office,263634,,Kapkote,BAGESHWAR,UTTARAKHAND,ALMORA,DEHRADUN,UTTARAKHAND
Kanoli B.O,Branch Post Office,263633,,Kapkote,BAGESHWAR,UTTARAKHAND,ALMORA,DEHRADUN,UTTARAKHAND
Kapkote S.O,Sub Post Office,263632,05963-253030,Kapkote,BAGESHWAR,UTTARAKHAND,ALMORA,DEHRADUN,UTTARAKHAND
Karmi B.O,Branch Post Office,263632,,Kapkote,BAGESHWAR,UTTARAKHAND,ALMORA,DEHRADUN,UTTARAKHAND
Khati B.O,Branch Post Office,263679,,Kapkote,BAGESHWAR,UTTARAKHAND,ALMORA,DEHRADUN,UTTARAKHAND
Kheti(Danpur) B.O,Branch Post Office,263633,,Kapkote,BAGESHWAR,UTTARAKHAND,ALMORA,DEHRADUN,UTTARAKHAND
Lahur B.O,Branch Post Office,263679,,Kapkote,BAGESHWAR,UTTARAKHAND,ALMORA,DEHRADUN,UTTARAKHAND
Lathi B.O,Branch Post Office,263633,,Kapkote,BAGESHWAR,UTTARAKHAND,ALMORA,DEHRADUN,UTTARAKHAND
Lili B.O,Branch Post Office,263632,,Kapkote,BAGESHWAR,UTTARAKHAND,ALMORA,DEHRADUN,UTTARAKHAND
Liti B.O,Branch Post Office,263633,,Kapkote,BAGESHWAR,UTTARAKHAND,ALMORA,DEHRADUN,UTTARAKHAND
Loharkhet B.O,Branch Post Office,263679,,Kapkote,BAGESHWAR,UTTARAKHAND,ALMORA,DEHRADUN,UTTARAKHAND
Nachati B.O,Branch Post Office,263679,,Kapkote,BAGESHWAR,UTTARAKHAND,ALMORA,DEHRADUN,UTTARAKHAND
Namik B.O,Branch Post Office,263633,,Kapkote,BAGESHWAR,UTTARAKHAND,ALMORA,DEHRADUN,UTTARAKHAND
Namtichetabagar B.O,Branch Post Office,263633,,Kapkote,BAGESHWAR,UTTARAKHAND,ALMORA,DEHRADUN,UTTARAKHAND
Nargarha B.O,Branch Post Office,263679,,Kapkote,BAGESHWAR,UTTARAKHAND,ALMORA,DEHRADUN,UTTARAKHAND
Papon B.O,Branch Post Office,263634,,Kapkote,BAGESHWAR,UTTARAKHAND,ALMORA,DEHRADUN,UTTARAKHAND
Pothing B.O,Branch Post Office,263632,,Kapkote,BAGESHWAR,UTTARAKHAND,ALMORA,DEHRADUN,UTTARAKHAND
Purkuni B.O,Branch Post Office,263642,,Kapkote,BAGESHWAR,UTTARAKHAND,ALMORA,DEHRADUN,UTTARAKHAND
Ratirketi B.O,Branch Post Office,263633,,Kapkote,BAGESHWAR,UTTARAKHAND,ALMORA,DEHRADUN,UTTARAKHAND
Saneti B.O,Branch Post Office,263634,,Kapkote,BAGESHWAR,UTTARAKHAND,ALMORA,DEHRADUN,UTTARAKHAND
Sangarh B.O,Branch Post Office,263634,,Kapkote,BAGESHWAR,UTTARAKHAND,ALMORA,DEHRADUN,UTTARAKHAND
Shama S.O,Sub Post Office,263633,,Kapkote,BAGESHWAR,UTTARAKHAND,ALMORA,DEHRADUN,UTTARAKHAND
Sorag B.O,Branch Post Office,263632,,Kapkote,BAGESHWAR,UTTARAKHAND,ALMORA,DEHRADUN,UTTARAKHAND
Supi B.O,Branch Post Office,263679,,Kapkote,BAGESHWAR,UTTARAKHAND,ALMORA,DEHRADUN,UTTARAKHAND
Utraura B.O,Branch Post Office,263632,,Kapkote,BAGESHWAR,UTTARAKHAND,ALMORA,DEHRADUN,UTTARAKHAND
Gananath Vidyapeeth B.O,Branch Post Office,263628,,Someshwar,BAGESHWAR,UTTARAKHAND,ALMORA,DEHRADUN,UTTARAKHAND
Bachher B.O,Branch Post Office,246424,,CHAMOLI,CHAMOLI,UTTARAKHAND,CHAMOLI,DEHRADUN,UTTARAKHAND
Bagana B.O,Branch Post Office,246449,,CHAMOLI,CHAMOLI,UTTARAKHAND,CHAMOLI,DEHRADUN,UTTARAKHAND
Bairangana B.O,Branch Post Office,246401,,CHAMOLI,CHAMOLI,UTTARAKHAND,CHAMOLI,DEHRADUN,UTTARAKHAND
Bansbara B.O,Branch Post Office,246449,,CHAMOLI,CHAMOLI,UTTARAKHAND,CHAMOLI,DEHRADUN,UTTARAKHAND
Bemaru B.O,Branch Post Office,246472,,CHAMOLI,CHAMOLI,UTTARAKHAND,CHAMOLI,DEHRADUN,UTTARAKHAND
Bhimtalla B.O,Branch Post Office,246424,,CHAMOLI,CHAMOLI,UTTARAKHAND,CHAMOLI,DEHRADUN,UTTARAKHAND
Chamoli S.O,Sub Post Office,246424,01372-262153,CHAMOLI,CHAMOLI,UTTARAKHAND,CHAMOLI,DEHRADUN,UTTARAKHAND
Chhinka S.O,Sub Post Office,246426,01372-260215,CHAMOLI,CHAMOLI,UTTARAKHAND,CHAMOLI,DEHRADUN,UTTARAKHAND
Dewarkhadora B.O,Branch Post Office,246401,,CHAMOLI,CHAMOLI,UTTARAKHAND,CHAMOLI,DEHRADUN,UTTARAKHAND
Gadora B.O,Branch Post Office,246472,,CHAMOLI,CHAMOLI,UTTARAKHAND,CHAMOLI,DEHRADUN,UTTARAKHAND
Gari B.O,Branch Post Office,246424,,CHAMOLI,CHAMOLI,UTTARAKHAND,CHAMOLI,DEHRADUN,UTTARAKHAND
Gauna B.O,Branch Post Office,246424,,CHAMOLI,CHAMOLI,UTTARAKHAND,CHAMOLI,DEHRADUN,UTTARAKHAND
Gopeshwar Collectorate S.O,Sub Post Office,246401,01372-252184,CHAMOLI,CHAMOLI,UTTARAKHAND,CHAMOLI,DEHRADUN,UTTARAKHAND
Gopeshwar Degree College S.O,Sub Post Office,246401,,CHAMOLI,CHAMOLI,UTTARAKHAND,CHAMOLI,DEHRADUN,UTTARAKHAND
Gopeshwar H.O,Head Post Office,246401,01372-252108,CHAMOLI,CHAMOLI,UTTARAKHAND,CHAMOLI,DEHRADUN,UTTARAKHAND
Gwardewaldhar B.O,Branch Post Office,246401,,CHAMOLI,CHAMOLI,UTTARAKHAND,CHAMOLI,DEHRADUN,UTTARAKHAND
Irani B.O,Branch Post Office,246424,,CHAMOLI,CHAMOLI,UTTARAKHAND,CHAMOLI,DEHRADUN,UTTARAKHAND
Kandai-manakhi B.O,Branch Post Office,246449,,CHAMOLI,CHAMOLI,UTTARAKHAND,CHAMOLI,DEHRADUN,UTTARAKHAND
Khunana B.O,Branch Post Office,246449,,CHAMOLI,CHAMOLI,UTTARAKHAND,CHAMOLI,DEHRADUN,UTTARAKHAND
Lasiyari B.O,Branch Post Office,246424,,CHAMOLI,CHAMOLI,UTTARAKHAND,CHAMOLI,DEHRADUN,UTTARAKHAND
Maikot B.O,Branch Post Office,246426,,CHAMOLI,CHAMOLI,UTTARAKHAND,CHAMOLI,DEHRADUN,UTTARAKHAND
Maithana S.O,Sub Post Office,246458,,CHAMOLI,CHAMOLI,UTTARAKHAND,CHAMOLI,DEHRADUN,UTTARAKHAND
Mandal B.O,Branch Post Office,246401,,CHAMOLI,CHAMOLI,UTTARAKHAND,CHAMOLI,DEHRADUN,UTTARAKHAND
Masson B.O,Branch Post Office,246449,,CHAMOLI,CHAMOLI,UTTARAKHAND,CHAMOLI,DEHRADUN,UTTARAKHAND
Matai B.O,Branch Post Office,246449,,CHAMOLI,CHAMOLI,UTTARAKHAND,CHAMOLI,DEHRADUN,UTTARAKHAND
Mayapur B.O,Branch Post Office,246472,,CHAMOLI,CHAMOLI,UTTARAKHAND,CHAMOLI,DEHRADUN,UTTARAKHAND
Mokh B.O,Branch Post Office,246449,,CHAMOLI,CHAMOLI,UTTARAKHAND,CHAMOLI,DEHRADUN,UTTARAKHAND
Nandprayag S.O,Sub Post Office,246449,01372-261201,CHAMOLI,CHAMOLI,UTTARAKHAND,CHAMOLI,DEHRADUN,UTTARAKHAND
Palethi B.O,Branch Post Office,246424,,CHAMOLI,CHAMOLI,UTTARAKHAND,CHAMOLI,DEHRADUN,UTTARAKHAND
Ropa B.O,Branch Post Office,246424,,CHAMOLI,CHAMOLI,UTTARAKHAND,CHAMOLI,DEHRADUN,UTTARAKHAND
Saikot B.O,Branch Post Office,246424,,CHAMOLI,CHAMOLI,UTTARAKHAND,CHAMOLI,DEHRADUN,UTTARAKHAND
Sakand B.O,Branch Post Office,246449,,CHAMOLI,CHAMOLI,UTTARAKHAND,CHAMOLI,DEHRADUN,UTTARAKHAND
Sonla Baunli B.O,Branch Post Office,246424,,CHAMOLI,CHAMOLI,UTTARAKHAND,CHAMOLI,DEHRADUN,UTTARAKHAND
Tangsa B.O,Branch Post Office,246401,,CHAMOLI,CHAMOLI,UTTARAKHAND,CHAMOLI,DEHRADUN,UTTARAKHAND
Malai B.O,Branch Post Office,246487,,GAIRAIN,CHAMOLI,UTTARAKHAND,CHAMOLI,DEHRADUN,UTTARAKHAND
Adibadri S.O,Sub Post Office,246440,01363-247201,GAIRSAIN,CHAMOLI,UTTARAKHAND,CHAMOLI,DEHRADUN,UTTARAKHAND
Andrapa B.O,Branch Post Office,246428,,GAIRSAIN,CHAMOLI,UTTARAKHAND,CHAMOLI,DEHRADUN,UTTARAKHAND
Bachhuwaban S.O,Sub Post Office,246486,01363-269510,GAIRSAIN,CHAMOLI,UTTARAKHAND,CHAMOLI,DEHRADUN,UTTARAKHAND
Beena Lohba B.O,Branch Post Office,246431,,GAIRSAIN,CHAMOLI,UTTARAKHAND,CHAMOLI,DEHRADUN,UTTARAKHAND
Bhatoli S.O,Sub Post Office,246454,,GAIRSAIN,CHAMOLI,UTTARAKHAND,CHAMOLI,DEHRADUN,UTTARAKHAND
Chaurasain B.O,Branch Post Office,246487,,GAIRSAIN,CHAMOLI,UTTARAKHAND,CHAMOLI,DEHRADUN,UTTARAKHAND
Dewalkot B.O,Branch Post Office,246440,,GAIRSAIN,CHAMOLI,UTTARAKHAND,CHAMOLI,DEHRADUN,UTTARAKHAND
Farkande Talli B.O,Branch Post Office,246428,,GAIRSAIN,CHAMOLI,UTTARAKHAND,CHAMOLI,DEHRADUN,UTTARAKHAND
Gairsain S.O,Sub Post Office,246428,01363-268121,GAIRSAIN,CHAMOLI,UTTARAKHAND,CHAMOLI,DEHRADUN,UTTARAKHAND
Gaul B.O,Branch Post Office,246428,,GAIRSAIN,CHAMOLI,UTTARAKHAND,CHAMOLI,DEHRADUN,UTTARAKHAND
Jhumakhet B.O,Branch Post Office,246486,,GAIRSAIN,CHAMOLI,UTTARAKHAND,CHAMOLI,DEHRADUN,UTTARAKHAND
Kansuwa B.O,Branch Post Office,246440,,GAIRSAIN,CHAMOLI,UTTARAKHAND,CHAMOLI,DEHRADUN,UTTARAKHAND
Kheti B.O,Branch Post Office,246440,,GAIRSAIN,CHAMOLI,UTTARAKHAND,CHAMOLI,DEHRADUN,UTTARAKHAND
Kirsal B.O,Branch Post Office,246440,,GAIRSAIN,CHAMOLI,UTTARAKHAND,CHAMOLI,DEHRADUN,UTTARAKHAND
Koonigarh Bichali B.O,Branch Post Office,246431,,GAIRSAIN,CHAMOLI,UTTARAKHAND,CHAMOLI,DEHRADUN,UTTARAKHAND
Majiyari Malli B.O,Branch Post Office,246440,,GAIRSAIN,CHAMOLI,UTTARAKHAND,CHAMOLI,DEHRADUN,UTTARAKHAND
Majiyari Talli B.O,Branch Post Office,246440,,GAIRSAIN,CHAMOLI,UTTARAKHAND,CHAMOLI,DEHRADUN,UTTARAKHAND
Malkot B.O,Branch Post Office,246431,,GAIRSAIN,CHAMOLI,UTTARAKHAND,CHAMOLI,DEHRADUN,UTTARAKHAND
Marora B.O,Branch Post Office,246428,,GAIRSAIN,CHAMOLI,UTTARAKHAND,CHAMOLI,DEHRADUN,UTTARAKHAND
Mehalchauri S.O,Sub Post Office,246431,01363-269110,GAIRSAIN,CHAMOLI,UTTARAKHAND,CHAMOLI,DEHRADUN,UTTARAKHAND
Nagali B.O,Branch Post Office,246440,,GAIRSAIN,CHAMOLI,UTTARAKHAND,CHAMOLI,DEHRADUN,UTTARAKHAND
Nailkhansar B.O,Branch Post Office,246486,,GAIRSAIN,CHAMOLI,UTTARAKHAND,CHAMOLI,DEHRADUN,UTTARAKHAND
Nauti S.O,Sub Post Office,246487,01363-243830,GAIRSAIN,CHAMOLI,UTTARAKHAND,CHAMOLI,DEHRADUN,UTTARAKHAND
Panchali B.O,Branch Post Office,246428,,GAIRSAIN,CHAMOLI,UTTARAKHAND,CHAMOLI,DEHRADUN,UTTARAKHAND
Pindwali B.O,Branch Post Office,246440,,GAIRSAIN,CHAMOLI,UTTARAKHAND,CHAMOLI,DEHRADUN,UTTARAKHAND
Ramra B.O,Branch Post Office,246428,,GAIRSAIN,CHAMOLI,UTTARAKHAND,CHAMOLI,DEHRADUN,UTTARAKHAND
Rohira B.O,Branch Post Office,246428,,GAIRSAIN,CHAMOLI,UTTARAKHAND,CHAMOLI,DEHRADUN,UTTARAKHAND
Sainji B.O,Branch Post Office,246428,,GAIRSAIN,CHAMOLI,UTTARAKHAND,CHAMOLI,DEHRADUN,UTTARAKHAND
Saring Gaon B.O,Branch Post Office,246486,,GAIRSAIN,CHAMOLI,UTTARAKHAND,CHAMOLI,DEHRADUN,UTTARAKHAND
Sarkot B.O,Branch Post Office,246428,,GAIRSAIN,CHAMOLI,UTTARAKHAND,CHAMOLI,DEHRADUN,UTTARAKHAND
Silpata B.O,Branch Post Office,246440,,GAIRSAIN,CHAMOLI,UTTARAKHAND,CHAMOLI,DEHRADUN,UTTARAKHAND
Tentura B.O,Branch Post Office,246486,,GAIRSAIN,CHAMOLI,UTTARAKHAND,CHAMOLI,DEHRADUN,UTTARAKHAND
Ujjwal Pur B.O,Branch Post Office,246440,,GAIRSAIN,CHAMOLI,UTTARAKHAND,CHAMOLI,DEHRADUN,UTTARAKHAND
Malethi B.O,Branch Post Office,246487,,GAISAIN,CHAMOLI,UTTARAKHAND,CHAMOLI,DEHRADUN,UTTARAKHAND
Bangali B.O,Branch Post Office,246435,,GHAT,CHAMOLI,UTTARAKHAND,CHAMOLI,DEHRADUN,UTTARAKHAND
Banjbagar B.O,Branch Post Office,246435,,GHAT,CHAMOLI,UTTARAKHAND,CHAMOLI,DEHRADUN,UTTARAKHAND
Bhenti B.O,Branch Post Office,246435,,GHAT,CHAMOLI,UTTARAKHAND,CHAMOLI,DEHRADUN,UTTARAKHAND
Bura Alla B.O,Branch Post Office,246435,,GHAT,CHAMOLI,UTTARAKHAND,CHAMOLI,DEHRADUN,UTTARAKHAND
Ghat S.O,Sub Post Office,246435,01372-265210,GHAT,CHAMOLI,UTTARAKHAND,CHAMOLI,DEHRADUN,UTTARAKHAND
Ghooni B.O,Branch Post Office,246435,,GHAT,CHAMOLI,UTTARAKHAND,CHAMOLI,DEHRADUN,UTTARAKHAND
Gulari B.O,Branch Post Office,246435,,GHAT,CHAMOLI,UTTARAKHAND,CHAMOLI,DEHRADUN,UTTARAKHAND
Kanol B.O,Branch Post Office,246435,,GHAT,CHAMOLI,UTTARAKHAND,CHAMOLI,DEHRADUN,UTTARAKHAND
Kurur B.O,Branch Post Office,246435,,GHAT,CHAMOLI,UTTARAKHAND,CHAMOLI,DEHRADUN,UTTARAKHAND
Lankhi B.O,Branch Post Office,246435,,GHAT,CHAMOLI,UTTARAKHAND,CHAMOLI,DEHRADUN,UTTARAKHAND
Luntra B.O,Branch Post Office,246435,,GHAT,CHAMOLI,UTTARAKHAND,CHAMOLI,DEHRADUN,UTTARAKHAND
Pagna B.O,Branch Post Office,246449,,GHAT,CHAMOLI,UTTARAKHAND,CHAMOLI,DEHRADUN,UTTARAKHAND
Perisutol B.O,Branch Post Office,246435,,GHAT,CHAMOLI,UTTARAKHAND,CHAMOLI,DEHRADUN,UTTARAKHAND
Ramani B.O,Branch Post Office,246435,,GHAT,CHAMOLI,UTTARAKHAND,CHAMOLI,DEHRADUN,UTTARAKHAND
Sema B.O,Branch Post Office,246449,,GHAT,CHAMOLI,UTTARAKHAND,CHAMOLI,DEHRADUN,UTTARAKHAND
Senti B.O,Branch Post Office,246435,,GHAT,CHAMOLI,UTTARAKHAND,CHAMOLI,DEHRADUN,UTTARAKHAND
Sung B.O,Branch Post Office,246435,,GHAT,CHAMOLI,UTTARAKHAND,CHAMOLI,DEHRADUN,UTTARAKHAND
Sutol B.O,Branch Post Office,246435,,GHAT,CHAMOLI,UTTARAKHAND,CHAMOLI,DEHRADUN,UTTARAKHAND
Ustoli B.O,Branch Post Office,246435,,GHAT,CHAMOLI,UTTARAKHAND,CHAMOLI,DEHRADUN,UTTARAKHAND
Badrinath Seasonal S.O,Sub Post Office,246422,01381-222201,JOSHIMATH,CHAMOLI,UTTARAKHAND,CHAMOLI,DEHRADUN,UTTARAKHAND
Bampa  Seasonal S.O,Sub Post Office,246423,,JOSHIMATH,CHAMOLI,UTTARAKHAND,CHAMOLI,DEHRADUN,UTTARAKHAND
Baragaon B.O,Branch Post Office,246443,,JOSHIMATH,CHAMOLI,UTTARAKHAND,CHAMOLI,DEHRADUN,UTTARAKHAND
Bharki B.O,Branch Post Office,246443,,JOSHIMATH,CHAMOLI,UTTARAKHAND,CHAMOLI,DEHRADUN,UTTARAKHAND
Bhyundhar B.O,Branch Post Office,246443,,JOSHIMATH,CHAMOLI,UTTARAKHAND,CHAMOLI,DEHRADUN,UTTARAKHAND
Chain B.O,Branch Post Office,246443,,JOSHIMATH,CHAMOLI,UTTARAKHAND,CHAMOLI,DEHRADUN,UTTARAKHAND
Dhak B.O,Branch Post Office,246443,,JOSHIMATH,CHAMOLI,UTTARAKHAND,CHAMOLI,DEHRADUN,UTTARAKHAND
Dumak B.O,Branch Post Office,246472,,JOSHIMATH,CHAMOLI,UTTARAKHAND,CHAMOLI,DEHRADUN,UTTARAKHAND
Dweeng B.O,Branch Post Office,246472,,JOSHIMATH,CHAMOLI,UTTARAKHAND,CHAMOLI,DEHRADUN,UTTARAKHAND
Ganaimolta B.O,Branch Post Office,246472,,JOSHIMATH,CHAMOLI,UTTARAKHAND,CHAMOLI,DEHRADUN,UTTARAKHAND
Garurganga B.O,Branch Post Office,246472,,JOSHIMATH,CHAMOLI,UTTARAKHAND,CHAMOLI,DEHRADUN,UTTARAKHAND
Govindghat B.O,Branch Post Office,246443,,JOSHIMATH,CHAMOLI,UTTARAKHAND,CHAMOLI,DEHRADUN,UTTARAKHAND
Gulabkoti B.O,Branch Post Office,246472,,JOSHIMATH,CHAMOLI,UTTARAKHAND,CHAMOLI,DEHRADUN,UTTARAKHAND
Hanuman Chatti B.O,Branch Post Office,246422,,JOSHIMATH,CHAMOLI,UTTARAKHAND,CHAMOLI,DEHRADUN,UTTARAKHAND
Jakhola B.O,Branch Post Office,246472,,JOSHIMATH,CHAMOLI,UTTARAKHAND,CHAMOLI,DEHRADUN,UTTARAKHAND
Jelam B.O,Branch Post Office,246443,,JOSHIMATH,CHAMOLI,UTTARAKHAND,CHAMOLI,DEHRADUN,UTTARAKHAND
Joshimath S.O,Sub Post Office,246443,01389-222113,JOSHIMATH,CHAMOLI,UTTARAKHAND,CHAMOLI,DEHRADUN,UTTARAKHAND
Lambagar B.O,Branch Post Office,246443,,JOSHIMATH,CHAMOLI,UTTARAKHAND,CHAMOLI,DEHRADUN,UTTARAKHAND
Langsi B.O,Branch Post Office,246472,,JOSHIMATH,CHAMOLI,UTTARAKHAND,CHAMOLI,DEHRADUN,UTTARAKHAND
Lata B.O,Branch Post Office,246443,,JOSHIMATH,CHAMOLI,UTTARAKHAND,CHAMOLI,DEHRADUN,UTTARAKHAND
Malari Seasonal S.O,Sub Post Office,246447,,JOSHIMATH,CHAMOLI,UTTARAKHAND,CHAMOLI,DEHRADUN,UTTARAKHAND
Mana B.O,Branch Post Office,246422,,JOSHIMATH,CHAMOLI,UTTARAKHAND,CHAMOLI,DEHRADUN,UTTARAKHAND
Narsing Mandir S.O,Sub Post Office,246443,01389-222133,JOSHIMATH,CHAMOLI,UTTARAKHAND,CHAMOLI,DEHRADUN,UTTARAKHAND
Niti B.O,Branch Post Office,246423,,JOSHIMATH,CHAMOLI,UTTARAKHAND,CHAMOLI,DEHRADUN,UTTARAKHAND
Pagnapainkhanda B.O,Branch Post Office,246472,,JOSHIMATH,CHAMOLI,UTTARAKHAND,CHAMOLI,DEHRADUN,UTTARAKHAND
Paini B.O,Branch Post Office,246443,,JOSHIMATH,CHAMOLI,UTTARAKHAND,CHAMOLI,DEHRADUN,UTTARAKHAND
Pandukeshwar B.O,Branch Post Office,246443,,JOSHIMATH,CHAMOLI,UTTARAKHAND,CHAMOLI,DEHRADUN,UTTARAKHAND
Pipalkoti S.O,Sub Post Office,246472,01372-266202,JOSHIMATH,CHAMOLI,UTTARAKHAND,CHAMOLI,DEHRADUN,UTTARAKHAND
Pokhani B.O,Branch Post Office,246472,,JOSHIMATH,CHAMOLI,UTTARAKHAND,CHAMOLI,DEHRADUN,UTTARAKHAND
Rainipalla B.O,Branch Post Office,246443,,JOSHIMATH,CHAMOLI,UTTARAKHAND,CHAMOLI,DEHRADUN,UTTARAKHAND
Regari B.O,Branch Post Office,246483,,JOSHIMATH,CHAMOLI,UTTARAKHAND,CHAMOLI,DEHRADUN,UTTARAKHAND
Ruingdranagiri B.O,Branch Post Office,246443,,JOSHIMATH,CHAMOLI,UTTARAKHAND,CHAMOLI,DEHRADUN,UTTARAKHAND
Salurdungra B.O,Branch Post Office,246443,,JOSHIMATH,CHAMOLI,UTTARAKHAND,CHAMOLI,DEHRADUN,UTTARAKHAND
Selang B.O,Branch Post Office,246443,,JOSHIMATH,CHAMOLI,UTTARAKHAND,CHAMOLI,DEHRADUN,UTTARAKHAND
Subhain B.O,Branch Post Office,246443,,JOSHIMATH,CHAMOLI,UTTARAKHAND,CHAMOLI,DEHRADUN,UTTARAKHAND
Sunil S.O,Sub Post Office,246443,01389-223221,JOSHIMATH,CHAMOLI,UTTARAKHAND,CHAMOLI,DEHRADUN,UTTARAKHAND
Suraithota B.O,Branch Post Office,246443,,JOSHIMATH,CHAMOLI,UTTARAKHAND,CHAMOLI,DEHRADUN,UTTARAKHAND
Tangani B.O,Branch Post Office,246472,,JOSHIMATH,CHAMOLI,UTTARAKHAND,CHAMOLI,DEHRADUN,UTTARAKHAND
Tapoban S.O,Sub Post Office,246483,01389-224328,JOSHIMATH,CHAMOLI,UTTARAKHAND,CHAMOLI,DEHRADUN,UTTARAKHAND
Thaing B.O,Branch Post Office,246443,,JOSHIMATH,CHAMOLI,UTTARAKHAND,CHAMOLI,DEHRADUN,UTTARAKHAND
Triveni B.O,Branch Post Office,246443,,JOSHIMATH,CHAMOLI,UTTARAKHAND,CHAMOLI,DEHRADUN,UTTARAKHAND
Urgam B.O,Branch Post Office,246443,,JOSHIMATH,CHAMOLI,UTTARAKHAND,CHAMOLI,DEHRADUN,UTTARAKHAND
Vishnupuram S.O,Sub Post Office,246443,01389-222224,JOSHIMATH,CHAMOLI,UTTARAKHAND,CHAMOLI,DEHRADUN,UTTARAKHAND
Bagoli B.O,Branch Post Office,246444,,KARANPRAYAG,CHAMOLI,UTTARAKHAND,CHAMOLI,DEHRADUN,UTTARAKHAND
Bainoli B.O,Branch Post Office,246487,,KARANPRAYAG,CHAMOLI,UTTARAKHAND,CHAMOLI,DEHRADUN,UTTARAKHAND
Barmoli B.O,Branch Post Office,246488,,KARANPRAYAG,CHAMOLI,UTTARAKHAND,CHAMOLI,DEHRADUN,UTTARAKHAND
Bartoli B.O,Branch Post Office,246429,,KARANPRAYAG,CHAMOLI,UTTARAKHAND,CHAMOLI,DEHRADUN,UTTARAKHAND
Chaundali B.O,Branch Post Office,246444,,KARANPRAYAG,CHAMOLI,UTTARAKHAND,CHAMOLI,DEHRADUN,UTTARAKHAND
Dhunglwali B.O,Branch Post Office,246446,,KARANPRAYAG,CHAMOLI,UTTARAKHAND,CHAMOLI,DEHRADUN,UTTARAKHAND
Dimmar B.O,Branch Post Office,246474,,KARANPRAYAG,CHAMOLI,UTTARAKHAND,CHAMOLI,DEHRADUN,UTTARAKHAND
Gairoli B.O,Branch Post Office,246474,,KARANPRAYAG,CHAMOLI,UTTARAKHAND,CHAMOLI,DEHRADUN,UTTARAKHAND
Gauchar S.O,Sub Post Office,246429,01363-240310,KARANPRAYAG,CHAMOLI,UTTARAKHAND,CHAMOLI,DEHRADUN,UTTARAKHAND
Ghandiyal B.O,Branch Post Office,246444,,KARANPRAYAG,CHAMOLI,UTTARAKHAND,CHAMOLI,DEHRADUN,UTTARAKHAND
Jainta B.O,Branch Post Office,246444,,KARANPRAYAG,CHAMOLI,UTTARAKHAND,CHAMOLI,DEHRADUN,UTTARAKHAND
Jakh S.O,Sub Post Office,246451,,KARANPRAYAG,CHAMOLI,UTTARAKHAND,CHAMOLI,DEHRADUN,UTTARAKHAND
Kalusain B.O,Branch Post Office,246488,,KARANPRAYAG,CHAMOLI,UTTARAKHAND,CHAMOLI,DEHRADUN,UTTARAKHAND
Kamera B.O,Branch Post Office,246449,,KARANPRAYAG,CHAMOLI,UTTARAKHAND,CHAMOLI,DEHRADUN,UTTARAKHAND
Kanchula B.O,Branch Post Office,246446,,KARANPRAYAG,CHAMOLI,UTTARAKHAND,CHAMOLI,DEHRADUN,UTTARAKHAND
Kanda Maikhura B.O,Branch Post Office,246446,,KARANPRAYAG,CHAMOLI,UTTARAKHAND,CHAMOLI,DEHRADUN,UTTARAKHAND
Kankhul B.O,Branch Post Office,246474,,KARANPRAYAG,CHAMOLI,UTTARAKHAND,CHAMOLI,DEHRADUN,UTTARAKHAND
Kanoth B.O,Branch Post Office,246487,,KARANPRAYAG,CHAMOLI,UTTARAKHAND,CHAMOLI,DEHRADUN,UTTARAKHAND
Karanprayag S.O,Sub Post Office,246444,01363-244212,KARANPRAYAG,CHAMOLI,UTTARAKHAND,CHAMOLI,DEHRADUN,UTTARAKHAND
Karchhuna B.O,Branch Post Office,246429,,KARANPRAYAG,CHAMOLI,UTTARAKHAND,CHAMOLI,DEHRADUN,UTTARAKHAND
Kedarukhal S.O,Sub Post Office,246456,,KARANPRAYAG,CHAMOLI,UTTARAKHAND,CHAMOLI,DEHRADUN,UTTARAKHAND
Khandura B.O,Branch Post Office,246474,,KARANPRAYAG,CHAMOLI,UTTARAKHAND,CHAMOLI,DEHRADUN,UTTARAKHAND
Kharsain B.O,Branch Post Office,246429,,KARANPRAYAG,CHAMOLI,UTTARAKHAND,CHAMOLI,DEHRADUN,UTTARAKHAND
Kimoli B.O,Branch Post Office,246488,,KARANPRAYAG,CHAMOLI,UTTARAKHAND,CHAMOLI,DEHRADUN,UTTARAKHAND
Koladungri B.O,Branch Post Office,246474,,KARANPRAYAG,CHAMOLI,UTTARAKHAND,CHAMOLI,DEHRADUN,UTTARAKHAND
Kotkandara B.O,Branch Post Office,246449,,KARANPRAYAG,CHAMOLI,UTTARAKHAND,CHAMOLI,DEHRADUN,UTTARAKHAND
Langasu S.O,Sub Post Office,246446,01363-241110,KARANPRAYAG,CHAMOLI,UTTARAKHAND,CHAMOLI,DEHRADUN,UTTARAKHAND
Naini Chandpur B.O,Branch Post Office,246487,,KARANPRAYAG,CHAMOLI,UTTARAKHAND,CHAMOLI,DEHRADUN,UTTARAKHAND
Nainisain S.O,Sub Post Office,246488,,KARANPRAYAG,CHAMOLI,UTTARAKHAND,CHAMOLI,DEHRADUN,UTTARAKHAND
Nauli S.O,Sub Post Office,246452,,KARANPRAYAG,CHAMOLI,UTTARAKHAND,CHAMOLI,DEHRADUN,UTTARAKHAND
Ranoun B.O,Branch Post Office,246429,,KARANPRAYAG,CHAMOLI,UTTARAKHAND,CHAMOLI,DEHRADUN,UTTARAKHAND
Ratura B.O,Branch Post Office,246474,,KARANPRAYAG,CHAMOLI,UTTARAKHAND,CHAMOLI,DEHRADUN,UTTARAKHAND
Saliyana B.O,Branch Post Office,246444,,KARANPRAYAG,CHAMOLI,UTTARAKHAND,CHAMOLI,DEHRADUN,UTTARAKHAND
Sari B.O,Branch Post Office,246429,,KARANPRAYAG,CHAMOLI,UTTARAKHAND,CHAMOLI,DEHRADUN,UTTARAKHAND
Senu B.O,Branch Post Office,246474,,KARANPRAYAG,CHAMOLI,UTTARAKHAND,CHAMOLI,DEHRADUN,UTTARAKHAND
Shantisadan B.O,Branch Post Office,246429,,KARANPRAYAG,CHAMOLI,UTTARAKHAND,CHAMOLI,DEHRADUN,UTTARAKHAND
Sidoli B.O,Branch Post Office,246429,,KARANPRAYAG,CHAMOLI,UTTARAKHAND,CHAMOLI,DEHRADUN,UTTARAKHAND
Simali S.O,Sub Post Office,246474,01363-247310,KARANPRAYAG,CHAMOLI,UTTARAKHAND,CHAMOLI,DEHRADUN,UTTARAKHAND
Sonla S.O,Sub Post Office,246450,,KARANPRAYAG,CHAMOLI,UTTARAKHAND,CHAMOLI,DEHRADUN,UTTARAKHAND
Tefna B.O,Branch Post Office,246449,,KARANPRAYAG,CHAMOLI,UTTARAKHAND,CHAMOLI,DEHRADUN,UTTARAKHAND
Thirpak B.O,Branch Post Office,246449,,KARANPRAYAG,CHAMOLI,UTTARAKHAND,CHAMOLI,DEHRADUN,UTTARAKHAND
Umatta Chatti B.O,Branch Post Office,246444,,KARANPRAYAG,CHAMOLI,UTTARAKHAND,CHAMOLI,DEHRADUN,UTTARAKHAND
Ali B.O,Branch Post Office,246446,,POKHARI,CHAMOLI,UTTARAKHAND,CHAMOLI,DEHRADUN,UTTARAKHAND
Beena Malla B.O,Branch Post Office,246473,,POKHARI,CHAMOLI,UTTARAKHAND,CHAMOLI,DEHRADUN,UTTARAKHAND
Bhikona B.O,Branch Post Office,246473,,POKHARI,CHAMOLI,UTTARAKHAND,CHAMOLI,DEHRADUN,UTTARAKHAND
Bishalkhal B.O,Branch Post Office,246473,,POKHARI,CHAMOLI,UTTARAKHAND,CHAMOLI,DEHRADUN,UTTARAKHAND
Harishankar B.O,Branch Post Office,246473,,POKHARI,CHAMOLI,UTTARAKHAND,CHAMOLI,DEHRADUN,UTTARAKHAND
Izzar B.O,Branch Post Office,246473,,POKHARI,CHAMOLI,UTTARAKHAND,CHAMOLI,DEHRADUN,UTTARAKHAND
Jakhamala B.O,Branch Post Office,246473,,POKHARI,CHAMOLI,UTTARAKHAND,CHAMOLI,DEHRADUN,UTTARAKHAND
Jilasu B.O,Branch Post Office,246446,,POKHARI,CHAMOLI,UTTARAKHAND,CHAMOLI,DEHRADUN,UTTARAKHAND
Kalsir B.O,Branch Post Office,246473,,POKHARI,CHAMOLI,UTTARAKHAND,CHAMOLI,DEHRADUN,UTTARAKHAND
Khal B.O,Branch Post Office,246429,,POKHARI,CHAMOLI,UTTARAKHAND,CHAMOLI,DEHRADUN,UTTARAKHAND
Kujasu B.O,Branch Post Office,246473,,POKHARI,CHAMOLI,UTTARAKHAND,CHAMOLI,DEHRADUN,UTTARAKHAND
Kweenthi B.O,Branch Post Office,246429,,POKHARI,CHAMOLI,UTTARAKHAND,CHAMOLI,DEHRADUN,UTTARAKHAND
Masoli B.O,Branch Post Office,246473,,POKHARI,CHAMOLI,UTTARAKHAND,CHAMOLI,DEHRADUN,UTTARAKHAND
Pokhari Nagnath S.O,Sub Post Office,246473,01372-222110,POKHARI,CHAMOLI,UTTARAKHAND,CHAMOLI,DEHRADUN,UTTARAKHAND
Raduwa B.O,Branch Post Office,246473,,POKHARI,CHAMOLI,UTTARAKHAND,CHAMOLI,DEHRADUN,UTTARAKHAND
Rauta B.O,Branch Post Office,246473,,POKHARI,CHAMOLI,UTTARAKHAND,CHAMOLI,DEHRADUN,UTTARAKHAND
Salna B.O,Branch Post Office,246473,,POKHARI,CHAMOLI,UTTARAKHAND,CHAMOLI,DEHRADUN,UTTARAKHAND
Saranaairas B.O,Branch Post Office,246446,,POKHARI,CHAMOLI,UTTARAKHAND,CHAMOLI,DEHRADUN,UTTARAKHAND
Simlasu B.O,Branch Post Office,246473,,POKHARI,CHAMOLI,UTTARAKHAND,CHAMOLI,DEHRADUN,UTTARAKHAND
Siwai B.O,Branch Post Office,246446,,POKHARI,CHAMOLI,UTTARAKHAND,CHAMOLI,DEHRADUN,UTTARAKHAND
Thalabair B.O,Branch Post Office,246473,,POKHARI,CHAMOLI,UTTARAKHAND,CHAMOLI,DEHRADUN,UTTARAKHAND
Trisula B.O,Branch Post Office,246449,,POKHARI,CHAMOLI,UTTARAKHAND,CHAMOLI,DEHRADUN,UTTARAKHAND
Udamanda B.O,Branch Post Office,246473,,POKHARI,CHAMOLI,UTTARAKHAND,CHAMOLI,DEHRADUN,UTTARAKHAND
Duwa B.O,Branch Post Office,246429,,RUDRAPRAYAG,CHAMOLI,UTTARAKHAND,CHAMOLI,DEHRADUN,UTTARAKHAND
Aser Simli B.O,Branch Post Office,246455,,THARALI,CHAMOLI,UTTARAKHAND,CHAMOLI,DEHRADUN,UTTARAKHAND
Balan B.O,Branch Post Office,246427,,THARALI,CHAMOLI,UTTARAKHAND,CHAMOLI,DEHRADUN,UTTARAKHAND
Ban B.O,Branch Post Office,246427,,THARALI,CHAMOLI,UTTARAKHAND,CHAMOLI,DEHRADUN,UTTARAKHAND
Beradhar B.O,Branch Post Office,246427,,THARALI,CHAMOLI,UTTARAKHAND,CHAMOLI,DEHRADUN,UTTARAKHAND
Bhagoti B.O,Branch Post Office,246455,,THARALI,CHAMOLI,UTTARAKHAND,CHAMOLI,DEHRADUN,UTTARAKHAND
Boragarh B.O,Branch Post Office,246427,,THARALI,CHAMOLI,UTTARAKHAND,CHAMOLI,DEHRADUN,UTTARAKHAND
Burjola B.O,Branch Post Office,246482,,THARALI,CHAMOLI,UTTARAKHAND,CHAMOLI,DEHRADUN,UTTARAKHAND
Chaliyapani B.O,Branch Post Office,246455,,THARALI,CHAMOLI,UTTARAKHAND,CHAMOLI,DEHRADUN,UTTARAKHAND
Chaur B.O,Branch Post Office,246427,,THARALI,CHAMOLI,UTTARAKHAND,CHAMOLI,DEHRADUN,UTTARAKHAND
Cheproun B.O,Branch Post Office,246481,,THARALI,CHAMOLI,UTTARAKHAND,CHAMOLI,DEHRADUN,UTTARAKHAND
Chhekura B.O,Branch Post Office,246455,,THARALI,CHAMOLI,UTTARAKHAND,CHAMOLI,DEHRADUN,UTTARAKHAND
Chiringa B.O,Branch Post Office,246441,,THARALI,CHAMOLI,UTTARAKHAND,CHAMOLI,DEHRADUN,UTTARAKHAND
Chopta S.O,Sub Post Office,246489,,THARALI,CHAMOLI,UTTARAKHAND,CHAMOLI,DEHRADUN,UTTARAKHAND
Choting B.O,Branch Post Office,246427,,THARALI,CHAMOLI,UTTARAKHAND,CHAMOLI,DEHRADUN,UTTARAKHAND
Debal S.O,Sub Post Office,246427,01363-276210,THARALI,CHAMOLI,UTTARAKHAND,CHAMOLI,DEHRADUN,UTTARAKHAND
Devsari B.O,Branch Post Office,246441,,THARALI,CHAMOLI,UTTARAKHAND,CHAMOLI,DEHRADUN,UTTARAKHAND
Dungri Karakot B.O,Branch Post Office,246455,,THARALI,CHAMOLI,UTTARAKHAND,CHAMOLI,DEHRADUN,UTTARAKHAND
Dungri Pindarpar B.O,Branch Post Office,246481,,THARALI,CHAMOLI,UTTARAKHAND,CHAMOLI,DEHRADUN,UTTARAKHAND
Gabani B.O,Branch Post Office,246453,,THARALI,CHAMOLI,UTTARAKHAND,CHAMOLI,DEHRADUN,UTTARAKHAND
Gadsira B.O,Branch Post Office,246455,,THARALI,CHAMOLI,UTTARAKHAND,CHAMOLI,DEHRADUN,UTTARAKHAND
Gairbaram B.O,Branch Post Office,246481,,THARALI,CHAMOLI,UTTARAKHAND,CHAMOLI,DEHRADUN,UTTARAKHAND
Garkot B.O,Branch Post Office,246444,,THARALI,CHAMOLI,UTTARAKHAND,CHAMOLI,DEHRADUN,UTTARAKHAND
Gerur B.O,Branch Post Office,246481,,THARALI,CHAMOLI,UTTARAKHAND,CHAMOLI,DEHRADUN,UTTARAKHAND
Ghesh B.O,Branch Post Office,246427,,THARALI,CHAMOLI,UTTARAKHAND,CHAMOLI,DEHRADUN,UTTARAKHAND
Gwaldam S.O,Sub Post Office,246441,01363-274230,THARALI,CHAMOLI,UTTARAKHAND,CHAMOLI,DEHRADUN,UTTARAKHAND
Harmani B.O,Branch Post Office,246481,,THARALI,CHAMOLI,UTTARAKHAND,CHAMOLI,DEHRADUN,UTTARAKHAND
Jainbisht B.O,Branch Post Office,246427,,THARALI,CHAMOLI,UTTARAKHAND,CHAMOLI,DEHRADUN,UTTARAKHAND
Jakhapatiyun B.O,Branch Post Office,246453,,THARALI,CHAMOLI,UTTARAKHAND,CHAMOLI,DEHRADUN,UTTARAKHAND
Jhinjhoni B.O,Branch Post Office,246455,,THARALI,CHAMOLI,UTTARAKHAND,CHAMOLI,DEHRADUN,UTTARAKHAND
Kafoli Malli B.O,Branch Post Office,246453,,THARALI,CHAMOLI,UTTARAKHAND,CHAMOLI,DEHRADUN,UTTARAKHAND
Khainoli B.O,Branch Post Office,246444,,THARALI,CHAMOLI,UTTARAKHAND,CHAMOLI,DEHRADUN,UTTARAKHAND
Kheta B.O,Branch Post Office,246427,,THARALI,CHAMOLI,UTTARAKHAND,CHAMOLI,DEHRADUN,UTTARAKHAND
Kimani B.O,Branch Post Office,246481,,THARALI,CHAMOLI,UTTARAKHAND,CHAMOLI,DEHRADUN,UTTARAKHAND
Kimoli B.O,Branch Post Office,246455,,THARALI,CHAMOLI,UTTARAKHAND,CHAMOLI,DEHRADUN,UTTARAKHAND
Kobthan B.O,Branch Post Office,246455,,THARALI,CHAMOLI,UTTARAKHAND,CHAMOLI,DEHRADUN,UTTARAKHAND
Kooni B.O,Branch Post Office,246481,,THARALI,CHAMOLI,UTTARAKHAND,CHAMOLI,DEHRADUN,UTTARAKHAND
Kothuli B.O,Branch Post Office,246453,,THARALI,CHAMOLI,UTTARAKHAND,CHAMOLI,DEHRADUN,UTTARAKHAND
Kulsari B.O,Branch Post Office,246481,,THARALI,CHAMOLI,UTTARAKHAND,CHAMOLI,DEHRADUN,UTTARAKHAND
Kurar B.O,Branch Post Office,246481,,THARALI,CHAMOLI,UTTARAKHAND,CHAMOLI,DEHRADUN,UTTARAKHAND
Lodla B.O,Branch Post Office,246453,,THARALI,CHAMOLI,UTTARAKHAND,CHAMOLI,DEHRADUN,UTTARAKHAND
Lwani B.O,Branch Post Office,246427,,THARALI,CHAMOLI,UTTARAKHAND,CHAMOLI,DEHRADUN,UTTARAKHAND
Maita B.O,Branch Post Office,246481,,THARALI,CHAMOLI,UTTARAKHAND,CHAMOLI,DEHRADUN,UTTARAKHAND
Mauna B.O,Branch Post Office,246455,,THARALI,CHAMOLI,UTTARAKHAND,CHAMOLI,DEHRADUN,UTTARAKHAND
Melkhet B.O,Branch Post Office,246427,,THARALI,CHAMOLI,UTTARAKHAND,CHAMOLI,DEHRADUN,UTTARAKHAND
Ming Gadhera B.O,Branch Post Office,246444,,THARALI,CHAMOLI,UTTARAKHAND,CHAMOLI,DEHRADUN,UTTARAKHAND
Mundoli B.O,Branch Post Office,246427,,THARALI,CHAMOLI,UTTARAKHAND,CHAMOLI,DEHRADUN,UTTARAKHAND
Naini B.O,Branch Post Office,246455,,THARALI,CHAMOLI,UTTARAKHAND,CHAMOLI,DEHRADUN,UTTARAKHAND
Nakholi B.O,Branch Post Office,246455,,THARALI,CHAMOLI,UTTARAKHAND,CHAMOLI,DEHRADUN,UTTARAKHAND
Nalgaun S.O,Sub Post Office,246453,01363-255137,THARALI,CHAMOLI,UTTARAKHAND,CHAMOLI,DEHRADUN,UTTARAKHAND
Nandkeshari B.O,Branch Post Office,246427,,THARALI,CHAMOLI,UTTARAKHAND,CHAMOLI,DEHRADUN,UTTARAKHAND
Narainbagar S.O,Sub Post Office,246455,01363-255124,THARALI,CHAMOLI,UTTARAKHAND,CHAMOLI,DEHRADUN,UTTARAKHAND
Paithani B.O,Branch Post Office,246455,,THARALI,CHAMOLI,UTTARAKHAND,CHAMOLI,DEHRADUN,UTTARAKHAND
Rain B.O,Branch Post Office,246427,,THARALI,CHAMOLI,UTTARAKHAND,CHAMOLI,DEHRADUN,UTTARAKHAND
Ratgaon B.O,Branch Post Office,246481,,THARALI,CHAMOLI,UTTARAKHAND,CHAMOLI,DEHRADUN,UTTARAKHAND
Sawar B.O,Branch Post Office,246427,,THARALI,CHAMOLI,UTTARAKHAND,CHAMOLI,DEHRADUN,UTTARAKHAND
Silori B.O,Branch Post Office,246481,,THARALI,CHAMOLI,UTTARAKHAND,CHAMOLI,DEHRADUN,UTTARAKHAND
Sunaonbhenta B.O,Branch Post Office,246482,,THARALI,CHAMOLI,UTTARAKHAND,CHAMOLI,DEHRADUN,UTTARAKHAND
Sunla B.O,Branch Post Office,246481,,THARALI,CHAMOLI,UTTARAKHAND,CHAMOLI,DEHRADUN,UTTARAKHAND
Suya B.O,Branch Post Office,246427,,THARALI,CHAMOLI,UTTARAKHAND,CHAMOLI,DEHRADUN,UTTARAKHAND
Talwari S.O,Sub Post Office,246482,01363-277810,THARALI,CHAMOLI,UTTARAKHAND,CHAMOLI,DEHRADUN,UTTARAKHAND
Tharali S.O,Sub Post Office,246481,01363-271220,THARALI,CHAMOLI,UTTARAKHAND,CHAMOLI,DEHRADUN,UTTARAKHAND
Torti B.O,Branch Post Office,246427,,THARALI,CHAMOLI,UTTARAKHAND,CHAMOLI,DEHRADUN,UTTARAKHAND
Tungeshwar B.O,Branch Post Office,246482,,THARALI,CHAMOLI,UTTARAKHAND,CHAMOLI,DEHRADUN,UTTARAKHAND
Ulangra B.O,Branch Post Office,246427,,THARALI,CHAMOLI,UTTARAKHAND,CHAMOLI,DEHRADUN,UTTARAKHAND
Chalthi B.O,Branch Post Office,262523,,CHAMPAWAT,CHAMPAWAT,UTTARAKHAND,PITHORAGARH,DEHRADUN,UTTARAKHAND
Champawat S.O,Sub Post Office,262523,05965-230021,CHAMPAWAT,CHAMPAWAT,UTTARAKHAND,PITHORAGARH,DEHRADUN,UTTARAKHAND
Deuri B.O,Branch Post Office,262523,,CHAMPAWAT,CHAMPAWAT,UTTARAKHAND,PITHORAGARH,DEHRADUN,UTTARAKHAND
Dhamisaun B.O,Branch Post Office,262523,,CHAMPAWAT,CHAMPAWAT,UTTARAKHAND,PITHORAGARH,DEHRADUN,UTTARAKHAND
Dhaun B.O,Branch Post Office,262523,,CHAMPAWAT,CHAMPAWAT,UTTARAKHAND,PITHORAGARH,DEHRADUN,UTTARAKHAND
Dudhpokhra B.O,Branch Post Office,262523,,CHAMPAWAT,CHAMPAWAT,UTTARAKHAND,PITHORAGARH,DEHRADUN,UTTARAKHAND
Fungar B.O,Branch Post Office,262523,,CHAMPAWAT,CHAMPAWAT,UTTARAKHAND,PITHORAGARH,DEHRADUN,UTTARAKHAND
Kotajamrari B.O,Branch Post Office,262523,,CHAMPAWAT,CHAMPAWAT,UTTARAKHAND,PITHORAGARH,DEHRADUN,UTTARAKHAND
Kotkendri B.O,Branch Post Office,262523,,CHAMPAWAT,CHAMPAWAT,UTTARAKHAND,PITHORAGARH,DEHRADUN,UTTARAKHAND
Manch B.O,Branch Post Office,262523,,CHAMPAWAT,CHAMPAWAT,UTTARAKHAND,PITHORAGARH,DEHRADUN,UTTARAKHAND
Maurari B.O,Branch Post Office,262523,,CHAMPAWAT,CHAMPAWAT,UTTARAKHAND,PITHORAGARH,DEHRADUN,UTTARAKHAND
Neer B.O,Branch Post Office,262523,,CHAMPAWAT,CHAMPAWAT,UTTARAKHAND,PITHORAGARH,DEHRADUN,UTTARAKHAND
Pungla Amori B.O,Branch Post Office,262523,,CHAMPAWAT,CHAMPAWAT,UTTARAKHAND,PITHORAGARH,DEHRADUN,UTTARAKHAND
Ramaila B.O,Branch Post Office,262523,,CHAMPAWAT,CHAMPAWAT,UTTARAKHAND,PITHORAGARH,DEHRADUN,UTTARAKHAND
Riyansi B.O,Branch Post Office,262523,,CHAMPAWAT,CHAMPAWAT,UTTARAKHAND,PITHORAGARH,DEHRADUN,UTTARAKHAND
Saindark B.O,Branch Post Office,262523,,CHAMPAWAT,CHAMPAWAT,UTTARAKHAND,PITHORAGARH,DEHRADUN,UTTARAKHAND
Shyamlatal B.O,Branch Post Office,262523,,CHAMPAWAT,CHAMPAWAT,UTTARAKHAND,PITHORAGARH,DEHRADUN,UTTARAKHAND
Simiyan B.O,Branch Post Office,262523,,CHAMPAWAT,CHAMPAWAT,UTTARAKHAND,PITHORAGARH,DEHRADUN,UTTARAKHAND
Sukhidhang B.O,Branch Post Office,262523,,CHAMPAWAT,CHAMPAWAT,UTTARAKHAND,PITHORAGARH,DEHRADUN,UTTARAKHAND
Swala B.O,Branch Post Office,262523,,CHAMPAWAT,CHAMPAWAT,UTTARAKHAND,PITHORAGARH,DEHRADUN,UTTARAKHAND
Tamli B.O,Branch Post Office,262523,,CHAMPAWAT,CHAMPAWAT,UTTARAKHAND,PITHORAGARH,DEHRADUN,UTTARAKHAND
Abbotmount S.O,Sub Post Office,262525,,LOHAGHAT,CHAMPAWAT,UTTARAKHAND,PITHORAGARH,DEHRADUN,UTTARAKHAND
Bagoti B.O,Branch Post Office,262524,,LOHAGHAT,CHAMPAWAT,UTTARAKHAND,PITHORAGARH,DEHRADUN,UTTARAKHAND
Banku B.O,Branch Post Office,262524,,LOHAGHAT,CHAMPAWAT,UTTARAKHAND,PITHORAGARH,DEHRADUN,UTTARAKHAND
Bapru B.O,Branch Post Office,262525,,LOHAGHAT,CHAMPAWAT,UTTARAKHAND,PITHORAGARH,DEHRADUN,UTTARAKHAND
Barakote S.O,Sub Post Office,262527,05965-237021,LOHAGHAT,CHAMPAWAT,UTTARAKHAND,PITHORAGARH,DEHRADUN,UTTARAKHAND
Bardakhan B.O,Branch Post Office,262527,,LOHAGHAT,CHAMPAWAT,UTTARAKHAND,PITHORAGARH,DEHRADUN,UTTARAKHAND
Bhingrara B.O,Branch Post Office,262528,,LOHAGHAT,CHAMPAWAT,UTTARAKHAND,PITHORAGARH,DEHRADUN,UTTARAKHAND
Bhumbari B.O,Branch Post Office,262528,,LOHAGHAT,CHAMPAWAT,UTTARAKHAND,PITHORAGARH,DEHRADUN,UTTARAKHAND
Bhumlai B.O,Branch Post Office,262524,,LOHAGHAT,CHAMPAWAT,UTTARAKHAND,PITHORAGARH,DEHRADUN,UTTARAKHAND
Bibil B.O,Branch Post Office,262524,,LOHAGHAT,CHAMPAWAT,UTTARAKHAND,PITHORAGARH,DEHRADUN,UTTARAKHAND
Birgul B.O,Branch Post Office,262528,,LOHAGHAT,CHAMPAWAT,UTTARAKHAND,PITHORAGARH,DEHRADUN,UTTARAKHAND
Chanda Regru B.O,Branch Post Office,262525,,LOHAGHAT,CHAMPAWAT,UTTARAKHAND,PITHORAGARH,DEHRADUN,UTTARAKHAND
Chaumel B.O,Branch Post Office,262525,,LOHAGHAT,CHAMPAWAT,UTTARAKHAND,PITHORAGARH,DEHRADUN,UTTARAKHAND
Chaurakote B.O,Branch Post Office,262528,,LOHAGHAT,CHAMPAWAT,UTTARAKHAND,PITHORAGARH,DEHRADUN,UTTARAKHAND
Chauramehta B.O,Branch Post Office,262528,,LOHAGHAT,CHAMPAWAT,UTTARAKHAND,PITHORAGARH,DEHRADUN,UTTARAKHAND
Chilkote B.O,Branch Post Office,262524,,LOHAGHAT,CHAMPAWAT,UTTARAKHAND,PITHORAGARH,DEHRADUN,UTTARAKHAND
Chirra B.O,Branch Post Office,262525,,LOHAGHAT,CHAMPAWAT,UTTARAKHAND,PITHORAGARH,DEHRADUN,UTTARAKHAND
Devidhura S.O,Sub Post Office,262580,05965-238021,LOHAGHAT,CHAMPAWAT,UTTARAKHAND,PITHORAGARH,DEHRADUN,UTTARAKHAND
Dhorja B.O,Branch Post Office,262524,,LOHAGHAT,CHAMPAWAT,UTTARAKHAND,PITHORAGARH,DEHRADUN,UTTARAKHAND
Dhunaghat B.O,Branch Post Office,262528,,LOHAGHAT,CHAMPAWAT,UTTARAKHAND,PITHORAGARH,DEHRADUN,UTTARAKHAND
Digalichaur B.O,Branch Post Office,262524,,LOHAGHAT,CHAMPAWAT,UTTARAKHAND,PITHORAGARH,DEHRADUN,UTTARAKHAND
Gagar B.O,Branch Post Office,262580,,LOHAGHAT,CHAMPAWAT,UTTARAKHAND,PITHORAGARH,DEHRADUN,UTTARAKHAND
Galchaura B.O,Branch Post Office,262524,,LOHAGHAT,CHAMPAWAT,UTTARAKHAND,PITHORAGARH,DEHRADUN,UTTARAKHAND
Gallagaon B.O,Branch Post Office,262524,,LOHAGHAT,CHAMPAWAT,UTTARAKHAND,PITHORAGARH,DEHRADUN,UTTARAKHAND
Gunthgarsari B.O,Branch Post Office,262528,,LOHAGHAT,CHAMPAWAT,UTTARAKHAND,PITHORAGARH,DEHRADUN,UTTARAKHAND
Ijara B.O,Branch Post Office,262524,,LOHAGHAT,CHAMPAWAT,UTTARAKHAND,PITHORAGARH,DEHRADUN,UTTARAKHAND
Jankandey B.O,Branch Post Office,262528,,LOHAGHAT,CHAMPAWAT,UTTARAKHAND,PITHORAGARH,DEHRADUN,UTTARAKHAND
Jhudeli B.O,Branch Post Office,262580,,LOHAGHAT,CHAMPAWAT,UTTARAKHAND,PITHORAGARH,DEHRADUN,UTTARAKHAND
Kanakote B.O,Branch Post Office,262528,,LOHAGHAT,CHAMPAWAT,UTTARAKHAND,PITHORAGARH,DEHRADUN,UTTARAKHAND
Karnkarayat B.O,Branch Post Office,262524,,LOHAGHAT,CHAMPAWAT,UTTARAKHAND,PITHORAGARH,DEHRADUN,UTTARAKHAND
Khateramalla B.O,Branch Post Office,262524,,LOHAGHAT,CHAMPAWAT,UTTARAKHAND,PITHORAGARH,DEHRADUN,UTTARAKHAND
Khetikhan S.O,Sub Post Office,262528,05965-253721,LOHAGHAT,CHAMPAWAT,UTTARAKHAND,PITHORAGARH,DEHRADUN,UTTARAKHAND
Khunabora B.O,Branch Post Office,262524,,LOHAGHAT,CHAMPAWAT,UTTARAKHAND,PITHORAGARH,DEHRADUN,UTTARAKHAND
Kothera B.O,Branch Post Office,262527,,LOHAGHAT,CHAMPAWAT,UTTARAKHAND,PITHORAGARH,DEHRADUN,UTTARAKHAND
Koyati B.O,Branch Post Office,262524,,LOHAGHAT,CHAMPAWAT,UTTARAKHAND,PITHORAGARH,DEHRADUN,UTTARAKHAND
Leti B.O,Branch Post Office,262524,,LOHAGHAT,CHAMPAWAT,UTTARAKHAND,PITHORAGARH,DEHRADUN,UTTARAKHAND
Lohaghat S.O,Sub Post Office,262524,05965-234521,LOHAGHAT,CHAMPAWAT,UTTARAKHAND,PITHORAGARH,DEHRADUN,UTTARAKHAND
Machiyar B.O,Branch Post Office,262528,,LOHAGHAT,CHAMPAWAT,UTTARAKHAND,PITHORAGARH,DEHRADUN,UTTARAKHAND
Madhuwa B.O,Branch Post Office,262524,,LOHAGHAT,CHAMPAWAT,UTTARAKHAND,PITHORAGARH,DEHRADUN,UTTARAKHAND
Madlak B.O,Branch Post Office,262524,,LOHAGHAT,CHAMPAWAT,UTTARAKHAND,PITHORAGARH,DEHRADUN,UTTARAKHAND
Mau B.O,Branch Post Office,262525,,LOHAGHAT,CHAMPAWAT,UTTARAKHAND,PITHORAGARH,DEHRADUN,UTTARAKHAND
Mayawati B.O,Branch Post Office,262524,,LOHAGHAT,CHAMPAWAT,UTTARAKHAND,PITHORAGARH,DEHRADUN,UTTARAKHAND
Mulakote B.O,Branch Post Office,262580,,LOHAGHAT,CHAMPAWAT,UTTARAKHAND,PITHORAGARH,DEHRADUN,UTTARAKHAND
Nidil B.O,Branch Post Office,262524,,LOHAGHAT,CHAMPAWAT,UTTARAKHAND,PITHORAGARH,DEHRADUN,UTTARAKHAND
Pati B.O,Branch Post Office,262580,,LOHAGHAT,CHAMPAWAT,UTTARAKHAND,PITHORAGARH,DEHRADUN,UTTARAKHAND
Pulhindola B.O,Branch Post Office,262524,,LOHAGHAT,CHAMPAWAT,UTTARAKHAND,PITHORAGARH,DEHRADUN,UTTARAKHAND
Raigaon B.O,Branch Post Office,262527,,LOHAGHAT,CHAMPAWAT,UTTARAKHAND,PITHORAGARH,DEHRADUN,UTTARAKHAND
Rausal B.O,Branch Post Office,262524,,LOHAGHAT,CHAMPAWAT,UTTARAKHAND,PITHORAGARH,DEHRADUN,UTTARAKHAND
Rithakhal B.O,Branch Post Office,262580,,LOHAGHAT,CHAMPAWAT,UTTARAKHAND,PITHORAGARH,DEHRADUN,UTTARAKHAND
Sango B.O,Branch Post Office,262580,,LOHAGHAT,CHAMPAWAT,UTTARAKHAND,PITHORAGARH,DEHRADUN,UTTARAKHAND
Shillinga B.O,Branch Post Office,262524,,LOHAGHAT,CHAMPAWAT,UTTARAKHAND,PITHORAGARH,DEHRADUN,UTTARAKHAND
Simalkhet B.O,Branch Post Office,262527,,LOHAGHAT,CHAMPAWAT,UTTARAKHAND,PITHORAGARH,DEHRADUN,UTTARAKHAND
Sungarkhal B.O,Branch Post Office,262527,,LOHAGHAT,CHAMPAWAT,UTTARAKHAND,PITHORAGARH,DEHRADUN,UTTARAKHAND
Thanta B.O,Branch Post Office,262524,,LOHAGHAT,CHAMPAWAT,UTTARAKHAND,PITHORAGARH,DEHRADUN,UTTARAKHAND
Timla B.O,Branch Post Office,262580,,LOHAGHAT,CHAMPAWAT,UTTARAKHAND,PITHORAGARH,DEHRADUN,UTTARAKHAND
Banbassa Canal B.O,Branch Post Office,262310,,Tanakpur,CHAMPAWAT,UTTARAKHAND,NAINITAL,DEHRADUN,UTTARAKHAND
Chandani S.O,Sub Post Office,262310,05943-263021,Tanakpur,CHAMPAWAT,UTTARAKHAND,NAINITAL,DEHRADUN,UTTARAKHAND
Lohia Head S.O,Sub Post Office,263301,,Tanakpur,CHAMPAWAT,UTTARAKHAND,NAINITAL,DEHRADUN,UTTARAKHAND
Tanakpur S.O,Sub Post Office,263309,05943-265007,Tanakpur,CHAMPAWAT,UTTARAKHAND,NAINITAL,DEHRADUN,UTTARAKHAND
Narsan Kalan B.O,Branch Post Office,247670,,.,DEHRADUN,UTTARAKHAND,DEHRADUN,DEHRADUN,UTTARAKHAND
Barontha S.O,Sub Post Office,248124,01360-261924,Cahkrata,DEHRADUN,UTTARAKHAND,DEHRADUN,DEHRADUN,UTTARAKHAND
Maletha B.O,Branch Post Office,248196,,Cahrata,DEHRADUN,UTTARAKHAND,DEHRADUN,DEHRADUN,UTTARAKHAND
Badho B.O,Branch Post Office,248252,,Chakrata,DEHRADUN,UTTARAKHAND,DEHRADUN,DEHRADUN,UTTARAKHAND
Baila B.O,Branch Post Office,248196,,Chakrata,DEHRADUN,UTTARAKHAND,DEHRADUN,DEHRADUN,UTTARAKHAND
Barwa B.O,Branch Post Office,248197,,Chakrata,DEHRADUN,UTTARAKHAND,DEHRADUN,DEHRADUN,UTTARAKHAND
Bhandrauli B.O,Branch Post Office,248123,,Chakrata,DEHRADUN,UTTARAKHAND,DEHRADUN,DEHRADUN,UTTARAKHAND
Bijau B.O,Branch Post Office,248252,,Chakrata,DEHRADUN,UTTARAKHAND,DEHRADUN,DEHRADUN,UTTARAKHAND
Birmau B.O,Branch Post Office,248196,,Chakrata,DEHRADUN,UTTARAKHAND,DEHRADUN,DEHRADUN,UTTARAKHAND
Bullard B.O,Branch Post Office,248196,,Chakrata,DEHRADUN,UTTARAKHAND,DEHRADUN,DEHRADUN,UTTARAKHAND
Chakrata S.O,Sub Post Office,248123,01360-272210,Chakrata,DEHRADUN,UTTARAKHAND,DEHRADUN,DEHRADUN,UTTARAKHAND
Chhibroo S.O,Sub Post Office,248164,,Chakrata,DEHRADUN,UTTARAKHAND,DEHRADUN,DEHRADUN,UTTARAKHAND
Dassau B.O,Branch Post Office,248196,,Chakrata,DEHRADUN,UTTARAKHAND,DEHRADUN,DEHRADUN,UTTARAKHAND
Datnu B.O,Branch Post Office,248196,,Chakrata,DEHRADUN,UTTARAKHAND,DEHRADUN,DEHRADUN,UTTARAKHAND
Dawla B.O,Branch Post Office,248124,,Chakrata,DEHRADUN,UTTARAKHAND,DEHRADUN,DEHRADUN,UTTARAKHAND
Dessau B.O,Branch Post Office,248165,,Chakrata,DEHRADUN,UTTARAKHAND,DEHRADUN,DEHRADUN,UTTARAKHAND
Dimau B.O,Branch Post Office,248165,,Chakrata,DEHRADUN,UTTARAKHAND,DEHRADUN,DEHRADUN,UTTARAKHAND
Dungiara B.O,Branch Post Office,248123,,Chakrata,DEHRADUN,UTTARAKHAND,DEHRADUN,DEHRADUN,UTTARAKHAND
Gadsar B.O,Branch Post Office,248124,,Chakrata,DEHRADUN,UTTARAKHAND,DEHRADUN,DEHRADUN,UTTARAKHAND
Gangroo B.O,Branch Post Office,248252,,Chakrata,DEHRADUN,UTTARAKHAND,DEHRADUN,DEHRADUN,UTTARAKHAND
Ghanta B.O,Branch Post Office,248123,,Chakrata,DEHRADUN,UTTARAKHAND,DEHRADUN,DEHRADUN,UTTARAKHAND
Haripur B.O,Branch Post Office,248159,,Chakrata,DEHRADUN,UTTARAKHAND,DEHRADUN,DEHRADUN,UTTARAKHAND
Haza B.O,Branch Post Office,248196,,Chakrata,DEHRADUN,UTTARAKHAND,DEHRADUN,DEHRADUN,UTTARAKHAND
Ichhari B.O,Branch Post Office,248165,,Chakrata,DEHRADUN,UTTARAKHAND,DEHRADUN,DEHRADUN,UTTARAKHAND
Jaddi B.O,Branch Post Office,248123,,Chakrata,DEHRADUN,UTTARAKHAND,DEHRADUN,DEHRADUN,UTTARAKHAND
Jissau B.O,Branch Post Office,248165,,Chakrata,DEHRADUN,UTTARAKHAND,DEHRADUN,DEHRADUN,UTTARAKHAND
Jogio B.O,Branch Post Office,248124,,Chakrata,DEHRADUN,UTTARAKHAND,DEHRADUN,DEHRADUN,UTTARAKHAND
Kailana S.O,Sub Post Office,248123,01360-272218,Chakrata,DEHRADUN,UTTARAKHAND,DEHRADUN,DEHRADUN,UTTARAKHAND
Kamla B.O,Branch Post Office,248252,,Chakrata,DEHRADUN,UTTARAKHAND,DEHRADUN,DEHRADUN,UTTARAKHAND
Kandoi B.O,Branch Post Office,248124,,Chakrata,DEHRADUN,UTTARAKHAND,DEHRADUN,DEHRADUN,UTTARAKHAND
Khabau B.O,Branch Post Office,248124,,Chakrata,DEHRADUN,UTTARAKHAND,DEHRADUN,DEHRADUN,UTTARAKHAND
Khadar B.O,Branch Post Office,248159,,Chakrata,DEHRADUN,UTTARAKHAND,DEHRADUN,DEHRADUN,UTTARAKHAND
Khamrauli B.O,Branch Post Office,248196,,Chakrata,DEHRADUN,UTTARAKHAND,DEHRADUN,DEHRADUN,UTTARAKHAND
Kharora B.O,Branch Post Office,248123,,Chakrata,DEHRADUN,UTTARAKHAND,DEHRADUN,DEHRADUN,UTTARAKHAND
Kharsi B.O,Branch Post Office,248124,,Chakrata,DEHRADUN,UTTARAKHAND,DEHRADUN,DEHRADUN,UTTARAKHAND
Korwa S.O,Sub Post Office,248119,,Chakrata,DEHRADUN,UTTARAKHAND,DEHRADUN,DEHRADUN,UTTARAKHAND
Kota B.O,Branch Post Office,248124,,Chakrata,DEHRADUN,UTTARAKHAND,DEHRADUN,DEHRADUN,UTTARAKHAND
Kothi B.O,Branch Post Office,248196,,Chakrata,DEHRADUN,UTTARAKHAND,DEHRADUN,DEHRADUN,UTTARAKHAND
Koti B.O,Branch Post Office,248123,,Chakrata,DEHRADUN,UTTARAKHAND,DEHRADUN,DEHRADUN,UTTARAKHAND
Koti S.O,Sub Post Office,248165,01360-287623,Chakrata,DEHRADUN,UTTARAKHAND,DEHRADUN,DEHRADUN,UTTARAKHAND
Kunawa B.O,Branch Post Office,248123,,Chakrata,DEHRADUN,UTTARAKHAND,DEHRADUN,DEHRADUN,UTTARAKHAND
Kunna B.O,Branch Post Office,248124,,Chakrata,DEHRADUN,UTTARAKHAND,DEHRADUN,DEHRADUN,UTTARAKHAND
Kuwanoo B.O,Branch Post Office,248196,,Chakrata,DEHRADUN,UTTARAKHAND,DEHRADUN,DEHRADUN,UTTARAKHAND
Kyari B.O,Branch Post Office,248252,,Chakrata,DEHRADUN,UTTARAKHAND,DEHRADUN,DEHRADUN,UTTARAKHAND
Lakhamandal B.O,Branch Post Office,248124,,Chakrata,DEHRADUN,UTTARAKHAND,DEHRADUN,DEHRADUN,UTTARAKHAND
Lakhwar B.O,Branch Post Office,248252,,Chakrata,DEHRADUN,UTTARAKHAND,DEHRADUN,DEHRADUN,UTTARAKHAND
Laksyar B.O,Branch Post Office,248252,,Chakrata,DEHRADUN,UTTARAKHAND,DEHRADUN,DEHRADUN,UTTARAKHAND
Lohari B.O,Branch Post Office,248252,,Chakrata,DEHRADUN,UTTARAKHAND,DEHRADUN,DEHRADUN,UTTARAKHAND
Lohari B.O,Branch Post Office,248123,,Chakrata,DEHRADUN,UTTARAKHAND,DEHRADUN,DEHRADUN,UTTARAKHAND
Lorli B.O,Branch Post Office,248123,,Chakrata,DEHRADUN,UTTARAKHAND,DEHRADUN,DEHRADUN,UTTARAKHAND
Ludhera B.O,Branch Post Office,248252,,Chakrata,DEHRADUN,UTTARAKHAND,DEHRADUN,DEHRADUN,UTTARAKHAND
Marlau B.O,Branch Post Office,248123,,Chakrata,DEHRADUN,UTTARAKHAND,DEHRADUN,DEHRADUN,UTTARAKHAND
Masak B.O,Branch Post Office,248123,,Chakrata,DEHRADUN,UTTARAKHAND,DEHRADUN,DEHRADUN,UTTARAKHAND
Matiyawa B.O,Branch Post Office,248123,,Chakrata,DEHRADUN,UTTARAKHAND,DEHRADUN,DEHRADUN,UTTARAKHAND
Mindal B.O,Branch Post Office,248123,,Chakrata,DEHRADUN,UTTARAKHAND,DEHRADUN,DEHRADUN,UTTARAKHAND
Mundhan B.O,Branch Post Office,248252,,Chakrata,DEHRADUN,UTTARAKHAND,DEHRADUN,DEHRADUN,UTTARAKHAND
Myunda B.O,Branch Post Office,248124,,Chakrata,DEHRADUN,UTTARAKHAND,DEHRADUN,DEHRADUN,UTTARAKHAND
Nada B.O,Branch Post Office,248124,,Chakrata,DEHRADUN,UTTARAKHAND,DEHRADUN,DEHRADUN,UTTARAKHAND
Nagau B.O,Branch Post Office,248123,,Chakrata,DEHRADUN,UTTARAKHAND,DEHRADUN,DEHRADUN,UTTARAKHAND
Nagthat B.O,Branch Post Office,248252,,Chakrata,DEHRADUN,UTTARAKHAND,DEHRADUN,DEHRADUN,UTTARAKHAND
Naraya B.O,Branch Post Office,248196,,Chakrata,DEHRADUN,UTTARAKHAND,DEHRADUN,DEHRADUN,UTTARAKHAND
Sahiya S.O,Sub Post Office,248196,01360-274482,Chakrata,DEHRADUN,UTTARAKHAND,DEHRADUN,DEHRADUN,UTTARAKHAND
Sainj B.O,Branch Post Office,248165,,Chakrata,DEHRADUN,UTTARAKHAND,DEHRADUN,DEHRADUN,UTTARAKHAND
Samalta B.O,Branch Post Office,248196,,Chakrata,DEHRADUN,UTTARAKHAND,DEHRADUN,DEHRADUN,UTTARAKHAND
Sujau B.O,Branch Post Office,248123,,Chakrata,DEHRADUN,UTTARAKHAND,DEHRADUN,DEHRADUN,UTTARAKHAND
Thaina B.O,Branch Post Office,248252,,Chakrata,DEHRADUN,UTTARAKHAND,DEHRADUN,DEHRADUN,UTTARAKHAND
Tuini S.O,Sub Post Office,248199,01360-285253,Chakrata,DEHRADUN,UTTARAKHAND,DEHRADUN,DEHRADUN,UTTARAKHAND
Tungra B.O,Branch Post Office,248123,,Chakrata,DEHRADUN,UTTARAKHAND,DEHRADUN,DEHRADUN,UTTARAKHAND
Ubhreau B.O,Branch Post Office,248165,,Chakrata,DEHRADUN,UTTARAKHAND,DEHRADUN,DEHRADUN,UTTARAKHAND
Ambiwala B.O,Branch Post Office,248007,,Deharadun,DEHRADUN,UTTARAKHAND,DEHRADUN,DEHRADUN,UTTARAKHAND
Dehradun City S.O,Sub Post Office,248001,0135-2657179,Deharaudn,DEHRADUN,UTTARAKHAND,DEHRADUN,DEHRADUN,UTTARAKHAND
Balawala S.O,Sub Post Office,248161,,Dehardun,DEHRADUN,UTTARAKHAND,DEHRADUN,DEHRADUN,UTTARAKHAND
Ajabpur S.O,Sub Post Office,248121,0135-2674854,Dehradun,DEHRADUN,UTTARAKHAND,DEHRADUN,DEHRADUN,UTTARAKHAND
Anarwala B.O,Branch Post Office,248003,,Dehradun,DEHRADUN,UTTARAKHAND,DEHRADUN,DEHRADUN,UTTARAKHAND
Araghar S.O,Sub Post Office,248001,0135-2679456,Dehradun,DEHRADUN,UTTARAKHAND,DEHRADUN,DEHRADUN,UTTARAKHAND
Arahat Bazar S.O,Sub Post Office,248001,0135-2629354,Dehradun,DEHRADUN,UTTARAKHAND,DEHRADUN,DEHRADUN,UTTARAKHAND
Arkediagrant B.O,Branch Post Office,248007,,Dehradun,DEHRADUN,UTTARAKHAND,DEHRADUN,DEHRADUN,UTTARAKHAND
Badonwala B.O,Branch Post Office,248140,,Dehradun,DEHRADUN,UTTARAKHAND,DEHRADUN,DEHRADUN,UTTARAKHAND
Badripur B.O,Branch Post Office,248005,,Dehradun,DEHRADUN,UTTARAKHAND,DEHRADUN,DEHRADUN,UTTARAKHAND
Ballupur S.O,Sub Post Office,248001,0135-2722856,Dehradun,DEHRADUN,UTTARAKHAND,DEHRADUN,DEHRADUN,UTTARAKHAND
Banjarawala B.O,Branch Post Office,248001,,DEHRADUN,DEHRADUN,UTTARAKHAND,DEHRADUN,DEHRADUN,UTTARAKHAND
Barasi B.O,Branch Post Office,248008,,Dehradun,DEHRADUN,UTTARAKHAND,DEHRADUN,DEHRADUN,UTTARAKHAND
Barlowganj S.O,Sub Post Office,248122,0135-2632835,Dehradun,DEHRADUN,UTTARAKHAND,DEHRADUN,DEHRADUN,UTTARAKHAND
Bhagwantpur B.O,Branch Post Office,248009,,Dehradun,DEHRADUN,UTTARAKHAND,DEHRADUN,DEHRADUN,UTTARAKHAND
Bhauwala B.O,Branch Post Office,248007,,Dehradun,DEHRADUN,UTTARAKHAND,DEHRADUN,DEHRADUN,UTTARAKHAND
Bidholi B.O,Branch Post Office,248007,,Dehradun,DEHRADUN,UTTARAKHAND,DEHRADUN,DEHRADUN,UTTARAKHAND
Bullawala B.O,Branch Post Office,248140,,Dehradun,DEHRADUN,UTTARAKHAND,DEHRADUN,DEHRADUN,UTTARAKHAND
Cannaught Place S.O,Sub Post Office,248001,0135-2659352,Dehradun,DEHRADUN,UTTARAKHAND,DEHRADUN,DEHRADUN,UTTARAKHAND
CDA(A.F) S.O,Sub Post Office,248001,0135-2742792,Dehradun,DEHRADUN,UTTARAKHAND,DEHRADUN,DEHRADUN,UTTARAKHAND
Chauki Dhaulas B.O,Branch Post Office,248141,,Dehradun,DEHRADUN,UTTARAKHAND,DEHRADUN,DEHRADUN,UTTARAKHAND
Chhiddarwala B.O,Branch Post Office,249204,,Dehradun,DEHRADUN,UTTARAKHAND,DEHRADUN,DEHRADUN,UTTARAKHAND
Clementtown S.O,Sub Post Office,248002,0135-2640447,Dehradun,DEHRADUN,UTTARAKHAND,DEHRADUN,DEHRADUN,UTTARAKHAND
Dakra S.O,Sub Post Office,248003,0135-2759351,Dehradun,DEHRADUN,UTTARAKHAND,DEHRADUN,DEHRADUN,UTTARAKHAND
Defence Colony B.O,Branch Post Office,248001,,Dehradun,DEHRADUN,UTTARAKHAND,DEHRADUN,DEHRADUN,UTTARAKHAND
Dehradun G.P.O. ,Head Post Office,248001,0135-2655141,Dehradun,DEHRADUN,UTTARAKHAND,DEHRADUN,DEHRADUN,UTTARAKHAND
Dehradun Kty S.O,Sub Post Office,248001,0135-2627177,Dehradun,DEHRADUN,UTTARAKHAND,DEHRADUN,DEHRADUN,UTTARAKHAND
Dilaram Bazar S.O,Sub Post Office,248001,0135-2747167,Dehradun,DEHRADUN,UTTARAKHAND,DEHRADUN,DEHRADUN,UTTARAKHAND
Dodhli B.O,Branch Post Office,248140,,Dehradun,DEHRADUN,UTTARAKHAND,DEHRADUN,DEHRADUN,UTTARAKHAND
Doiwala Bazar S.O,Sub Post Office,248140,,Dehradun,DEHRADUN,UTTARAKHAND,DEHRADUN,DEHRADUN,UTTARAKHAND
Doiwala S.O,Sub Post Office,248140,0135-2695230,Dehradun,DEHRADUN,UTTARAKHAND,DEHRADUN,DEHRADUN,UTTARAKHAND
Dwara B.O,Branch Post Office,248008,,Dehradun,DEHRADUN,UTTARAKHAND,DEHRADUN,DEHRADUN,UTTARAKHAND
Fatehpur Tanda B.O,Branch Post Office,248140,,Dehradun,DEHRADUN,UTTARAKHAND,DEHRADUN,DEHRADUN,UTTARAKHAND
Ghangora S.O,Sub Post Office,248141,0135-2759607,Dehradun,DEHRADUN,UTTARAKHAND,DEHRADUN,DEHRADUN,UTTARAKHAND
Govindgarh S.O,Sub Post Office,248001,0135-2530452,Dehradun,DEHRADUN,UTTARAKHAND,DEHRADUN,DEHRADUN,UTTARAKHAND
Gujrara B.O,Branch Post Office,248001,,Dehradun,DEHRADUN,UTTARAKHAND,DEHRADUN,DEHRADUN,UTTARAKHAND
Harrawala S.O,Sub Post Office,248160,,Dehradun,DEHRADUN,UTTARAKHAND,DEHRADUN,DEHRADUN,UTTARAKHAND
Hathi Barkala Estate S.O,Sub Post Office,248001,,Dehradun,DEHRADUN,UTTARAKHAND,DEHRADUN,DEHRADUN,UTTARAKHAND
Hathi Barkala S.O,Sub Post Office,248001,0135-2747184,Dehradun,DEHRADUN,UTTARAKHAND,DEHRADUN,DEHRADUN,UTTARAKHAND
I.I.P. S.O,Sub Post Office,248005,0135-2660111,Dehradun,DEHRADUN,UTTARAKHAND,DEHRADUN,DEHRADUN,UTTARAKHAND
I.M.A. S.O,Sub Post Office,248007,0135-2773462,Dehradun,DEHRADUN,UTTARAKHAND,DEHRADUN,DEHRADUN,UTTARAKHAND
I.N.C. S.O,Sub Post Office,248006,0135-2762688,Dehradun,DEHRADUN,UTTARAKHAND,DEHRADUN,DEHRADUN,UTTARAKHAND
I.P.E. S.O,Sub Post Office,248195,0135-2795942,Dehradun,DEHRADUN,UTTARAKHAND,DEHRADUN,DEHRADUN,UTTARAKHAND
Jhanda Bazar S.O,Sub Post Office,248001,0135-2629238,Dehradun,DEHRADUN,UTTARAKHAND,DEHRADUN,DEHRADUN,UTTARAKHAND
Kandoli B.O,Branch Post Office,248001,,Dehradun,DEHRADUN,UTTARAKHAND,DEHRADUN,DEHRADUN,UTTARAKHAND
Kanwali B.O,Branch Post Office,248001,,Dehradun,DEHRADUN,UTTARAKHAND,DEHRADUN,DEHRADUN,UTTARAKHAND
Kanwali Road S.O,Sub Post Office,248001,0135-2727186,Dehradun,DEHRADUN,UTTARAKHAND,DEHRADUN,DEHRADUN,UTTARAKHAND
Karanpur S.O,Sub Post Office,248001,0135-2747187,Dehradun,DEHRADUN,UTTARAKHAND,DEHRADUN,DEHRADUN,UTTARAKHAND
Kaulagarh S.O,Sub Post Office,248003,0135-2750305,Dehradun,DEHRADUN,UTTARAKHAND,DEHRADUN,DEHRADUN,UTTARAKHAND
Khairi B.O,Branch Post Office,248140,,Dehradun,DEHRADUN,UTTARAKHAND,DEHRADUN,DEHRADUN,UTTARAKHAND
Khurbura S.O,Sub Post Office,248001,0135-2727188,Dehradun,DEHRADUN,UTTARAKHAND,DEHRADUN,DEHRADUN,UTTARAKHAND
Kingcraig S.O,Sub Post Office,248179,0135-2632837,Dehradun,DEHRADUN,UTTARAKHAND,DEHRADUN,DEHRADUN,UTTARAKHAND
Kishanpur S.O,Sub Post Office,248001,,Dehradun,DEHRADUN,UTTARAKHAND,DEHRADUN,DEHRADUN,UTTARAKHAND
Kulhan B.O,Branch Post Office,248001,,Dehradun,DEHRADUN,UTTARAKHAND,DEHRADUN,DEHRADUN,UTTARAKHAND
Lachhiwala B.O,Branch Post Office,248140,,Dehradun,DEHRADUN,UTTARAKHAND,DEHRADUN,DEHRADUN,UTTARAKHAND
Majra S.O,Sub Post Office,248171,0135-2627165,Dehradun,DEHRADUN,UTTARAKHAND,DEHRADUN,DEHRADUN,UTTARAKHAND
Maldevta B.O,Branch Post Office,248008,,Dehradun,DEHRADUN,UTTARAKHAND,DEHRADUN,DEHRADUN,UTTARAKHAND
Manduwala B.O,Branch Post Office,248007,,Dehradun,DEHRADUN,UTTARAKHAND,DEHRADUN,DEHRADUN,UTTARAKHAND
Markhamgarant B.O,Branch Post Office,248140,,Dehradun,DEHRADUN,UTTARAKHAND,DEHRADUN,DEHRADUN,UTTARAKHAND
Mehuwala B.O,Branch Post Office,248171,,Dehradun,DEHRADUN,UTTARAKHAND,DEHRADUN,DEHRADUN,UTTARAKHAND
Mohbewala S.O,Sub Post Office,248110,,Dehradun,DEHRADUN,UTTARAKHAND,DEHRADUN,DEHRADUN,UTTARAKHAND
Mothrowala S.O,Sub Post Office,248115,,Dehradun,DEHRADUN,UTTARAKHAND,DEHRADUN,DEHRADUN,UTTARAKHAND
Nagal Bulandawala B.O,Branch Post Office,248140,,Dehradun,DEHRADUN,UTTARAKHAND,DEHRADUN,DEHRADUN,UTTARAKHAND
Nagal Jwalapur B.O,Branch Post Office,248140,,Dehradun,DEHRADUN,UTTARAKHAND,DEHRADUN,DEHRADUN,UTTARAKHAND
Nakronda B.O,Branch Post Office,248008,,Dehradun,DEHRADUN,UTTARAKHAND,DEHRADUN,DEHRADUN,UTTARAKHAND
Nathuwala B.O,Branch Post Office,248008,,Dehradun,DEHRADUN,UTTARAKHAND,DEHRADUN,DEHRADUN,UTTARAKHAND
Nawada B.O,Branch Post Office,248005,,Dehradun,DEHRADUN,UTTARAKHAND,DEHRADUN,DEHRADUN,UTTARAKHAND
Nehrugram S.O,Sub Post Office,248010,,Dehradun,DEHRADUN,UTTARAKHAND,DEHRADUN,DEHRADUN,UTTARAKHAND
Neshvilla Road S.O,Sub Post Office,248001,0135-2659350,Dehradun,DEHRADUN,UTTARAKHAND,DEHRADUN,DEHRADUN,UTTARAKHAND
Newforest S.O,Sub Post Office,248006,0135-2774491,Dehradun,DEHRADUN,UTTARAKHAND,DEHRADUN,DEHRADUN,UTTARAKHAND
Nivh S.O,Sub Post Office,248001,,Dehradun,DEHRADUN,UTTARAKHAND,DEHRADUN,DEHRADUN,UTTARAKHAND
Panditwari S.O,Sub Post Office,248007,0135-2773453,Dehradun,DEHRADUN,UTTARAKHAND,DEHRADUN,DEHRADUN,UTTARAKHAND
Patel Nagar S.O,Sub Post Office,248001,0135-2720882,Dehradun,DEHRADUN,UTTARAKHAND,DEHRADUN,DEHRADUN,UTTARAKHAND
Prem Nagar S.O,Sub Post Office,248007,0135-2773423,Dehradun,DEHRADUN,UTTARAKHAND,DEHRADUN,DEHRADUN,UTTARAKHAND
Raipur(O.F) S.O,Sub Post Office,248008,0135-2787150,Dehradun,DEHRADUN,UTTARAKHAND,DEHRADUN,DEHRADUN,UTTARAKHAND
Rajawala B.O,Branch Post Office,248007,,Dehradun,DEHRADUN,UTTARAKHAND,DEHRADUN,DEHRADUN,UTTARAKHAND
Ranjhawala S.O,Sub Post Office,248126,,Dehradun,DEHRADUN,UTTARAKHAND,DEHRADUN,DEHRADUN,UTTARAKHAND
Refugee Camp B.O,Branch Post Office,248007,,Dehradun,DEHRADUN,UTTARAKHAND,DEHRADUN,DEHRADUN,UTTARAKHAND
Resham Majri B.O,Branch Post Office,248140,,Dehradun,DEHRADUN,UTTARAKHAND,DEHRADUN,DEHRADUN,UTTARAKHAND
Rispana S.O,Sub Post Office,248001,0135-2657194,Dehradun,DEHRADUN,UTTARAKHAND,DEHRADUN,DEHRADUN,UTTARAKHAND
Sahstradhara S.O,Sub Post Office,248102,,Dehradun,DEHRADUN,UTTARAKHAND,DEHRADUN,DEHRADUN,UTTARAKHAND
Sarona B.O,Branch Post Office,248001,,Dehradun,DEHRADUN,UTTARAKHAND,DEHRADUN,DEHRADUN,UTTARAKHAND
Saura Sarauli B.O,Branch Post Office,248008,,Dehradun,DEHRADUN,UTTARAKHAND,DEHRADUN,DEHRADUN,UTTARAKHAND
Sayedwala S.O,Sub Post Office,248001,0135-2531776,Dehradun,DEHRADUN,UTTARAKHAND,DEHRADUN,DEHRADUN,UTTARAKHAND
Seemadwar S.O,Sub Post Office,248146,0135-2763188,Dehradun,DEHRADUN,UTTARAKHAND,DEHRADUN,DEHRADUN,UTTARAKHAND
Shahanshahi Ashram B.O,Branch Post Office,248009,,Dehradun,DEHRADUN,UTTARAKHAND,DEHRADUN,DEHRADUN,UTTARAKHAND
Shamshergarh B.O,Branch Post Office,248001,,Dehradun,DEHRADUN,UTTARAKHAND,DEHRADUN,DEHRADUN,UTTARAKHAND
Sinola B.O,Branch Post Office,248003,,Dehradun,DEHRADUN,UTTARAKHAND,DEHRADUN,DEHRADUN,UTTARAKHAND
Subhashnagar B.O,Branch Post Office,248002,,Dehradun,DEHRADUN,UTTARAKHAND,DEHRADUN,DEHRADUN,UTTARAKHAND
Tapovan B.O,Branch Post Office,248008,,Dehradun,DEHRADUN,UTTARAKHAND,DEHRADUN,DEHRADUN,UTTARAKHAND
Telbhawan S.O,Sub Post Office,248003,0135-2793147,Dehradun,DEHRADUN,UTTARAKHAND,DEHRADUN,DEHRADUN,UTTARAKHAND
Tunwala B.O,Branch Post Office,248005,,Dehradun,DEHRADUN,UTTARAKHAND,DEHRADUN,DEHRADUN,UTTARAKHAND
Turner Road S.O,Sub Post Office,248002,0135-2640519,Dehradun,DEHRADUN,UTTARAKHAND,DEHRADUN,DEHRADUN,UTTARAKHAND
Umedpur B.O,Branch Post Office,248007,,Dehradun,DEHRADUN,UTTARAKHAND,DEHRADUN,DEHRADUN,UTTARAKHAND
Dalanwala S.O,Sub Post Office,248001,0135-2657176,Dehraudn,DEHRADUN,UTTARAKHAND,DEHRADUN,DEHRADUN,UTTARAKHAND
Rajpur S.O,Sub Post Office,248009,0135-2734229,Dehraudn,DEHRADUN,UTTARAKHAND,DEHRADUN,DEHRADUN,UTTARAKHAND
Karbari Grant B.O,Branch Post Office,248007,,Dehraudun,DEHRADUN,UTTARAKHAND,DEHRADUN,DEHRADUN,UTTARAKHAND
Dehradun Cantt H.O,Head Post Office,248003,0135-2759353,Dheradun,DEHRADUN,UTTARAKHAND,DEHRADUN,DEHRADUN,UTTARAKHAND
Kalsi Gate S.O,Sub Post Office,248159,01360-275064,Kalsi,DEHRADUN,UTTARAKHAND,DEHRADUN,DEHRADUN,UTTARAKHAND
Kalsi S.O,Sub Post Office,248252,01360-276025,Kalsi,DEHRADUN,UTTARAKHAND,DEHRADUN,DEHRADUN,UTTARAKHAND
Hathipaon B.O,Branch Post Office,248179,,Mussoorie,DEHRADUN,UTTARAKHAND,DEHRADUN,DEHRADUN,UTTARAKHAND
Jharipani S.O,Sub Post Office,248152,0135-2632832,Mussoorie,DEHRADUN,UTTARAKHAND,DEHRADUN,DEHRADUN,UTTARAKHAND
Landaur Cantt. S.O,Sub Post Office,248179,,Mussoorie,DEHRADUN,UTTARAKHAND,DEHRADUN,DEHRADUN,UTTARAKHAND
Landaur S.O,Sub Post Office,248179,0135-2632831,Mussoorie,DEHRADUN,UTTARAKHAND,DEHRADUN,DEHRADUN,UTTARAKHAND
Naa S.O,Sub Post Office,248179,0135-2832833,Mussoorie,DEHRADUN,UTTARAKHAND,DEHRADUN,DEHRADUN,UTTARAKHAND
Savoy Hotel S.O,Sub Post Office,248179,0135-2632836,Mussoorie,DEHRADUN,UTTARAKHAND,DEHRADUN,DEHRADUN,UTTARAKHAND
Mussoorie S.O,Sub Post Office,248179,0135-2632206,Mussorie,DEHRADUN,UTTARAKHAND,DEHRADUN,DEHRADUN,UTTARAKHAND
Bhaniawala S.O,Sub Post Office,248161,,Rishieksh,DEHRADUN,UTTARAKHAND,DEHRADUN,DEHRADUN,UTTARAKHAND
Bhogpur S.O,Sub Post Office,248143,0135-2487031,Rishieksh,DEHRADUN,UTTARAKHAND,DEHRADUN,DEHRADUN,UTTARAKHAND
Dharkot B.O,Branch Post Office,248143,,Rishieksh,DEHRADUN,UTTARAKHAND,DEHRADUN,DEHRADUN,UTTARAKHAND
Raiwala S.O,Sub Post Office,249205,01332-2484225,Rishieksh,DEHRADUN,UTTARAKHAND,DEHRADUN,DEHRADUN,UTTARAKHAND
Rishikesh S.O,Sub Post Office,249201,0135-2431546,Rishieksh,DEHRADUN,UTTARAKHAND,DEHRADUN,DEHRADUN,UTTARAKHAND
Ashutoshnagar S.O,Sub Post Office,249201,0135-2430411,Rishikesh,DEHRADUN,UTTARAKHAND,DEHRADUN,DEHRADUN,UTTARAKHAND
Badogal B.O,Branch Post Office,248143,,Rishikesh,DEHRADUN,UTTARAKHAND,DEHRADUN,DEHRADUN,UTTARAKHAND
Dandi B.O,Branch Post Office,248145,,Rishikesh,DEHRADUN,UTTARAKHAND,DEHRADUN,DEHRADUN,UTTARAKHAND
Gumaniwala B.O,Branch Post Office,249204,,Rishikesh,DEHRADUN,UTTARAKHAND,DEHRADUN,DEHRADUN,UTTARAKHAND
Haldwari B.O,Branch Post Office,248143,,Rishikesh,DEHRADUN,UTTARAKHAND,DEHRADUN,DEHRADUN,UTTARAKHAND
Haripur Kalan B.O,Branch Post Office,249205,,Rishikesh,DEHRADUN,UTTARAKHAND,DEHRADUN,DEHRADUN,UTTARAKHAND
Ithrana B.O,Branch Post Office,248143,,Rishikesh,DEHRADUN,UTTARAKHAND,DEHRADUN,DEHRADUN,UTTARAKHAND
Jolly Grant B.O,Branch Post Office,248140,,Rishikesh,DEHRADUN,UTTARAKHAND,DEHRADUN,DEHRADUN,UTTARAKHAND
K.P.Kshetra S.O,Sub Post Office,248202,,Rishikesh,DEHRADUN,UTTARAKHAND,DEHRADUN,DEHRADUN,UTTARAKHAND
Pashulok S.O,Sub Post Office,249203,0135-2453602,Rishikesh,DEHRADUN,UTTARAKHAND,DEHRADUN,DEHRADUN,UTTARAKHAND
Satshilling B.O,Branch Post Office,262501,,PITHORAGARH,PITHORAGARH,UTTARAKHAND,PITHORAGARH,DEHRADUN,UTTARAKHAND
Sel B.O,Branch Post Office,262529,,PITHORAGARH,PITHORAGARH,UTTARAKHAND,PITHORAGARH,DEHRADUN,UTTARAKHAND
Seloni B.O,Branch Post Office,262521,,PITHORAGARH,PITHORAGARH,UTTARAKHAND,PITHORAGARH,DEHRADUN,UTTARAKHAND
Serikumdar B.O,Branch Post Office,262521,,PITHORAGARH,PITHORAGARH,UTTARAKHAND,PITHORAGARH,DEHRADUN,UTTARAKHAND
Shilling B.O,Branch Post Office,262530,,PITHORAGARH,PITHORAGARH,UTTARAKHAND,PITHORAGARH,DEHRADUN,UTTARAKHAND
Shillingatoli B.O,Branch Post Office,262530,,PITHORAGARH,PITHORAGARH,UTTARAKHAND,PITHORAGARH,DEHRADUN,UTTARAKHAND
Shivalaya S.O,Sub Post Office,262501,,PITHORAGARH,PITHORAGARH,UTTARAKHAND,PITHORAGARH,DEHRADUN,UTTARAKHAND
Siltham S.O,Sub Post Office,262501,05964-228194,PITHORAGARH,PITHORAGARH,UTTARAKHAND,PITHORAGARH,DEHRADUN,UTTARAKHAND
Simalkote B.O,Branch Post Office,262520,,PITHORAGARH,PITHORAGARH,UTTARAKHAND,PITHORAGARH,DEHRADUN,UTTARAKHAND
Sirkuch B.O,Branch Post Office,262521,,PITHORAGARH,PITHORAGARH,UTTARAKHAND,PITHORAGARH,DEHRADUN,UTTARAKHAND
Tharkote B.O,Branch Post Office,262530,,PITHORAGARH,PITHORAGARH,UTTARAKHAND,PITHORAGARH,DEHRADUN,UTTARAKHAND
Toli B.O,Branch Post Office,262529,,PITHORAGARH,PITHORAGARH,UTTARAKHAND,PITHORAGARH,DEHRADUN,UTTARAKHAND
Totanaula B.O,Branch Post Office,262501,,PITHORAGARH,PITHORAGARH,UTTARAKHAND,PITHORAGARH,DEHRADUN,UTTARAKHAND
Wadda S.O,Sub Post Office,262521,05964-266356,PITHORAGARH,PITHORAGARH,UTTARAKHAND,PITHORAGARH,DEHRADUN,UTTARAKHAND
Baste B.O,Branch Post Office,262501,,PITHORAHARH,PITHORAGARH,UTTARAKHAND,PITHORAGARH,DEHRADUN,UTTARAKHAND
Arkhund B.O,Branch Post Office,246425,,Jakholi,RUDRAPRAYAG,UTTARAKHAND,CHAMOLI,DEHRADUN,UTTARAKHAND
Baksir B.O,Branch Post Office,246419,,JAKHOLI,RUDRAPRAYAG,UTTARAKHAND,CHAMOLI,DEHRADUN,UTTARAKHAND
Barsir B.O,Branch Post Office,246141,,JAKHOLI,RUDRAPRAYAG,UTTARAKHAND,CHAMOLI,DEHRADUN,UTTARAKHAND
Budna B.O,Branch Post Office,246475,,JAKHOLI,RUDRAPRAYAG,UTTARAKHAND,CHAMOLI,DEHRADUN,UTTARAKHAND
Chaura B.O,Branch Post Office,246141,,JAKHOLI,RUDRAPRAYAG,UTTARAKHAND,CHAMOLI,DEHRADUN,UTTARAKHAND
Chauriyabhardar B.O,Branch Post Office,246475,,JAKHOLI,RUDRAPRAYAG,UTTARAKHAND,CHAMOLI,DEHRADUN,UTTARAKHAND
Chirbatiya B.O,Branch Post Office,246475,,JAKHOLI,RUDRAPRAYAG,UTTARAKHAND,CHAMOLI,DEHRADUN,UTTARAKHAND
Devidharmamani B.O,Branch Post Office,246475,,JAKHOLI,RUDRAPRAYAG,UTTARAKHAND,CHAMOLI,DEHRADUN,UTTARAKHAND
Jakhal B.O,Branch Post Office,246475,,JAKHOLI,RUDRAPRAYAG,UTTARAKHAND,CHAMOLI,DEHRADUN,UTTARAKHAND
Jakhanoli B.O,Branch Post Office,246475,,JAKHOLI,RUDRAPRAYAG,UTTARAKHAND,CHAMOLI,DEHRADUN,UTTARAKHAND
Jakholi S.O,Sub Post Office,246141,01370-234223,JAKHOLI,RUDRAPRAYAG,UTTARAKHAND,CHAMOLI,DEHRADUN,UTTARAKHAND
Kanda B.O,Branch Post Office,246475,,JAKHOLI,RUDRAPRAYAG,UTTARAKHAND,CHAMOLI,DEHRADUN,UTTARAKHAND
Khaliyan B.O,Branch Post Office,246141,,JAKHOLI,RUDRAPRAYAG,UTTARAKHAND,CHAMOLI,DEHRADUN,UTTARAKHAND
Kumerisimli B.O,Branch Post Office,246475,,JAKHOLI,RUDRAPRAYAG,UTTARAKHAND,CHAMOLI,DEHRADUN,UTTARAKHAND
Kurchhola B.O,Branch Post Office,246475,,JAKHOLI,RUDRAPRAYAG,UTTARAKHAND,CHAMOLI,DEHRADUN,UTTARAKHAND
Kweelakhal B.O,Branch Post Office,246475,,JAKHOLI,RUDRAPRAYAG,UTTARAKHAND,CHAMOLI,DEHRADUN,UTTARAKHAND
Mayali B.O,Branch Post Office,246475,,JAKHOLI,RUDRAPRAYAG,UTTARAKHAND,CHAMOLI,DEHRADUN,UTTARAKHAND
Munnadewal B.O,Branch Post Office,246475,,JAKHOLI,RUDRAPRAYAG,UTTARAKHAND,CHAMOLI,DEHRADUN,UTTARAKHAND
Mussadhung B.O,Branch Post Office,246475,,JAKHOLI,RUDRAPRAYAG,UTTARAKHAND,CHAMOLI,DEHRADUN,UTTARAKHAND
Pandrola B.O,Branch Post Office,246475,,JAKHOLI,RUDRAPRAYAG,UTTARAKHAND,CHAMOLI,DEHRADUN,UTTARAKHAND
Panjana B.O,Branch Post Office,246141,,JAKHOLI,RUDRAPRAYAG,UTTARAKHAND,CHAMOLI,DEHRADUN,UTTARAKHAND
Paunthi B.O,Branch Post Office,246141,,JAKHOLI,RUDRAPRAYAG,UTTARAKHAND,CHAMOLI,DEHRADUN,UTTARAKHAND
Purviyana B.O,Branch Post Office,246141,,JAKHOLI,RUDRAPRAYAG,UTTARAKHAND,CHAMOLI,DEHRADUN,UTTARAKHAND
Sakalana B.O,Branch Post Office,246475,,JAKHOLI,RUDRAPRAYAG,UTTARAKHAND,CHAMOLI,DEHRADUN,UTTARAKHAND
Saurakhal B.O,Branch Post Office,246475,,JAKHOLI,RUDRAPRAYAG,UTTARAKHAND,CHAMOLI,DEHRADUN,UTTARAKHAND
Semlta B.O,Branch Post Office,246475,,JAKHOLI,RUDRAPRAYAG,UTTARAKHAND,CHAMOLI,DEHRADUN,UTTARAKHAND
Serabhardar B.O,Branch Post Office,246171,,JAKHOLI,RUDRAPRAYAG,UTTARAKHAND,CHAMOLI,DEHRADUN,UTTARAKHAND
Sidhsaur B.O,Branch Post Office,246475,,JAKHOLI,RUDRAPRAYAG,UTTARAKHAND,CHAMOLI,DEHRADUN,UTTARAKHAND
Sirwari B.O,Branch Post Office,246141,,JAKHOLI,RUDRAPRAYAG,UTTARAKHAND,CHAMOLI,DEHRADUN,UTTARAKHAND
Syurbangar B.O,Branch Post Office,246421,,JAKHOLI,RUDRAPRAYAG,UTTARAKHAND,CHAMOLI,DEHRADUN,UTTARAKHAND
Taila B.O,Branch Post Office,246475,,JAKHOLI,RUDRAPRAYAG,UTTARAKHAND,CHAMOLI,DEHRADUN,UTTARAKHAND
Timli Badama B.O,Branch Post Office,246421,,JAKHOLI,RUDRAPRAYAG,UTTARAKHAND,CHAMOLI,DEHRADUN,UTTARAKHAND
Tuneta B.O,Branch Post Office,246475,,JAKHOLI,RUDRAPRAYAG,UTTARAKHAND,CHAMOLI,DEHRADUN,UTTARAKHAND
Uchhola B.O,Branch Post Office,246419,,JAKHOLI,RUDRAPRAYAG,UTTARAKHAND,CHAMOLI,DEHRADUN,UTTARAKHAND
Uttarsu B.O,Branch Post Office,246421,,JAKHOLI,RUDRAPRAYAG,UTTARAKHAND,CHAMOLI,DEHRADUN,UTTARAKHAND
Kotbangar B.O,Branch Post Office,246141,,JALHOLI,RUDRAPRAYAG,UTTARAKHAND,CHAMOLI,DEHRADUN,UTTARAKHAND
Phata S.O,Sub Post Office,246471,01364-265210,OHIMATH,RUDRAPRAYAG,UTTARAKHAND,CHAMOLI,DEHRADUN,UTTARAKHAND
Andrwari B.O,Branch Post Office,246439,,OKHIMATH,RUDRAPRAYAG,UTTARAKHAND,CHAMOLI,DEHRADUN,UTTARAKHAND
Badasu B.O,Branch Post Office,246471,,OKHIMATH,RUDRAPRAYAG,UTTARAKHAND,CHAMOLI,DEHRADUN,UTTARAKHAND
Barab B.O,Branch Post Office,246425,,OKHIMATH,RUDRAPRAYAG,UTTARAKHAND,CHAMOLI,DEHRADUN,UTTARAKHAND
Bareth B.O,Branch Post Office,246419,,OKHIMATH,RUDRAPRAYAG,UTTARAKHAND,CHAMOLI,DEHRADUN,UTTARAKHAND
Basti B.O,Branch Post Office,246425,,OKHIMATH,RUDRAPRAYAG,UTTARAKHAND,CHAMOLI,DEHRADUN,UTTARAKHAND
Basukedar B.O,Branch Post Office,246425,,OKHIMATH,RUDRAPRAYAG,UTTARAKHAND,CHAMOLI,DEHRADUN,UTTARAKHAND
Bhiri S.O,Sub Post Office,246419,01364-266205,OKHIMATH,RUDRAPRAYAG,UTTARAKHAND,CHAMOLI,DEHRADUN,UTTARAKHAND
Byung B.O,Branch Post Office,246471,,OKHIMATH,RUDRAPRAYAG,UTTARAKHAND,CHAMOLI,DEHRADUN,UTTARAKHAND
Chandra Nagar B.O,Branch Post Office,246425,,OKHIMATH,RUDRAPRAYAG,UTTARAKHAND,CHAMOLI,DEHRADUN,UTTARAKHAND
Chandrapuri S.O,Sub Post Office,246425,01364-258203,OKHIMATH,RUDRAPRAYAG,UTTARAKHAND,CHAMOLI,DEHRADUN,UTTARAKHAND
Daira B.O,Branch Post Office,246469,,OKHIMATH,RUDRAPRAYAG,UTTARAKHAND,CHAMOLI,DEHRADUN,UTTARAKHAND
Dhartondla B.O,Branch Post Office,246425,,OKHIMATH,RUDRAPRAYAG,UTTARAKHAND,CHAMOLI,DEHRADUN,UTTARAKHAND
Fafanj B.O,Branch Post Office,246469,,OKHIMATH,RUDRAPRAYAG,UTTARAKHAND,CHAMOLI,DEHRADUN,UTTARAKHAND
Gaurikund S.O,Sub Post Office,246476,01364-269201,OKHIMATH,RUDRAPRAYAG,UTTARAKHAND,CHAMOLI,DEHRADUN,UTTARAKHAND
Guptkashi S.O,Sub Post Office,246439,01364-267201,OKHIMATH,RUDRAPRAYAG,UTTARAKHAND,CHAMOLI,DEHRADUN,UTTARAKHAND
Jagoth B.O,Branch Post Office,246425,,OKHIMATH,RUDRAPRAYAG,UTTARAKHAND,CHAMOLI,DEHRADUN,UTTARAKHAND
Jaltalla B.O,Branch Post Office,246439,,OKHIMATH,RUDRAPRAYAG,UTTARAKHAND,CHAMOLI,DEHRADUN,UTTARAKHAND
Kalimath B.O,Branch Post Office,246439,,OKHIMATH,RUDRAPRAYAG,UTTARAKHAND,CHAMOLI,DEHRADUN,UTTARAKHAND
Kandara B.O,Branch Post Office,246425,,OKHIMATH,RUDRAPRAYAG,UTTARAKHAND,CHAMOLI,DEHRADUN,UTTARAKHAND
Kedarnath Seasional S.O,Sub Post Office,246445,01364-227208,OKHIMATH,RUDRAPRAYAG,UTTARAKHAND,CHAMOLI,DEHRADUN,UTTARAKHAND
Kotma B.O,Branch Post Office,246439,,OKHIMATH,RUDRAPRAYAG,UTTARAKHAND,CHAMOLI,DEHRADUN,UTTARAKHAND
Kyark Barsuri B.O,Branch Post Office,246425,,OKHIMATH,RUDRAPRAYAG,UTTARAKHAND,CHAMOLI,DEHRADUN,UTTARAKHAND
Lamgondi B.O,Branch Post Office,246439,,OKHIMATH,RUDRAPRAYAG,UTTARAKHAND,CHAMOLI,DEHRADUN,UTTARAKHAND
Machkandi B.O,Branch Post Office,246425,,OKHIMATH,RUDRAPRAYAG,UTTARAKHAND,CHAMOLI,DEHRADUN,UTTARAKHAND
Makoomath B.O,Branch Post Office,246419,,OKHIMATH,RUDRAPRAYAG,UTTARAKHAND,CHAMOLI,DEHRADUN,UTTARAKHAND
Mansoona B.O,Branch Post Office,246469,,OKHIMATH,RUDRAPRAYAG,UTTARAKHAND,CHAMOLI,DEHRADUN,UTTARAKHAND
Nagjagai B.O,Branch Post Office,246419,,OKHIMATH,RUDRAPRAYAG,UTTARAKHAND,CHAMOLI,DEHRADUN,UTTARAKHAND
Nainipondar B.O,Branch Post Office,246425,,OKHIMATH,RUDRAPRAYAG,UTTARAKHAND,CHAMOLI,DEHRADUN,UTTARAKHAND
Narainkoti B.O,Branch Post Office,246471,,OKHIMATH,RUDRAPRAYAG,UTTARAKHAND,CHAMOLI,DEHRADUN,UTTARAKHAND
Okhimath S.O,Sub Post Office,246469,01364-264201,OKHIMATH,RUDRAPRAYAG,UTTARAKHAND,CHAMOLI,DEHRADUN,UTTARAKHAND
Paldwari B.O,Branch Post Office,246419,,OKHIMATH,RUDRAPRAYAG,UTTARAKHAND,CHAMOLI,DEHRADUN,UTTARAKHAND
Parkandi B.O,Branch Post Office,246419,,OKHIMATH,RUDRAPRAYAG,UTTARAKHAND,CHAMOLI,DEHRADUN,UTTARAKHAND
Pilloo B.O,Branch Post Office,246425,,OKHIMATH,RUDRAPRAYAG,UTTARAKHAND,CHAMOLI,DEHRADUN,UTTARAKHAND
Rampur B.O,Branch Post Office,246471,,OKHIMATH,RUDRAPRAYAG,UTTARAKHAND,CHAMOLI,DEHRADUN,UTTARAKHAND
Ransi B.O,Branch Post Office,246439,,OKHIMATH,RUDRAPRAYAG,UTTARAKHAND,CHAMOLI,DEHRADUN,UTTARAKHAND
Raunlenk B.O,Branch Post Office,246439,,OKHIMATH,RUDRAPRAYAG,UTTARAKHAND,CHAMOLI,DEHRADUN,UTTARAKHAND
Sari B.O,Branch Post Office,246469,,OKHIMATH,RUDRAPRAYAG,UTTARAKHAND,CHAMOLI,DEHRADUN,UTTARAKHAND
Sursal B.O,Branch Post Office,246419,,OKHIMATH,RUDRAPRAYAG,UTTARAKHAND,CHAMOLI,DEHRADUN,UTTARAKHAND
Thatigadgu B.O,Branch Post Office,246469,,OKHIMATH,RUDRAPRAYAG,UTTARAKHAND,CHAMOLI,DEHRADUN,UTTARAKHAND
Trijuginarain B.O,Branch Post Office,246471,,OKHIMATH,RUDRAPRAYAG,UTTARAKHAND,CHAMOLI,DEHRADUN,UTTARAKHAND
Tulanga B.O,Branch Post Office,246439,,OKHIMATH,RUDRAPRAYAG,UTTARAKHAND,CHAMOLI,DEHRADUN,UTTARAKHAND
Uchadhungi B.O,Branch Post Office,246425,,OKHIMATH,RUDRAPRAYAG,UTTARAKHAND,CHAMOLI,DEHRADUN,UTTARAKHAND
Uniyana B.O,Branch Post Office,246439,,OKHIMATH,RUDRAPRAYAG,UTTARAKHAND,CHAMOLI,DEHRADUN,UTTARAKHAND
Vidhyapeeth S.O,Sub Post Office,246437,,OKHIMATH,RUDRAPRAYAG,UTTARAKHAND,CHAMOLI,DEHRADUN,UTTARAKHAND
Vinobapuri B.O,Branch Post Office,246425,,OKHIMATH,RUDRAPRAYAG,UTTARAKHAND,CHAMOLI,DEHRADUN,UTTARAKHAND
Bansu B.O,Branch Post Office,246439,,OKHIMATN,RUDRAPRAYAG,UTTARAKHAND,CHAMOLI,DEHRADUN,UTTARAKHAND
Agar B.O,Branch Post Office,246442,,RUDRAPRAYAG,RUDRAPRAYAG,UTTARAKHAND,CHAMOLI,DEHRADUN,UTTARAKHAND
Augustmuni S.O,Sub Post Office,246421,01364-256216,RUDRAPRAYAG,RUDRAPRAYAG,UTTARAKHAND,CHAMOLI,DEHRADUN,UTTARAKHAND
Barsudi B.O,Branch Post Office,246171,,RUDRAPRAYAG,RUDRAPRAYAG,UTTARAKHAND,CHAMOLI,DEHRADUN,UTTARAKHAND
Bawai B.O,Branch Post Office,246442,,RUDRAPRAYAG,RUDRAPRAYAG,UTTARAKHAND,CHAMOLI,DEHRADUN,UTTARAKHAND
Bhatwari B.O,Branch Post Office,246421,,RUDRAPRAYAG,RUDRAPRAYAG,UTTARAKHAND,CHAMOLI,DEHRADUN,UTTARAKHAND
Bhaunsal B.O,Branch Post Office,246421,,RUDRAPRAYAG,RUDRAPRAYAG,UTTARAKHAND,CHAMOLI,DEHRADUN,UTTARAKHAND
Bijarakot B.O,Branch Post Office,246429,,RUDRAPRAYAG,RUDRAPRAYAG,UTTARAKHAND,CHAMOLI,DEHRADUN,UTTARAKHAND
Biron B.O,Branch Post Office,246171,,RUDRAPRAYAG,RUDRAPRAYAG,UTTARAKHAND,CHAMOLI,DEHRADUN,UTTARAKHAND
Chopra S.O,Sub Post Office,246495,01364-231205,RUDRAPRAYAG,RUDRAPRAYAG,UTTARAKHAND,CHAMOLI,DEHRADUN,UTTARAKHAND
Dadoli B.O,Branch Post Office,246421,,RUDRAPRAYAG,RUDRAPRAYAG,UTTARAKHAND,CHAMOLI,DEHRADUN,UTTARAKHAND
Dangwal Gaon B.O,Branch Post Office,246421,,RUDRAPRAYAG,RUDRAPRAYAG,UTTARAKHAND,CHAMOLI,DEHRADUN,UTTARAKHAND
Durgadhar B.O,Branch Post Office,246442,,RUDRAPRAYAG,RUDRAPRAYAG,UTTARAKHAND,CHAMOLI,DEHRADUN,UTTARAKHAND
Falasi B.O,Branch Post Office,246442,,RUDRAPRAYAG,RUDRAPRAYAG,UTTARAKHAND,CHAMOLI,DEHRADUN,UTTARAKHAND
Gaharkhal B.O,Branch Post Office,246171,,RUDRAPRAYAG,RUDRAPRAYAG,UTTARAKHAND,CHAMOLI,DEHRADUN,UTTARAKHAND
Ghandiyalka B.O,Branch Post Office,246171,,RUDRAPRAYAG,RUDRAPRAYAG,UTTARAKHAND,CHAMOLI,DEHRADUN,UTTARAKHAND
Ghimtoli B.O,Branch Post Office,246442,,RUDRAPRAYAG,RUDRAPRAYAG,UTTARAKHAND,CHAMOLI,DEHRADUN,UTTARAKHAND
Gholtir S.O,Sub Post Office,246438,,RUDRAPRAYAG,RUDRAPRAYAG,UTTARAKHAND,CHAMOLI,DEHRADUN,UTTARAKHAND
Haretikhal B.O,Branch Post Office,246495,,RUDRAPRAYAG,RUDRAPRAYAG,UTTARAKHAND,CHAMOLI,DEHRADUN,UTTARAKHAND
Jakhani S.O,Sub Post Office,246442,01364-238207,RUDRAPRAYAG,RUDRAPRAYAG,UTTARAKHAND,CHAMOLI,DEHRADUN,UTTARAKHAND
Jakhdhar B.O,Branch Post Office,246171,,RUDRAPRAYAG,RUDRAPRAYAG,UTTARAKHAND,CHAMOLI,DEHRADUN,UTTARAKHAND
Kamera B.O,Branch Post Office,246171,,RUDRAPRAYAG,RUDRAPRAYAG,UTTARAKHAND,CHAMOLI,DEHRADUN,UTTARAKHAND
Kandai B.O,Branch Post Office,246171,,RUDRAPRAYAG,RUDRAPRAYAG,UTTARAKHAND,CHAMOLI,DEHRADUN,UTTARAKHAND
Kandai B.O,Branch Post Office,246429,,RUDRAPRAYAG,RUDRAPRAYAG,UTTARAKHAND,CHAMOLI,DEHRADUN,UTTARAKHAND
Khankara B.O,Branch Post Office,246171,,RUDRAPRAYAG,RUDRAPRAYAG,UTTARAKHAND,CHAMOLI,DEHRADUN,UTTARAKHAND
Kimana B.O,Branch Post Office,246421,,RUDRAPRAYAG,RUDRAPRAYAG,UTTARAKHAND,CHAMOLI,DEHRADUN,UTTARAKHAND
Kolli B.O,Branch Post Office,246171,,RUDRAPRAYAG,RUDRAPRAYAG,UTTARAKHAND,CHAMOLI,DEHRADUN,UTTARAKHAND
Kotmalla B.O,Branch Post Office,246429,,RUDRAPRAYAG,RUDRAPRAYAG,UTTARAKHAND,CHAMOLI,DEHRADUN,UTTARAKHAND
Kurjhan B.O,Branch Post Office,246495,,RUDRAPRAYAG,RUDRAPRAYAG,UTTARAKHAND,CHAMOLI,DEHRADUN,UTTARAKHAND
Kyuri B.O,Branch Post Office,246442,,RUDRAPRAYAG,RUDRAPRAYAG,UTTARAKHAND,CHAMOLI,DEHRADUN,UTTARAKHAND
Kyuridasjula B.O,Branch Post Office,246429,,RUDRAPRAYAG,RUDRAPRAYAG,UTTARAKHAND,CHAMOLI,DEHRADUN,UTTARAKHAND
Ladoli B.O,Branch Post Office,246429,,RUDRAPRAYAG,RUDRAPRAYAG,UTTARAKHAND,CHAMOLI,DEHRADUN,UTTARAKHAND
Maiki Marhi B.O,Branch Post Office,246171,,RUDRAPRAYAG,RUDRAPRAYAG,UTTARAKHAND,CHAMOLI,DEHRADUN,UTTARAKHAND
Narkota B.O,Branch Post Office,246171,,RUDRAPRAYAG,RUDRAPRAYAG,UTTARAKHAND,CHAMOLI,DEHRADUN,UTTARAKHAND
Nawasu B.O,Branch Post Office,246171,,RUDRAPRAYAG,RUDRAPRAYAG,UTTARAKHAND,CHAMOLI,DEHRADUN,UTTARAKHAND
Pallabazar S.O,Sub Post Office,246171,01364-233216,RUDRAPRAYAG,RUDRAPRAYAG,UTTARAKHAND,CHAMOLI,DEHRADUN,UTTARAKHAND
Pathalidhar B.O,Branch Post Office,246421,,RUDRAPRAYAG,RUDRAPRAYAG,UTTARAKHAND,CHAMOLI,DEHRADUN,UTTARAKHAND
Pauri Nishni B.O,Branch Post Office,246171,,RUDRAPRAYAG,RUDRAPRAYAG,UTTARAKHAND,CHAMOLI,DEHRADUN,UTTARAKHAND
Pokhata B.O,Branch Post Office,246442,,RUDRAPRAYAG,RUDRAPRAYAG,UTTARAKHAND,CHAMOLI,DEHRADUN,UTTARAKHAND
Ratura B.O,Branch Post Office,246171,,RUDRAPRAYAG,RUDRAPRAYAG,UTTARAKHAND,CHAMOLI,DEHRADUN,UTTARAKHAND
Rudraprayag S.O,Sub Post Office,246171,01364-233215,RUDRAPRAYAG,RUDRAPRAYAG,UTTARAKHAND,CHAMOLI,DEHRADUN,UTTARAKHAND
Rumsi B.O,Branch Post Office,246421,,RUDRAPRAYAG,RUDRAPRAYAG,UTTARAKHAND,CHAMOLI,DEHRADUN,UTTARAKHAND
Saterakhal B.O,Branch Post Office,246171,,RUDRAPRAYAG,RUDRAPRAYAG,UTTARAKHAND,CHAMOLI,DEHRADUN,UTTARAKHAND
Silli B.O,Branch Post Office,246421,,RUDRAPRAYAG,RUDRAPRAYAG,UTTARAKHAND,CHAMOLI,DEHRADUN,UTTARAKHAND
Sumerpur B.O,Branch Post Office,246171,,RUDRAPRAYAG,RUDRAPRAYAG,UTTARAKHAND,CHAMOLI,DEHRADUN,UTTARAKHAND
Tilwara S.O,Sub Post Office,246475,01364-235227,RUDRAPRAYAG,RUDRAPRAYAG,UTTARAKHAND,CHAMOLI,DEHRADUN,UTTARAKHAND
Maikoti S.O,Sub Post Office,246448,01364-238206,RUDRAPRAYG,RUDRAPRAYAG,UTTARAKHAND,CHAMOLI,DEHRADUN,UTTARAKHAND
Darogi B.O,Branch Post Office,249122,,.,TEHRI GARHWAL,UTTARAKHAND,TEHRI,DEHRADUN,UTTARAKHAND
Jamnikhal B.O,Branch Post Office,249122,,.,TEHRI GARHWAL,UTTARAKHAND,TEHRI,DEHRADUN,UTTARAKHAND
Nakot B.O,Branch Post Office,249199,,.,TEHRI GARHWAL,UTTARAKHAND,TEHRI,DEHRADUN,UTTARAKHAND
Sain B.O,Branch Post Office,249146,,.,TEHRI GARHWAL,UTTARAKHAND,TEHRI,DEHRADUN,UTTARAKHAND
Amni B.O,Branch Post Office,249122,,DEOPRAYAG,TEHRI GARHWAL,UTTARAKHAND,TEHRI,DEHRADUN,UTTARAKHAND
Bhainskot B.O,Branch Post Office,249122,,DEOPRAYAG,TEHRI GARHWAL,UTTARAKHAND,TEHRI,DEHRADUN,UTTARAKHAND
Bhallegaon S.O,Sub Post Office,249126,01378-264103,DEOPRAYAG,TEHRI GARHWAL,UTTARAKHAND,TEHRI,DEHRADUN,UTTARAKHAND
Deoprayag Bazar S.O,Sub Post Office,246186,01378-266015,DEOPRAYAG,TEHRI GARHWAL,UTTARAKHAND,TEHRI,DEHRADUN,UTTARAKHAND
Hindolakhal S.O,Sub Post Office,249122,01378-225223,DEOPRAYAG,TEHRI GARHWAL,UTTARAKHAND,TEHRI,DEHRADUN,UTTARAKHAND
Hinsriyakhal B.O,Branch Post Office,249126,,DEOPRAYAG,TEHRI GARHWAL,UTTARAKHAND,TEHRI,DEHRADUN,UTTARAKHAND
Kuddi B.O,Branch Post Office,249122,,DEOPRAYAG,TEHRI GARHWAL,UTTARAKHAND,TEHRI,DEHRADUN,UTTARAKHAND
Laloorikhal B.O,Branch Post Office,249122,,DEOPRAYAG,TEHRI GARHWAL,UTTARAKHAND,TEHRI,DEHRADUN,UTTARAKHAND
Mahad B.O,Branch Post Office,249122,,DEOPRAYAG,TEHRI GARHWAL,UTTARAKHAND,TEHRI,DEHRADUN,UTTARAKHAND
Palethi B.O,Branch Post Office,249122,,DEOPRAYAG,TEHRI GARHWAL,UTTARAKHAND,TEHRI,DEHRADUN,UTTARAKHAND
Pujargaon B.O,Branch Post Office,249122,,DEOPRAYAG,TEHRI GARHWAL,UTTARAKHAND,TEHRI,DEHRADUN,UTTARAKHAND
Sinwalidhar B.O,Branch Post Office,249122,,DEOPRAYAG,TEHRI GARHWAL,UTTARAKHAND,TEHRI,DEHRADUN,UTTARAKHAND
Souru B.O,Branch Post Office,249126,,DEOPRAYAG,TEHRI GARHWAL,UTTARAKHAND,TEHRI,DEHRADUN,UTTARAKHAND
Tyuna B.O,Branch Post Office,249122,,DEOPRAYAG,TEHRI GARHWAL,UTTARAKHAND,TEHRI,DEHRADUN,UTTARAKHAND
Kumalda B.O,Branch Post Office,248008,,Dhanaulti,TEHRI GARHWAL,UTTARAKHAND,DEHRADUN,DEHRADUN,UTTARAKHAND
Yamunapul B.O,Branch Post Office,248252,,Dhanaulti,TEHRI GARHWAL,UTTARAKHAND,DEHRADUN,DEHRADUN,UTTARAKHAND
Bangar B.O,Branch Post Office,249180,,DHANOLTI,TEHRI GARHWAL,UTTARAKHAND,TEHRI,DEHRADUN,UTTARAKHAND
Bangsil B.O,Branch Post Office,249180,,dhanolti,TEHRI GARHWAL,UTTARAKHAND,TEHRI,DEHRADUN,UTTARAKHAND
Bhalkatal B.O,Branch Post Office,249180,,DHANOLTI,TEHRI GARHWAL,UTTARAKHAND,TEHRI,DEHRADUN,UTTARAKHAND
Bhawan B.O,Branch Post Office,249180,,DHANOLTI,TEHRI GARHWAL,UTTARAKHAND,TEHRI,DEHRADUN,UTTARAKHAND
Chulyani B.O,Branch Post Office,249180,,DHANOLTI,TEHRI GARHWAL,UTTARAKHAND,TEHRI,DEHRADUN,UTTARAKHAND
Dhanolti B.O,Branch Post Office,249180,,DHANOLTI,TEHRI GARHWAL,UTTARAKHAND,TEHRI,DEHRADUN,UTTARAKHAND
Dwargarh B.O,Branch Post Office,249180,,DHANOLTI,TEHRI GARHWAL,UTTARAKHAND,TEHRI,DEHRADUN,UTTARAKHAND
Khyarsi B.O,Branch Post Office,249180,,DHANOLTI,TEHRI GARHWAL,UTTARAKHAND,TEHRI,DEHRADUN,UTTARAKHAND
Parogi B.O,Branch Post Office,249180,,DHANOLTI,TEHRI GARHWAL,UTTARAKHAND,TEHRI,DEHRADUN,UTTARAKHAND
Ragar Gaon B.O,Branch Post Office,249145,,DHANOLTI,TEHRI GARHWAL,UTTARAKHAND,TEHRI,DEHRADUN,UTTARAKHAND
Sadav B.O,Branch Post Office,249180,,DHANOLTI,TEHRI GARHWAL,UTTARAKHAND,TEHRI,DEHRADUN,UTTARAKHAND
Sirs B.O,Branch Post Office,249180,,DHANOLTI,TEHRI GARHWAL,UTTARAKHAND,TEHRI,DEHRADUN,UTTARAKHAND
Suwakholi B.O,Branch Post Office,249180,,DHANOLTI,TEHRI GARHWAL,UTTARAKHAND,TEHRI,DEHRADUN,UTTARAKHAND
Kempty B.O,Branch Post Office,248179,,Dhanolty,TEHRI GARHWAL,UTTARAKHAND,DEHRADUN,DEHRADUN,UTTARAKHAND
Kotipav B.O,Branch Post Office,249186,,DHANOULTI,TEHRI GARHWAL,UTTARAKHAND,TEHRI,DEHRADUN,UTTARAKHAND
Maror B.O,Branch Post Office,249186,,DHANOULTI,TEHRI GARHWAL,UTTARAKHAND,TEHRI,DEHRADUN,UTTARAKHAND
Mogi B.O,Branch Post Office,249186,,DHANOULTI,TEHRI GARHWAL,UTTARAKHAND,TEHRI,DEHRADUN,UTTARAKHAND
Myanilaloor B.O,Branch Post Office,249186,,DHANOULTI,TEHRI GARHWAL,UTTARAKHAND,TEHRI,DEHRADUN,UTTARAKHAND
Pantwari B.O,Branch Post Office,249186,,DHANOULTI,TEHRI GARHWAL,UTTARAKHAND,TEHRI,DEHRADUN,UTTARAKHAND
Sendul B.O,Branch Post Office,249186,,DHANOULTI,TEHRI GARHWAL,UTTARAKHAND,TEHRI,DEHRADUN,UTTARAKHAND
Sigunisera S.O,Sub Post Office,249186,01376-228403,DHANOULTI,TEHRI GARHWAL,UTTARAKHAND,TEHRI,DEHRADUN,UTTARAKHAND
Srikot B.O,Branch Post Office,249186,,DHANOULTI,TEHRI GARHWAL,UTTARAKHAND,TEHRI,DEHRADUN,UTTARAKHAND
Thatyur S.O,Sub Post Office,249180,01376-246303,DHANOULTI,TEHRI GARHWAL,UTTARAKHAND,TEHRI,DEHRADUN,UTTARAKHAND
Tikri B.O,Branch Post Office,249186,,DHANOULTI,TEHRI GARHWAL,UTTARAKHAND,TEHRI,DEHRADUN,UTTARAKHAND
Kinsoo B.O,Branch Post Office,249180,,DHAOLTI,TEHRI GARHWAL,UTTARAKHAND,TEHRI,DEHRADUN,UTTARAKHAND
Siree B.O,Branch Post Office,249165,,DUNDA,TEHRI GARHWAL,UTTARAKHAND,TEHRI,DEHRADUN,UTTARAKHAND
Amsari B.O,Branch Post Office,249146,,GAJJA,TEHRI GARHWAL,UTTARAKHAND,TEHRI,DEHRADUN,UTTARAKHAND
Chaka S.O,Sub Post Office,249106,,GAJJA,TEHRI GARHWAL,UTTARAKHAND,TEHRI,DEHRADUN,UTTARAKHAND
Gajja S.O,Sub Post Office,249146,01378-221220,GAJJA,TEHRI GARHWAL,UTTARAKHAND,TEHRI,DEHRADUN,UTTARAKHAND
Jakholi B.O,Branch Post Office,249146,,GAJJA,TEHRI GARHWAL,UTTARAKHAND,TEHRI,DEHRADUN,UTTARAKHAND
Kathud B.O,Branch Post Office,249146,,GAJJA,TEHRI GARHWAL,UTTARAKHAND,TEHRI,DEHRADUN,UTTARAKHAND
Khaand B.O,Branch Post Office,249146,,GAJJA,TEHRI GARHWAL,UTTARAKHAND,TEHRI,DEHRADUN,UTTARAKHAND
Kothi B.O,Branch Post Office,249146,,GAJJA,TEHRI GARHWAL,UTTARAKHAND,TEHRI,DEHRADUN,UTTARAKHAND
Lawa B.O,Branch Post Office,249146,,GAJJA,TEHRI GARHWAL,UTTARAKHAND,TEHRI,DEHRADUN,UTTARAKHAND
Maroragaad B.O,Branch Post Office,249146,,GAJJA,TEHRI GARHWAL,UTTARAKHAND,TEHRI,DEHRADUN,UTTARAKHAND
Naicholi B.O,Branch Post Office,249146,,GAJJA,TEHRI GARHWAL,UTTARAKHAND,TEHRI,DEHRADUN,UTTARAKHAND
Palkot B.O,Branch Post Office,249146,,GAJJA,TEHRI GARHWAL,UTTARAKHAND,TEHRI,DEHRADUN,UTTARAKHAND
Pokhri B.O,Branch Post Office,249146,,GAJJA,TEHRI GARHWAL,UTTARAKHAND,TEHRI,DEHRADUN,UTTARAKHAND
Ranakot B.O,Branch Post Office,249146,,GAJJA,TEHRI GARHWAL,UTTARAKHAND,TEHRI,DEHRADUN,UTTARAKHAND
Shantipur Sondi B.O,Branch Post Office,249146,,GAJJA,TEHRI GARHWAL,UTTARAKHAND,TEHRI,DEHRADUN,UTTARAKHAND
Akhori B.O,Branch Post Office,249155,,GHANSALI,TEHRI GARHWAL,UTTARAKHAND,TEHRI,DEHRADUN,UTTARAKHAND
Bajiyalgaon B.O,Branch Post Office,249155,,GHANSALI,TEHRI GARHWAL,UTTARAKHAND,TEHRI,DEHRADUN,UTTARAKHAND
Barkot B.O,Branch Post Office,249181,,GHANSALI,TEHRI GARHWAL,UTTARAKHAND,TEHRI,DEHRADUN,UTTARAKHAND
Beena B.O,Branch Post Office,249155,,GHANSALI,TEHRI GARHWAL,UTTARAKHAND,TEHRI,DEHRADUN,UTTARAKHAND
Bhaatgaon B.O,Branch Post Office,249181,,GHANSALI,TEHRI GARHWAL,UTTARAKHAND,TEHRI,DEHRADUN,UTTARAKHAND
Bhaneldi B.O,Branch Post Office,249181,,GHANSALI,TEHRI GARHWAL,UTTARAKHAND,TEHRI,DEHRADUN,UTTARAKHAND
Bhatgaon B.O,Branch Post Office,249155,,GHANSALI,TEHRI GARHWAL,UTTARAKHAND,TEHRI,DEHRADUN,UTTARAKHAND
Bhatwara B.O,Branch Post Office,249155,,GHANSALI,TEHRI GARHWAL,UTTARAKHAND,TEHRI,DEHRADUN,UTTARAKHAND
Bhigun B.O,Branch Post Office,249155,,GHANSALI,TEHRI GARHWAL,UTTARAKHAND,TEHRI,DEHRADUN,UTTARAKHAND
Chamiyala B.O,Branch Post Office,249155,,GHANSALI,TEHRI GARHWAL,UTTARAKHAND,TEHRI,DEHRADUN,UTTARAKHAND
Chandreshwar B.O,Branch Post Office,249181,,GHANSALI,TEHRI GARHWAL,UTTARAKHAND,TEHRI,DEHRADUN,UTTARAKHAND
Chanji B.O,Branch Post Office,249155,,GHANSALI,TEHRI GARHWAL,UTTARAKHAND,TEHRI,DEHRADUN,UTTARAKHAND
Dalla Argrh B.O,Branch Post Office,249181,,GHANSALI,TEHRI GARHWAL,UTTARAKHAND,TEHRI,DEHRADUN,UTTARAKHAND
Dangi B.O,Branch Post Office,249155,,GHANSALI,TEHRI GARHWAL,UTTARAKHAND,TEHRI,DEHRADUN,UTTARAKHAND
Devtadhar B.O,Branch Post Office,249181,,GHANSALI,TEHRI GARHWAL,UTTARAKHAND,TEHRI,DEHRADUN,UTTARAKHAND
Dewath B.O,Branch Post Office,249155,,GHANSALI,TEHRI GARHWAL,UTTARAKHAND,TEHRI,DEHRADUN,UTTARAKHAND
Dhopardhar B.O,Branch Post Office,249155,,GHANSALI,TEHRI GARHWAL,UTTARAKHAND,TEHRI,DEHRADUN,UTTARAKHAND
Dhounikhal B.O,Branch Post Office,249155,,GHANSALI,TEHRI GARHWAL,UTTARAKHAND,TEHRI,DEHRADUN,UTTARAKHAND
Falenda B.O,Branch Post Office,249155,,GHANSALI,TEHRI GARHWAL,UTTARAKHAND,TEHRI,DEHRADUN,UTTARAKHAND
Gadoliya B.O,Branch Post Office,249181,,GHANSALI,TEHRI GARHWAL,UTTARAKHAND,TEHRI,DEHRADUN,UTTARAKHAND
Ghansali S.O,Sub Post Office,249155,01379-258325,GHANSALI,TEHRI GARHWAL,UTTARAKHAND,TEHRI,DEHRADUN,UTTARAKHAND
Ghonti B.O,Branch Post Office,249181,,GHANSALI,TEHRI GARHWAL,UTTARAKHAND,TEHRI,DEHRADUN,UTTARAKHAND
Ghuttu B.O,Branch Post Office,249155,,GHANSALI,TEHRI GARHWAL,UTTARAKHAND,TEHRI,DEHRADUN,UTTARAKHAND
Gona B.O,Branch Post Office,249181,,GHANSALI,TEHRI GARHWAL,UTTARAKHAND,TEHRI,DEHRADUN,UTTARAKHAND
Hadiyanakholi B.O,Branch Post Office,249155,,GHANSALI,TEHRI GARHWAL,UTTARAKHAND,TEHRI,DEHRADUN,UTTARAKHAND
Jakhniyali B.O,Branch Post Office,249155,,GHANSALI,TEHRI GARHWAL,UTTARAKHAND,TEHRI,DEHRADUN,UTTARAKHAND
Kafolgaon B.O,Branch Post Office,249155,,GHANSALI,TEHRI GARHWAL,UTTARAKHAND,TEHRI,DEHRADUN,UTTARAKHAND
Kandarsyun B.O,Branch Post Office,249155,,GHANSALI,TEHRI GARHWAL,UTTARAKHAND,TEHRI,DEHRADUN,UTTARAKHAND
Kathoor B.O,Branch Post Office,249155,,GHANSALI,TEHRI GARHWAL,UTTARAKHAND,TEHRI,DEHRADUN,UTTARAKHAND
Khawara B.O,Branch Post Office,249155,,GHANSALI,TEHRI GARHWAL,UTTARAKHAND,TEHRI,DEHRADUN,UTTARAKHAND
Kireth B.O,Branch Post Office,249181,,GHANSALI,TEHRI GARHWAL,UTTARAKHAND,TEHRI,DEHRADUN,UTTARAKHAND
Kothiyara B.O,Branch Post Office,249181,,GHANSALI,TEHRI GARHWAL,UTTARAKHAND,TEHRI,DEHRADUN,UTTARAKHAND
Maighadhar B.O,Branch Post Office,249155,,GHANSALI,TEHRI GARHWAL,UTTARAKHAND,TEHRI,DEHRADUN,UTTARAKHAND
Malgaon B.O,Branch Post Office,249155,,GHANSALI,TEHRI GARHWAL,UTTARAKHAND,TEHRI,DEHRADUN,UTTARAKHAND
Malyakot B.O,Branch Post Office,249155,,GHANSALI,TEHRI GARHWAL,UTTARAKHAND,TEHRI,DEHRADUN,UTTARAKHAND
Mandar B.O,Branch Post Office,249181,,GHANSALI,TEHRI GARHWAL,UTTARAKHAND,TEHRI,DEHRADUN,UTTARAKHAND
Muyalgaon B.O,Branch Post Office,249155,,GHANSALI,TEHRI GARHWAL,UTTARAKHAND,TEHRI,DEHRADUN,UTTARAKHAND
Odadhar B.O,Branch Post Office,249155,,GHANSALI,TEHRI GARHWAL,UTTARAKHAND,TEHRI,DEHRADUN,UTTARAKHAND
Pangriyana B.O,Branch Post Office,249155,,GHANSALI,TEHRI GARHWAL,UTTARAKHAND,TEHRI,DEHRADUN,UTTARAKHAND
Pilkhi S.O,Sub Post Office,249181,01379-258328,GHANSALI,TEHRI GARHWAL,UTTARAKHAND,TEHRI,DEHRADUN,UTTARAKHAND
Pokhar B.O,Branch Post Office,249155,,GHANSALI,TEHRI GARHWAL,UTTARAKHAND,TEHRI,DEHRADUN,UTTARAKHAND
Purwalgaon B.O,Branch Post Office,249155,,GHANSALI,TEHRI GARHWAL,UTTARAKHAND,TEHRI,DEHRADUN,UTTARAKHAND
Samangaon B.O,Branch Post Office,249155,,GHANSALI,TEHRI GARHWAL,UTTARAKHAND,TEHRI,DEHRADUN,UTTARAKHAND
Sankri B.O,Branch Post Office,249155,,GHANSALI,TEHRI GARHWAL,UTTARAKHAND,TEHRI,DEHRADUN,UTTARAKHAND
Semandidhar B.O,Branch Post Office,249181,,GHANSALI,TEHRI GARHWAL,UTTARAKHAND,TEHRI,DEHRADUN,UTTARAKHAND
Siliyara B.O,Branch Post Office,249155,,GHANSALI,TEHRI GARHWAL,UTTARAKHAND,TEHRI,DEHRADUN,UTTARAKHAND
Sounp B.O,Branch Post Office,249181,,GHANSALI,TEHRI GARHWAL,UTTARAKHAND,TEHRI,DEHRADUN,UTTARAKHAND
Sunargaon B.O,Branch Post Office,249181,,GHANSALI,TEHRI GARHWAL,UTTARAKHAND,TEHRI,DEHRADUN,UTTARAKHAND
Thati B.O,Branch Post Office,249155,,GHANSALI,TEHRI GARHWAL,UTTARAKHAND,TEHRI,DEHRADUN,UTTARAKHAND
Tisriyara B.O,Branch Post Office,249155,,GHANSALI,TEHRI GARHWAL,UTTARAKHAND,TEHRI,DEHRADUN,UTTARAKHAND
Binaykhal B.O,Branch Post Office,249155,,GHANSLAI,TEHRI GARHWAL,UTTARAKHAND,TEHRI,DEHRADUN,UTTARAKHAND
Anjanisain S.O,Sub Post Office,249121,01376-247421,JAKHNIDHAR,TEHRI GARHWAL,UTTARAKHAND,TEHRI,DEHRADUN,UTTARAKHAND
Chheti B.O,Branch Post Office,249123,,JAKHNIDHAR,TEHRI GARHWAL,UTTARAKHAND,TEHRI,DEHRADUN,UTTARAKHAND
Gomukh B.O,Branch Post Office,249121,,JAKHNIDHAR,TEHRI GARHWAL,UTTARAKHAND,TEHRI,DEHRADUN,UTTARAKHAND
Jakhnidhar S.O,Sub Post Office,249123,01376-238821,JAKHNIDHAR,TEHRI GARHWAL,UTTARAKHAND,TEHRI,DEHRADUN,UTTARAKHAND
Khandogi B.O,Branch Post Office,249123,,JAKHNIDHAR,TEHRI GARHWAL,UTTARAKHAND,TEHRI,DEHRADUN,UTTARAKHAND
Panchoor B.O,Branch Post Office,249121,,JAKHNIDHAR,TEHRI GARHWAL,UTTARAKHAND,TEHRI,DEHRADUN,UTTARAKHAND
Patniyadevi B.O,Branch Post Office,249123,,JAKHNIDHAR,TEHRI GARHWAL,UTTARAKHAND,TEHRI,DEHRADUN,UTTARAKHAND
Paurikhal B.O,Branch Post Office,249121,,JAKHNIDHAR,TEHRI GARHWAL,UTTARAKHAND,TEHRI,DEHRADUN,UTTARAKHAND
Pipola B.O,Branch Post Office,249123,,JAKHNIDHAR,TEHRI GARHWAL,UTTARAKHAND,TEHRI,DEHRADUN,UTTARAKHAND
Radhudhar B.O,Branch Post Office,249123,,JAKHNIDHAR,TEHRI GARHWAL,UTTARAKHAND,TEHRI,DEHRADUN,UTTARAKHAND
Raurdhar B.O,Branch Post Office,249121,,JAKHNIDHAR,TEHRI GARHWAL,UTTARAKHAND,TEHRI,DEHRADUN,UTTARAKHAND
Tipri B.O,Branch Post Office,249123,,JAKHNIDHAR,TEHRI GARHWAL,UTTARAKHAND,TEHRI,DEHRADUN,UTTARAKHAND
Toli B.O,Branch Post Office,249121,,JAKHNIDHAR,TEHRI GARHWAL,UTTARAKHAND,TEHRI,DEHRADUN,UTTARAKHAND
Garakot B.O,Branch Post Office,249121,,JAKHNIDHARR,TEHRI GARHWAL,UTTARAKHAND,TEHRI,DEHRADUN,UTTARAKHAND
Badiyargarh S.O,Sub Post Office,249162,,KIRTINAGAR,TEHRI GARHWAL,UTTARAKHAND,TEHRI,DEHRADUN,UTTARAKHAND
Badon B.O,Branch Post Office,249161,,KIRTINAGAR,TEHRI GARHWAL,UTTARAKHAND,TEHRI,DEHRADUN,UTTARAKHAND
Chourikhal B.O,Branch Post Office,249161,,KIRTINAGAR,TEHRI GARHWAL,UTTARAKHAND,TEHRI,DEHRADUN,UTTARAKHAND
Dharidhungsir B.O,Branch Post Office,249161,,KIRTINAGAR,TEHRI GARHWAL,UTTARAKHAND,TEHRI,DEHRADUN,UTTARAKHAND
Dharkot B.O,Branch Post Office,249161,,KIRTINAGAR,TEHRI GARHWAL,UTTARAKHAND,TEHRI,DEHRADUN,UTTARAKHAND
Dugadda B.O,Branch Post Office,249161,,KIRTINAGAR,TEHRI GARHWAL,UTTARAKHAND,TEHRI,DEHRADUN,UTTARAKHAND
Jakhand B.O,Branch Post Office,249161,,KIRTINAGAR,TEHRI GARHWAL,UTTARAKHAND,TEHRI,DEHRADUN,UTTARAKHAND
Kilkileshwar B.O,Branch Post Office,249161,,KIRTINAGAR,TEHRI GARHWAL,UTTARAKHAND,TEHRI,DEHRADUN,UTTARAKHAND
Kirtinagar S.O,Sub Post Office,249161,01370-260020,KIRTINAGAR,TEHRI GARHWAL,UTTARAKHAND,TEHRI,DEHRADUN,UTTARAKHAND
Magron B.O,Branch Post Office,249161,,KIRTINAGAR,TEHRI GARHWAL,UTTARAKHAND,TEHRI,DEHRADUN,UTTARAKHAND
Maletha B.O,Branch Post Office,249161,,KIRTINAGAR,TEHRI GARHWAL,UTTARAKHAND,TEHRI,DEHRADUN,UTTARAKHAND
Manjkot B.O,Branch Post Office,249161,,KIRTINAGAR,TEHRI GARHWAL,UTTARAKHAND,TEHRI,DEHRADUN,UTTARAKHAND
Nyuli B.O,Branch Post Office,249161,,KIRTINAGAR,TEHRI GARHWAL,UTTARAKHAND,TEHRI,DEHRADUN,UTTARAKHAND
Silkakhal B.O,Branch Post Office,249161,,KIRTINAGAR,TEHRI GARHWAL,UTTARAKHAND,TEHRI,DEHRADUN,UTTARAKHAND
Takoli B.O,Branch Post Office,249161,,KIRTINAGAR,TEHRI GARHWAL,UTTARAKHAND,TEHRI,DEHRADUN,UTTARAKHAND
Talli Ringoli B.O,Branch Post Office,249161,,KIRTINAGAR,TEHRI GARHWAL,UTTARAKHAND,TEHRI,DEHRADUN,UTTARAKHAND
Thati Dagar B.O,Branch Post Office,249161,,KIRTINAGAR,TEHRI GARHWAL,UTTARAKHAND,TEHRI,DEHRADUN,UTTARAKHAND
Daang B.O,Branch Post Office,249161,,KIRTINAGR,TEHRI GARHWAL,UTTARAKHAND,TEHRI,DEHRADUN,UTTARAKHAND
Dangchoura B.O,Branch Post Office,249161,,KIRTINAGR,TEHRI GARHWAL,UTTARAKHAND,TEHRI,DEHRADUN,UTTARAKHAND
Ghandiyaldhr B.O,Branch Post Office,249161,,KIRTINAGR,TEHRI GARHWAL,UTTARAKHAND,TEHRI,DEHRADUN,UTTARAKHAND
Jakhidagar B.O,Branch Post Office,249161,,KIRTINAGR,TEHRI GARHWAL,UTTARAKHAND,TEHRI,DEHRADUN,UTTARAKHAND
Kafna B.O,Branch Post Office,249161,,KIRTINAGR,TEHRI GARHWAL,UTTARAKHAND,TEHRI,DEHRADUN,UTTARAKHAND
Khola B.O,Branch Post Office,249161,,KIRTINAGR,TEHRI GARHWAL,UTTARAKHAND,TEHRI,DEHRADUN,UTTARAKHAND
Poukhal B.O,Branch Post Office,249161,,KIRTINAGR,TEHRI GARHWAL,UTTARAKHAND,TEHRI,DEHRADUN,UTTARAKHAND
Jajal S.O,Sub Post Office,249147,,NARENDER NAGAR,TEHRI GARHWAL,UTTARAKHAND,TEHRI,DEHRADUN,UTTARAKHAND
Agar B.O,Branch Post Office,249175,,NARENDRA NAGAR,TEHRI GARHWAL,UTTARAKHAND,TEHRI,DEHRADUN,UTTARAKHAND
Bachhelikhal B.O,Branch Post Office,249192,,NARENDRA NAGAR,TEHRI GARHWAL,UTTARAKHAND,TEHRI,DEHRADUN,UTTARAKHAND
Bagi B.O,Branch Post Office,249175,,NARENDRA NAGAR,TEHRI GARHWAL,UTTARAKHAND,TEHRI,DEHRADUN,UTTARAKHAND
Bairaigaon B.O,Branch Post Office,249192,,NARENDRA NAGAR,TEHRI GARHWAL,UTTARAKHAND,TEHRI,DEHRADUN,UTTARAKHAND
Banali B.O,Branch Post Office,249175,,NARENDRA NAGAR,TEHRI GARHWAL,UTTARAKHAND,TEHRI,DEHRADUN,UTTARAKHAND
Berni B.O,Branch Post Office,249175,,NARENDRA NAGAR,TEHRI GARHWAL,UTTARAKHAND,TEHRI,DEHRADUN,UTTARAKHAND
Chamolgaon B.O,Branch Post Office,249175,,NARENDRA NAGAR,TEHRI GARHWAL,UTTARAKHAND,TEHRI,DEHRADUN,UTTARAKHAND
Gulardogi S.O,Sub Post Office,249103,,NARENDRA NAGAR,TEHRI GARHWAL,UTTARAKHAND,TEHRI,DEHRADUN,UTTARAKHAND
Kharsadi B.O,Branch Post Office,249192,,NARENDRA NAGAR,TEHRI GARHWAL,UTTARAKHAND,TEHRI,DEHRADUN,UTTARAKHAND
Manderigaon B.O,Branch Post Office,249192,,NARENDRA NAGAR,TEHRI GARHWAL,UTTARAKHAND,TEHRI,DEHRADUN,UTTARAKHAND
Nagni B.O,Branch Post Office,249175,,NARENDRA NAGAR,TEHRI GARHWAL,UTTARAKHAND,TEHRI,DEHRADUN,UTTARAKHAND
Odada B.O,Branch Post Office,249175,,NARENDRA NAGAR,TEHRI GARHWAL,UTTARAKHAND,TEHRI,DEHRADUN,UTTARAKHAND
Shivanand Nagar S.O,Sub Post Office,249192,0135-2442204,NARENDRA NAGAR,TEHRI GARHWAL,UTTARAKHAND,TEHRI,DEHRADUN,UTTARAKHAND
Shivpuri B.O,Branch Post Office,249192,,NARENDRA NAGAR,TEHRI GARHWAL,UTTARAKHAND,TEHRI,DEHRADUN,UTTARAKHAND
Silkani B.O,Branch Post Office,249192,,NARENDRA NAGAR,TEHRI GARHWAL,UTTARAKHAND,TEHRI,DEHRADUN,UTTARAKHAND
Manjiyari B.O,Branch Post Office,249192,,NARENDRA NAGR,TEHRI GARHWAL,UTTARAKHAND,TEHRI,DEHRADUN,UTTARAKHAND
Atali -byasi B.O,Branch Post Office,249192,,NARENDRANAGAR,TEHRI GARHWAL,UTTARAKHAND,TEHRI,DEHRADUN,UTTARAKHAND
Banskatal B.O,Branch Post Office,249192,,NARENDRANAGAR,TEHRI GARHWAL,UTTARAKHAND,TEHRI,DEHRADUN,UTTARAKHAND
Bharpur B.O,Branch Post Office,249192,,NARENDRANAGAR,TEHRI GARHWAL,UTTARAKHAND,TEHRI,DEHRADUN,UTTARAKHAND
Duwadhar B.O,Branch Post Office,249175,,NARENDRANAGAR,TEHRI GARHWAL,UTTARAKHAND,TEHRI,DEHRADUN,UTTARAKHAND
Dyuli B.O,Branch Post Office,249175,,NARENDRANAGAR,TEHRI GARHWAL,UTTARAKHAND,TEHRI,DEHRADUN,UTTARAKHAND
Fakot S.O,Sub Post Office,249142,,NARENDRANAGAR,TEHRI GARHWAL,UTTARAKHAND,TEHRI,DEHRADUN,UTTARAKHAND
Jardhargaon B.O,Branch Post Office,249175,,NARENDRANAGAR,TEHRI GARHWAL,UTTARAKHAND,TEHRI,DEHRADUN,UTTARAKHAND
Kakhoor B.O,Branch Post Office,249192,,NARENDRANAGAR,TEHRI GARHWAL,UTTARAKHAND,TEHRI,DEHRADUN,UTTARAKHAND
Kaudiyala B.O,Branch Post Office,249192,,NARENDRANAGAR,TEHRI GARHWAL,UTTARAKHAND,TEHRI,DEHRADUN,UTTARAKHAND
Mindath B.O,Branch Post Office,249192,,NARENDRANAGAR,TEHRI GARHWAL,UTTARAKHAND,TEHRI,DEHRADUN,UTTARAKHAND
Mundala B.O,Branch Post Office,249192,,NARENDRANAGAR,TEHRI GARHWAL,UTTARAKHAND,TEHRI,DEHRADUN,UTTARAKHAND
Munikireti S.O,Sub Post Office,249137,,NARENDRANAGAR,TEHRI GARHWAL,UTTARAKHAND,TEHRI,DEHRADUN,UTTARAKHAND
Naidogi B.O,Branch Post Office,249192,,NARENDRANAGAR,TEHRI GARHWAL,UTTARAKHAND,TEHRI,DEHRADUN,UTTARAKHAND
Narendra Nagar S.O,Sub Post Office,249175,01378-227234,NARENDRANAGAR,TEHRI GARHWAL,UTTARAKHAND,TEHRI,DEHRADUN,UTTARAKHAND
Tapoban B.O,Branch Post Office,249192,,NARENDRANAGAR,TEHRI GARHWAL,UTTARAKHAND,TEHRI,DEHRADUN,UTTARAKHAND
Timli B.O,Branch Post Office,249192,,NARENDRANAGAR,TEHRI GARHWAL,UTTARAKHAND,TEHRI,DEHRADUN,UTTARAKHAND
Kyara B.O,Branch Post Office,249192,,NRENDRA NAGAR,TEHRI GARHWAL,UTTARAKHAND,TEHRI,DEHRADUN,UTTARAKHAND
Nelda B.O,Branch Post Office,249001,,PARTAPNAGAR,TEHRI GARHWAL,UTTARAKHAND,TEHRI,DEHRADUN,UTTARAKHAND
Rajakhet B.O,Branch Post Office,249001,,PARTAPNAGAR,TEHRI GARHWAL,UTTARAKHAND,TEHRI,DEHRADUN,UTTARAKHAND
Kotalgaon B.O,Branch Post Office,249165,,PRATAP NAGAR,TEHRI GARHWAL,UTTARAKHAND,TEHRI,DEHRADUN,UTTARAKHAND
Madan Negi B.O,Branch Post Office,249131,,PRATAP NAGAR,TEHRI GARHWAL,UTTARAKHAND,TEHRI,DEHRADUN,UTTARAKHAND
Pratap Nagar S.O,Sub Post Office,249156,,PRATAP NAGAR,TEHRI GARHWAL,UTTARAKHAND,TEHRI,DEHRADUN,UTTARAKHAND
Raika B.O,Branch Post Office,249165,,PRATAP NAGAR,TEHRI GARHWAL,UTTARAKHAND,TEHRI,DEHRADUN,UTTARAKHAND
Raimer B.O,Branch Post Office,249165,,PRATAP NAGAR,TEHRI GARHWAL,UTTARAKHAND,TEHRI,DEHRADUN,UTTARAKHAND
Roulakot B.O,Branch Post Office,249131,,PRATAP NAGAR,TEHRI GARHWAL,UTTARAKHAND,TEHRI,DEHRADUN,UTTARAKHAND
Rounad B.O,Branch Post Office,249165,,PRATAP NAGAR,TEHRI GARHWAL,UTTARAKHAND,TEHRI,DEHRADUN,UTTARAKHAND
Rouniya B.O,Branch Post Office,249165,,PRATAP NAGAR,TEHRI GARHWAL,UTTARAKHAND,TEHRI,DEHRADUN,UTTARAKHAND
Serabagwan B.O,Branch Post Office,249165,,PRATAP NAGAR,TEHRI GARHWAL,UTTARAKHAND,TEHRI,DEHRADUN,UTTARAKHAND
Newsari B.O,Branch Post Office,249165,,PRATAP NAGR,TEHRI GARHWAL,UTTARAKHAND,TEHRI,DEHRADUN,UTTARAKHAND
Bharkot B.O,Branch Post Office,249165,,PRATAPNAGAR,TEHRI GARHWAL,UTTARAKHAND,TEHRI,DEHRADUN,UTTARAKHAND
Dhountri B.O,Branch Post Office,249165,,PRATAPNAGAR,TEHRI GARHWAL,UTTARAKHAND,TEHRI,DEHRADUN,UTTARAKHAND
Gairi B.O,Branch Post Office,249196,,PRATAPNAGAR,TEHRI GARHWAL,UTTARAKHAND,TEHRI,DEHRADUN,UTTARAKHAND
Kandiyalgaon B.O,Branch Post Office,249165,,PRATAPNAGAR,TEHRI GARHWAL,UTTARAKHAND,TEHRI,DEHRADUN,UTTARAKHAND
Khambakhal B.O,Branch Post Office,249165,,PRATAPNAGAR,TEHRI GARHWAL,UTTARAKHAND,TEHRI,DEHRADUN,UTTARAKHAND
Lambgaon S.O,Sub Post Office,249165,01379-264605,PRATAPNAGAR,TEHRI GARHWAL,UTTARAKHAND,TEHRI,DEHRADUN,UTTARAKHAND
Majafgaon B.O,Branch Post Office,249165,,PRATAPNAGAR,TEHRI GARHWAL,UTTARAKHAND,TEHRI,DEHRADUN,UTTARAKHAND
Mukhem B.O,Branch Post Office,249165,,PRATAPNAGAR,TEHRI GARHWAL,UTTARAKHAND,TEHRI,DEHRADUN,UTTARAKHAND
Pathiyana B.O,Branch Post Office,249131,,PRATAPNAGAR,TEHRI GARHWAL,UTTARAKHAND,TEHRI,DEHRADUN,UTTARAKHAND
Thapla B.O,Branch Post Office,249165,,PRATAPNAGAR,TEHRI GARHWAL,UTTARAKHAND,TEHRI,DEHRADUN,UTTARAKHAND
Khalargaon B.O,Branch Post Office,249165,,PRATAPNGAR,TEHRI GARHWAL,UTTARAKHAND,TEHRI,DEHRADUN,UTTARAKHAND
Aleru B.O,Branch Post Office,249131,,TEHRI,TEHRI GARHWAL,UTTARAKHAND,TEHRI,DEHRADUN,UTTARAKHAND
Anandchowk B.O,Branch Post Office,249145,,TEHRI,TEHRI GARHWAL,UTTARAKHAND,TEHRI,DEHRADUN,UTTARAKHAND
Badshahithaul B.O,Branch Post Office,249199,,TEHRI,TEHRI GARHWAL,UTTARAKHAND,TEHRI,DEHRADUN,UTTARAKHAND
Bagiyal B.O,Branch Post Office,249132,,TEHRI,TEHRI GARHWAL,UTTARAKHAND,TEHRI,DEHRADUN,UTTARAKHAND
Bahera B.O,Branch Post Office,249145,,TEHRI,TEHRI GARHWAL,UTTARAKHAND,TEHRI,DEHRADUN,UTTARAKHAND
Baurari B.O,Branch Post Office,249001,,TEHRI,TEHRI GARHWAL,UTTARAKHAND,TEHRI,DEHRADUN,UTTARAKHAND
Bhagirathipuram S.O,Sub Post Office,249001,01376-235540,TEHRI,TEHRI GARHWAL,UTTARAKHAND,TEHRI,DEHRADUN,UTTARAKHAND
Bhladiana S.O,Sub Post Office,249131,,TEHRI,TEHRI GARHWAL,UTTARAKHAND,TEHRI,DEHRADUN,UTTARAKHAND
Chamani B.O,Branch Post Office,249199,,TEHRI,TEHRI GARHWAL,UTTARAKHAND,TEHRI,DEHRADUN,UTTARAKHAND
Chamma S.O,Sub Post Office,249145,01376-255221,tehri,TEHRI GARHWAL,UTTARAKHAND,TEHRI,DEHRADUN,UTTARAKHAND
Chham S.O,Sub Post Office,249132,01376-288930,TEHRI,TEHRI GARHWAL,UTTARAKHAND,TEHRI,DEHRADUN,UTTARAKHAND
Chherabdhar B.O,Branch Post Office,249131,,TEHRI,TEHRI GARHWAL,UTTARAKHAND,TEHRI,DEHRADUN,UTTARAKHAND
Chopriyalgaon B.O,Branch Post Office,249145,,TEHRI,TEHRI GARHWAL,UTTARAKHAND,TEHRI,DEHRADUN,UTTARAKHAND
Dharkot B.O,Branch Post Office,249131,,TEHRI,TEHRI GARHWAL,UTTARAKHAND,TEHRI,DEHRADUN,UTTARAKHAND
Dharkot-udaikot B.O,Branch Post Office,249130,,TEHRI,TEHRI GARHWAL,UTTARAKHAND,TEHRI,DEHRADUN,UTTARAKHAND
Gyansoo B.O,Branch Post Office,249001,,TEHRI,TEHRI GARHWAL,UTTARAKHAND,TEHRI,DEHRADUN,UTTARAKHAND
Hatwalgaon B.O,Branch Post Office,249145,,TEHRI,TEHRI GARHWAL,UTTARAKHAND,TEHRI,DEHRADUN,UTTARAKHAND
Jaakhchoura B.O,Branch Post Office,249130,,TEHRI,TEHRI GARHWAL,UTTARAKHAND,TEHRI,DEHRADUN,UTTARAKHAND
Jad Gaon B.O,Branch Post Office,249145,,TEHRI,TEHRI GARHWAL,UTTARAKHAND,TEHRI,DEHRADUN,UTTARAKHAND
Jamthiyal Gaon B.O,Branch Post Office,249145,,TEHRI,TEHRI GARHWAL,UTTARAKHAND,TEHRI,DEHRADUN,UTTARAKHAND
Joulangi B.O,Branch Post Office,249130,,TEHRI,TEHRI GARHWAL,UTTARAKHAND,TEHRI,DEHRADUN,UTTARAKHAND
Kafal Pani B.O,Branch Post Office,249130,,TEHRI,TEHRI GARHWAL,UTTARAKHAND,TEHRI,DEHRADUN,UTTARAKHAND
Kakhwari B.O,Branch Post Office,249145,,TEHRI,TEHRI GARHWAL,UTTARAKHAND,TEHRI,DEHRADUN,UTTARAKHAND
Kamand B.O,Branch Post Office,249131,,TEHRI,TEHRI GARHWAL,UTTARAKHAND,TEHRI,DEHRADUN,UTTARAKHAND
Kanatal B.O,Branch Post Office,249145,,TEHRI,TEHRI GARHWAL,UTTARAKHAND,TEHRI,DEHRADUN,UTTARAKHAND
Kandikhal B.O,Branch Post Office,249131,,TEHRI,TEHRI GARHWAL,UTTARAKHAND,TEHRI,DEHRADUN,UTTARAKHAND
Kaushal B.O,Branch Post Office,249132,,TEHRI,TEHRI GARHWAL,UTTARAKHAND,TEHRI,DEHRADUN,UTTARAKHAND
Kotmaniyar B.O,Branch Post Office,249145,,TEHRI,TEHRI GARHWAL,UTTARAKHAND,TEHRI,DEHRADUN,UTTARAKHAND
Kuttha B.O,Branch Post Office,249001,,TEHRI,TEHRI GARHWAL,UTTARAKHAND,TEHRI,DEHRADUN,UTTARAKHAND
Lamkot B.O,Branch Post Office,249199,,TEHRI,TEHRI GARHWAL,UTTARAKHAND,TEHRI,DEHRADUN,UTTARAKHAND
Lawani B.O,Branch Post Office,249132,,TEHRI,TEHRI GARHWAL,UTTARAKHAND,TEHRI,DEHRADUN,UTTARAKHAND
Maindkhal B.O,Branch Post Office,249132,,TEHRI,TEHRI GARHWAL,UTTARAKHAND,TEHRI,DEHRADUN,UTTARAKHAND
Manjhgaon B.O,Branch Post Office,249145,,TEHRI,TEHRI GARHWAL,UTTARAKHAND,TEHRI,DEHRADUN,UTTARAKHAND
Nagdev Kudiyal Gaon B.O,Branch Post Office,249145,,TEHRI,TEHRI GARHWAL,UTTARAKHAND,TEHRI,DEHRADUN,UTTARAKHAND
Nagrajadhar B.O,Branch Post Office,249196,,TEHRI,TEHRI GARHWAL,UTTARAKHAND,TEHRI,DEHRADUN,UTTARAKHAND
Nail B.O,Branch Post Office,249130,,TEHRI,TEHRI GARHWAL,UTTARAKHAND,TEHRI,DEHRADUN,UTTARAKHAND
Newtehri Collectrate S.O,Sub Post Office,249001,01376-232176,TEHRI,TEHRI GARHWAL,UTTARAKHAND,TEHRI,DEHRADUN,UTTARAKHAND
Okhla B.O,Branch Post Office,249131,,TEHRI,TEHRI GARHWAL,UTTARAKHAND,TEHRI,DEHRADUN,UTTARAKHAND
Pali B.O,Branch Post Office,249130,,TEHRI,TEHRI GARHWAL,UTTARAKHAND,TEHRI,DEHRADUN,UTTARAKHAND
Pangerkhal B.O,Branch Post Office,249001,,TEHRI,TEHRI GARHWAL,UTTARAKHAND,TEHRI,DEHRADUN,UTTARAKHAND
Ranichauri S.O,Sub Post Office,249199,01376-252144,TEHRI,TEHRI GARHWAL,UTTARAKHAND,TEHRI,DEHRADUN,UTTARAKHAND
Ratnomalla B.O,Branch Post Office,249131,,TEHRI,TEHRI GARHWAL,UTTARAKHAND,TEHRI,DEHRADUN,UTTARAKHAND
Ringalgarh B.O,Branch Post Office,249145,,TEHRI,TEHRI GARHWAL,UTTARAKHAND,TEHRI,DEHRADUN,UTTARAKHAND
Sabli B.O,Branch Post Office,249199,,TEHRI,TEHRI GARHWAL,UTTARAKHAND,TEHRI,DEHRADUN,UTTARAKHAND
Saud B.O,Branch Post Office,249145,,TEHRI,TEHRI GARHWAL,UTTARAKHAND,TEHRI,DEHRADUN,UTTARAKHAND
Sour Uppu B.O,Branch Post Office,249131,,TEHRI,TEHRI GARHWAL,UTTARAKHAND,TEHRI,DEHRADUN,UTTARAKHAND
Sweer B.O,Branch Post Office,249199,,TEHRI,TEHRI GARHWAL,UTTARAKHAND,TEHRI,DEHRADUN,UTTARAKHAND
Tehri H.O,Head Post Office,249001,01376-233130,TEHRI,TEHRI GARHWAL,UTTARAKHAND,TEHRI,DEHRADUN,UTTARAKHAND
Thouldhar B.O,Branch Post Office,249131,,TEHRI,TEHRI GARHWAL,UTTARAKHAND,TEHRI,DEHRADUN,UTTARAKHAND
Tingri B.O,Branch Post Office,249199,,TEHRI,TEHRI GARHWAL,UTTARAKHAND,TEHRI,DEHRADUN,UTTARAKHAND
Tungoli B.O,Branch Post Office,249199,,TEHRI,TEHRI GARHWAL,UTTARAKHAND,TEHRI,DEHRADUN,UTTARAKHAND
Uniyalgaon B.O,Branch Post Office,249145,,TEHRI,TEHRI GARHWAL,UTTARAKHAND,TEHRI,DEHRADUN,UTTARAKHAND
V.K.Puram S.O,Sub Post Office,249130,01376-236040,TEHRI,TEHRI GARHWAL,UTTARAKHAND,TEHRI,DEHRADUN,UTTARAKHAND
Kyari B.O,Branch Post Office,249199,,TEHYRI,TEHRI GARHWAL,UTTARAKHAND,TEHRI,DEHRADUN,UTTARAKHAND
Sarot B.O,Branch Post Office,249132,,THEIR,TEHRI GARHWAL,UTTARAKHAND,TEHRI,DEHRADUN,UTTARAKHAND
Teehri Kutchery S.O,Sub Post Office,249001,,THRI,TEHRI GARHWAL,UTTARAKHAND,TEHRI,DEHRADUN,UTTARAKHAND
Bannakhera B.O,Branch Post Office,262401,,Bazpur,UDHAM SINGH NAGAR,UTTARAKHAND,NAINITAL,DEHRADUN,UTTARAKHAND
Barhani B.O,Branch Post Office,262401,,Bazpur,UDHAM SINGH NAGAR,UTTARAKHAND,NAINITAL,DEHRADUN,UTTARAKHAND
Bazpur S.O,Sub Post Office,262401,05949-281010,Bazpur,UDHAM SINGH NAGAR,UTTARAKHAND,NAINITAL,DEHRADUN,UTTARAKHAND
Bhajuanagla B.O,Branch Post Office,262401,,Bazpur,UDHAM SINGH NAGAR,UTTARAKHAND,NAINITAL,DEHRADUN,UTTARAKHAND
Doraha B.O,Branch Post Office,262401,,Bazpur,UDHAM SINGH NAGAR,UTTARAKHAND,NAINITAL,DEHRADUN,UTTARAKHAND
Fauzi Coloney B.O,Branch Post Office,262401,,Bazpur,UDHAM SINGH NAGAR,UTTARAKHAND,NAINITAL,DEHRADUN,UTTARAKHAND
Gular Bhoj Canal Coloney B.O,Branch Post Office,262401,,Bazpur,UDHAM SINGH NAGAR,UTTARAKHAND,NAINITAL,DEHRADUN,UTTARAKHAND
Haripur Harsan B.O,Branch Post Office,262401,,Bazpur,UDHAM SINGH NAGAR,UTTARAKHAND,NAINITAL,DEHRADUN,UTTARAKHAND
Jogipura B.O,Branch Post Office,262401,,Bazpur,UDHAM SINGH NAGAR,UTTARAKHAND,NAINITAL,DEHRADUN,UTTARAKHAND
S.F. Bazpur S.O,Sub Post Office,262401,,Bazpur,UDHAM SINGH NAGAR,UTTARAKHAND,NAINITAL,DEHRADUN,UTTARAKHAND
Sultanpur S.O,Sub Post Office,262123,,Bazpur,UDHAM SINGH NAGAR,UTTARAKHAND,NAINITAL,DEHRADUN,UTTARAKHAND
Adarshnagar B.O,Branch Post Office,263152,,Gadarpur,UDHAM SINGH NAGAR,UTTARAKHAND,NAINITAL,DEHRADUN,UTTARAKHAND
Gadarpur S.O,Sub Post Office,263152,05949-271120,Gadarpur,UDHAM SINGH NAGAR,UTTARAKHAND,NAINITAL,DEHRADUN,UTTARAKHAND
Gadarpura B.O,Branch Post Office,263152,,Gadarpur,UDHAM SINGH NAGAR,UTTARAKHAND,NAINITAL,DEHRADUN,UTTARAKHAND
Jhagarpuri B.O,Branch Post Office,263152,,Gadarpur,UDHAM SINGH NAGAR,UTTARAKHAND,NAINITAL,DEHRADUN,UTTARAKHAND
Kalinagar B.O,Branch Post Office,263160,,Gadarpur,UDHAM SINGH NAGAR,UTTARAKHAND,NAINITAL,DEHRADUN,UTTARAKHAND
Kelakhera B.O,Branch Post Office,263152,,Gadarpur,UDHAM SINGH NAGAR,UTTARAKHAND,NAINITAL,DEHRADUN,UTTARAKHAND
Majra Anand Singh B.O,Branch Post Office,263160,,Gadarpur,UDHAM SINGH NAGAR,UTTARAKHAND,NAINITAL,DEHRADUN,UTTARAKHAND
Narainpur Dohania B.O,Branch Post Office,263152,,Gadarpur,UDHAM SINGH NAGAR,UTTARAKHAND,NAINITAL,DEHRADUN,UTTARAKHAND
Premnagar B.O,Branch Post Office,263152,,Gadarpur,UDHAM SINGH NAGAR,UTTARAKHAND,NAINITAL,DEHRADUN,UTTARAKHAND
Subashnagar B.O,Branch Post Office,263152,,Gadarpur,UDHAM SINGH NAGAR,UTTARAKHAND,NAINITAL,DEHRADUN,UTTARAKHAND
Dineshpur S.O,Sub Post Office,263160,05944-262220,Gararpur,UDHAM SINGH NAGAR,UTTARAKHAND,NAINITAL,DEHRADUN,UTTARAKHAND
Barionwala B.O,Branch Post Office,244712,,Jaspur,UDHAM SINGH NAGAR,UTTARAKHAND,NAINITAL,DEHRADUN,UTTARAKHAND
Dharampur B.O,Branch Post Office,244712,,Jaspur,UDHAM SINGH NAGAR,UTTARAKHAND,NAINITAL,DEHRADUN,UTTARAKHAND
Jaspur S.O,Sub Post Office,244712,05947-222030,Jaspur,UDHAM SINGH NAGAR,UTTARAKHAND,NAINITAL,DEHRADUN,UTTARAKHAND
Raipur B.O,Branch Post Office,244712,,Jaspur,UDHAM SINGH NAGAR,UTTARAKHAND,NAINITAL,DEHRADUN,UTTARAKHAND
S.M. Nadehi S.O,Sub Post Office,244717,05947-222140,Jaspur,UDHAM SINGH NAGAR,UTTARAKHAND,NAINITAL,DEHRADUN,UTTARAKHAND
Anandnagar B.O,Branch Post Office,254716,,Kashipur,UDHAM SINGH NAGAR,UTTARAKHAND,NAINITAL,DEHRADUN,UTTARAKHAND
Chattarpur B.O,Branch Post Office,263153,,Kashipur,UDHAM SINGH NAGAR,UTTARAKHAND,NAINITAL,DEHRADUN,UTTARAKHAND
Chaukhandi B.O,Branch Post Office,244713,,Kashipur,UDHAM SINGH NAGAR,UTTARAKHAND,NAINITAL,DEHRADUN,UTTARAKHAND
Danpur B.O,Branch Post Office,263153,,Kashipur,UDHAM SINGH NAGAR,UTTARAKHAND,NAINITAL,DEHRADUN,UTTARAKHAND
Dhakia No 1 B.O,Branch Post Office,244713,,Kashipur,UDHAM SINGH NAGAR,UTTARAKHAND,NAINITAL,DEHRADUN,UTTARAKHAND
Dhanauri B.O,Branch Post Office,244713,,Kashipur,UDHAM SINGH NAGAR,UTTARAKHAND,NAINITAL,DEHRADUN,UTTARAKHAND
Ganeshnagar B.O,Branch Post Office,244713,,Kashipur,UDHAM SINGH NAGAR,UTTARAKHAND,NAINITAL,DEHRADUN,UTTARAKHAND
Karanpur B.O,Branch Post Office,244713,,Kashipur,UDHAM SINGH NAGAR,UTTARAKHAND,NAINITAL,DEHRADUN,UTTARAKHAND
Kashipur S.O,Sub Post Office,244713,05947-274212,Kashipur,UDHAM SINGH NAGAR,UTTARAKHAND,NAINITAL,DEHRADUN,UTTARAKHAND
Khanpur B.O,Branch Post Office,263153,,Kashipur,UDHAM SINGH NAGAR,UTTARAKHAND,NAINITAL,DEHRADUN,UTTARAKHAND
Kila Street S.O,Sub Post Office,244713,,Kashipur,UDHAM SINGH NAGAR,UTTARAKHAND,NAINITAL,DEHRADUN,UTTARAKHAND
Kunda B.O,Branch Post Office,244713,,Kashipur,UDHAM SINGH NAGAR,UTTARAKHAND,NAINITAL,DEHRADUN,UTTARAKHAND
Kundeshwari B.O,Branch Post Office,244713,,Kashipur,UDHAM SINGH NAGAR,UTTARAKHAND,NAINITAL,DEHRADUN,UTTARAKHAND
Mahuwakhera B.O,Branch Post Office,244713,,Kashipur,UDHAM SINGH NAGAR,UTTARAKHAND,NAINITAL,DEHRADUN,UTTARAKHAND
Maldhanchaur B.O,Branch Post Office,244713,,Kashipur,UDHAM SINGH NAGAR,UTTARAKHAND,NAINITAL,DEHRADUN,UTTARAKHAND
Pratappur B.O,Branch Post Office,244713,,Kashipur,UDHAM SINGH NAGAR,UTTARAKHAND,NAINITAL,DEHRADUN,UTTARAKHAND
R.T.C. Hempur S.O,Sub Post Office,254716,05947-223121,Kashipur,UDHAM SINGH NAGAR,UTTARAKHAND,NAINITAL,DEHRADUN,UTTARAKHAND
S.M. Kashipur S.O,Sub Post Office,244714,05947-270737,Kashipur,UDHAM SINGH NAGAR,UTTARAKHAND,NAINITAL,DEHRADUN,UTTARAKHAND
Shivrajpur B.O,Branch Post Office,244713,,Kashipur,UDHAM SINGH NAGAR,UTTARAKHAND,NAINITAL,DEHRADUN,UTTARAKHAND
Spinning Mill Kashipur B.O,Branch Post Office,244713,,Kashipur,UDHAM SINGH NAGAR,UTTARAKHAND,NAINITAL,DEHRADUN,UTTARAKHAND
Thari B.O,Branch Post Office,254716,,Kashipur,UDHAM SINGH NAGAR,UTTARAKHAND,NAINITAL,DEHRADUN,UTTARAKHAND
Beria Majhola B.O,Branch Post Office,262308,,Khatima,UDHAM SINGH NAGAR,UTTARAKHAND,NAINITAL,DEHRADUN,UTTARAKHAND
Bhura Kishani B.O,Branch Post Office,262308,,Khatima,UDHAM SINGH NAGAR,UTTARAKHAND,NAINITAL,DEHRADUN,UTTARAKHAND
Bigra Bagh B.O,Branch Post Office,262308,,Khatima,UDHAM SINGH NAGAR,UTTARAKHAND,NAINITAL,DEHRADUN,UTTARAKHAND
Chakarpur S.O,Sub Post Office,262312,,Khatima,UDHAM SINGH NAGAR,UTTARAKHAND,NAINITAL,DEHRADUN,UTTARAKHAND
Charubetta B.O,Branch Post Office,262308,,Khatima,UDHAM SINGH NAGAR,UTTARAKHAND,NAINITAL,DEHRADUN,UTTARAKHAND
Gaujhariya B.O,Branch Post Office,262308,,Khatima,UDHAM SINGH NAGAR,UTTARAKHAND,NAINITAL,DEHRADUN,UTTARAKHAND
Gidhaur B.O,Branch Post Office,262308,,Khatima,UDHAM SINGH NAGAR,UTTARAKHAND,NAINITAL,DEHRADUN,UTTARAKHAND
Jamaur B.O,Branch Post Office,262308,,Khatima,UDHAM SINGH NAGAR,UTTARAKHAND,NAINITAL,DEHRADUN,UTTARAKHAND
Jhankat B.O,Branch Post Office,262308,,Khatima,UDHAM SINGH NAGAR,UTTARAKHAND,NAINITAL,DEHRADUN,UTTARAKHAND
Khali Mahuwat B.O,Branch Post Office,262308,,Khatima,UDHAM SINGH NAGAR,UTTARAKHAND,NAINITAL,DEHRADUN,UTTARAKHAND
Khatima S.O,Sub Post Office,262308,05943-250021,Khatima,UDHAM SINGH NAGAR,UTTARAKHAND,NAINITAL,DEHRADUN,UTTARAKHAND
Naugaon Nath B.O,Branch Post Office,262308,,Khatima,UDHAM SINGH NAGAR,UTTARAKHAND,NAINITAL,DEHRADUN,UTTARAKHAND
Naugaon Thagoo B.O,Branch Post Office,262308,,Khatima,UDHAM SINGH NAGAR,UTTARAKHAND,NAINITAL,DEHRADUN,UTTARAKHAND
Nausar B.O,Branch Post Office,262308,,Khatima,UDHAM SINGH NAGAR,UTTARAKHAND,NAINITAL,DEHRADUN,UTTARAKHAND
Sripur Bichwa B.O,Branch Post Office,262308,,Khatima,UDHAM SINGH NAGAR,UTTARAKHAND,NAINITAL,DEHRADUN,UTTARAKHAND
Bagwara B.O,Branch Post Office,263148,,Kichha,UDHAM SINGH NAGAR,UTTARAKHAND,NAINITAL,DEHRADUN,UTTARAKHAND
Bara B.O,Branch Post Office,263148,,Kichha,UDHAM SINGH NAGAR,UTTARAKHAND,NAINITAL,DEHRADUN,UTTARAKHAND
Bhanga B.O,Branch Post Office,263148,,Kichha,UDHAM SINGH NAGAR,UTTARAKHAND,NAINITAL,DEHRADUN,UTTARAKHAND
Bhurarani B.O,Branch Post Office,263153,,Kichha,UDHAM SINGH NAGAR,UTTARAKHAND,NAINITAL,DEHRADUN,UTTARAKHAND
Bhuria Coloney B.O,Branch Post Office,263148,,Kichha,UDHAM SINGH NAGAR,UTTARAKHAND,NAINITAL,DEHRADUN,UTTARAKHAND
D.F. Nagla S.O,Sub Post Office,263149,05944-233166,Kichha,UDHAM SINGH NAGAR,UTTARAKHAND,NAINITAL,DEHRADUN,UTTARAKHAND
Darau B.O,Branch Post Office,263148,,Kichha,UDHAM SINGH NAGAR,UTTARAKHAND,NAINITAL,DEHRADUN,UTTARAKHAND
Deoria B.O,Branch Post Office,263148,,Kichha,UDHAM SINGH NAGAR,UTTARAKHAND,NAINITAL,DEHRADUN,UTTARAKHAND
Gandhi Chowk Rudarpur S.O,Sub Post Office,263153,,Kichha,UDHAM SINGH NAGAR,UTTARAKHAND,NAINITAL,DEHRADUN,UTTARAKHAND
Gokul Nagar B.O,Branch Post Office,263148,,Kichha,UDHAM SINGH NAGAR,UTTARAKHAND,NAINITAL,DEHRADUN,UTTARAKHAND
Haldi S.O,Sub Post Office,263145,05944-230336,Kichha,UDHAM SINGH NAGAR,UTTARAKHAND,NAINITAL,DEHRADUN,UTTARAKHAND
Kichha S.O,Sub Post Office,263148,05944-264334,Kichha,UDHAM SINGH NAGAR,UTTARAKHAND,NAINITAL,DEHRADUN,UTTARAKHAND
Kunwarpur Sisaya B.O,Branch Post Office,263148,,Kichha,UDHAM SINGH NAGAR,UTTARAKHAND,NAINITAL,DEHRADUN,UTTARAKHAND
Lalpur B.O,Branch Post Office,263148,,Kichha,UDHAM SINGH NAGAR,UTTARAKHAND,NAINITAL,DEHRADUN,UTTARAKHAND
Manua Patti B.O,Branch Post Office,263148,,Kichha,UDHAM SINGH NAGAR,UTTARAKHAND,NAINITAL,DEHRADUN,UTTARAKHAND
Nakatpura B.O,Branch Post Office,263148,,Kichha,UDHAM SINGH NAGAR,UTTARAKHAND,NAINITAL,DEHRADUN,UTTARAKHAND
Narayanpur B.O,Branch Post Office,263148,,Kichha,UDHAM SINGH NAGAR,UTTARAKHAND,NAINITAL,DEHRADUN,UTTARAKHAND
Pantnagar S.O,Sub Post Office,263145,05944-233520,Kichha,UDHAM SINGH NAGAR,UTTARAKHAND,NAINITAL,DEHRADUN,UTTARAKHAND
Patharchatta B.O,Branch Post Office,263145,,Kichha,UDHAM SINGH NAGAR,UTTARAKHAND,NAINITAL,DEHRADUN,UTTARAKHAND
Pratappur B.O,Branch Post Office,263148,,Kichha,UDHAM SINGH NAGAR,UTTARAKHAND,NAINITAL,DEHRADUN,UTTARAKHAND
Rudarpur S.O,Sub Post Office,263153,05944-243337,Kichha,UDHAM SINGH NAGAR,UTTARAKHAND,NAINITAL,DEHRADUN,UTTARAKHAND
Sahdaura B.O,Branch Post Office,263148,,Kichha,UDHAM SINGH NAGAR,UTTARAKHAND,NAINITAL,DEHRADUN,UTTARAKHAND
Shantpuri B.O,Branch Post Office,263148,,Kichha,UDHAM SINGH NAGAR,UTTARAKHAND,NAINITAL,DEHRADUN,UTTARAKHAND
Suryanagar B.O,Branch Post Office,263148,,Kichha,UDHAM SINGH NAGAR,UTTARAKHAND,NAINITAL,DEHRADUN,UTTARAKHAND
Uttamnagar B.O,Branch Post Office,263148,,Kichha,UDHAM SINGH NAGAR,UTTARAKHAND,NAINITAL,DEHRADUN,UTTARAKHAND
Uttarsia B.O,Branch Post Office,263148,,Kichha,UDHAM SINGH NAGAR,UTTARAKHAND,NAINITAL,DEHRADUN,UTTARAKHAND
Peerumadra S.O,Sub Post Office,244711,,Ramnagar,UDHAM SINGH NAGAR,UTTARAKHAND,NAINITAL,DEHRADUN,UTTARAKHAND
31st Bn Pac Rudarpur S.O,Sub Post Office,263150,05944-244590,Rudarpur,UDHAM SINGH NAGAR,UTTARAKHAND,NAINITAL,DEHRADUN,UTTARAKHAND
T.C. Rudarpur S.O,Sub Post Office,263154,05944-245455,Rudarpur,UDHAM SINGH NAGAR,UTTARAKHAND,NAINITAL,DEHRADUN,UTTARAKHAND
Baruabagh B.O,Branch Post Office,262405,,Sittaganj,UDHAM SINGH NAGAR,UTTARAKHAND,NAINITAL,DEHRADUN,UTTARAKHAND
Bidora B.O,Branch Post Office,262405,,Sittarganj,UDHAM SINGH NAGAR,UTTARAKHAND,NAINITAL,DEHRADUN,UTTARAKHAND
Bijitipattia B.O,Branch Post Office,262405,,Sittarganj,UDHAM SINGH NAGAR,UTTARAKHAND,NAINITAL,DEHRADUN,UTTARAKHAND
Ghusari B.O,Branch Post Office,262405,,Sittarganj,UDHAM SINGH NAGAR,UTTARAKHAND,NAINITAL,DEHRADUN,UTTARAKHAND
Hardaspur B.O,Branch Post Office,262311,,Sittarganj,UDHAM SINGH NAGAR,UTTARAKHAND,NAINITAL,DEHRADUN,UTTARAKHAND
Lamakhera B.O,Branch Post Office,262405,,Sittarganj,UDHAM SINGH NAGAR,UTTARAKHAND,NAINITAL,DEHRADUN,UTTARAKHAND
Nakulia B.O,Branch Post Office,262405,,Sittarganj,UDHAM SINGH NAGAR,UTTARAKHAND,NAINITAL,DEHRADUN,UTTARAKHAND
Nanakmatta S.O,Sub Post Office,262311,05948-251524,Sittarganj,UDHAM SINGH NAGAR,UTTARAKHAND,NAINITAL,DEHRADUN,UTTARAKHAND
Pandari B.O,Branch Post Office,262405,,Sittarganj,UDHAM SINGH NAGAR,UTTARAKHAND,NAINITAL,DEHRADUN,UTTARAKHAND
Pratappur B.O,Branch Post Office,262311,,Sittarganj,UDHAM SINGH NAGAR,UTTARAKHAND,NAINITAL,DEHRADUN,UTTARAKHAND
S.A.I. Camp S.O,Sub Post Office,262403,,Sittarganj,UDHAM SINGH NAGAR,UTTARAKHAND,NAINITAL,DEHRADUN,UTTARAKHAND
Sarasaria B.O,Branch Post Office,262311,,Sittarganj,UDHAM SINGH NAGAR,UTTARAKHAND,NAINITAL,DEHRADUN,UTTARAKHAND
Shaktifarm S.O,Sub Post Office,263154,05948-250002,Sittarganj,UDHAM SINGH NAGAR,UTTARAKHAND,NAINITAL,DEHRADUN,UTTARAKHAND
Sisona B.O,Branch Post Office,262405,,Sittarganj,UDHAM SINGH NAGAR,UTTARAKHAND,NAINITAL,DEHRADUN,UTTARAKHAND
Sittarganj S.O,Sub Post Office,262405,05948-254025,Sittarganj,UDHAM SINGH NAGAR,UTTARAKHAND,NAINITAL,DEHRADUN,UTTARAKHAND
Bhatwari S.O,Sub Post Office,249135,01374-244324,BHATWARI,UTTARKASHI,UTTARAKHAND,TEHRI,DEHRADUN,UTTARAKHAND
Mahidanda S.O,Sub Post Office,249195,01374-222461,BHATWARI,UTTARKASHI,UTTARAKHAND,TEHRI,DEHRADUN,UTTARAKHAND
Maneri B.O,Branch Post Office,249194,,BHATWARI,UTTARKASHI,UTTARAKHAND,TEHRI,DEHRADUN,UTTARAKHAND
Soura B.O,Branch Post Office,249194,,BHATWARI,UTTARKASHI,UTTARAKHAND,TEHRI,DEHRADUN,UTTARAKHAND
Bagasu B.O,Branch Post Office,249171,,BURKOT,UTTARKASHI,UTTARAKHAND,TEHRI,DEHRADUN,UTTARAKHAND
Bhansadi B.O,Branch Post Office,249141,,BURKOT,UTTARKASHI,UTTARAKHAND,TEHRI,DEHRADUN,UTTARAKHAND
Bhatiya B.O,Branch Post Office,249171,,BURKOT,UTTARKASHI,UTTARAKHAND,TEHRI,DEHRADUN,UTTARAKHAND
Burkot S.O,Sub Post Office,249141,01375-224425,BURKOT,UTTARKASHI,UTTARAKHAND,TEHRI,DEHRADUN,UTTARAKHAND
Damta B.O,Branch Post Office,249171,,BURKOT,UTTARKASHI,UTTARAKHAND,TEHRI,DEHRADUN,UTTARAKHAND
Dewal B.O,Branch Post Office,249171,,BURKOT,UTTARKASHI,UTTARAKHAND,TEHRI,DEHRADUN,UTTARAKHAND
Diyari B.O,Branch Post Office,249171,,BURKOT,UTTARKASHI,UTTARAKHAND,TEHRI,DEHRADUN,UTTARAKHAND
Gaatu B.O,Branch Post Office,249171,,BURKOT,UTTARKASHI,UTTARAKHAND,TEHRI,DEHRADUN,UTTARAKHAND
Gadoli B.O,Branch Post Office,249141,,BURKOT,UTTARKASHI,UTTARAKHAND,TEHRI,DEHRADUN,UTTARAKHAND
Gangani B.O,Branch Post Office,249141,,BURKOT,UTTARKASHI,UTTARAKHAND,TEHRI,DEHRADUN,UTTARAKHAND
Gangtari B.O,Branch Post Office,249141,,BURKOT,UTTARKASHI,UTTARAKHAND,TEHRI,DEHRADUN,UTTARAKHAND
Hanuman Chatti B.O,Branch Post Office,249141,,BURKOT,UTTARKASHI,UTTARAKHAND,TEHRI,DEHRADUN,UTTARAKHAND
Jamunachatti B.O,Branch Post Office,249141,,BURKOT,UTTARKASHI,UTTARAKHAND,TEHRI,DEHRADUN,UTTARAKHAND
Jankimai Chatti B.O,Branch Post Office,249141,,BURKOT,UTTARKASHI,UTTARAKHAND,TEHRI,DEHRADUN,UTTARAKHAND
Kafnol B.O,Branch Post Office,249171,,BURKOT,UTTARKASHI,UTTARAKHAND,TEHRI,DEHRADUN,UTTARAKHAND
Kalogi B.O,Branch Post Office,249171,,BURKOT,UTTARKASHI,UTTARAKHAND,TEHRI,DEHRADUN,UTTARAKHAND
Kandari B.O,Branch Post Office,249171,,BURKOT,UTTARKASHI,UTTARAKHAND,TEHRI,DEHRADUN,UTTARAKHAND
Kharsali B.O,Branch Post Office,249141,,BURKOT,UTTARKASHI,UTTARAKHAND,TEHRI,DEHRADUN,UTTARAKHAND
Kotiyalgaon B.O,Branch Post Office,249171,,BURKOT,UTTARKASHI,UTTARAKHAND,TEHRI,DEHRADUN,UTTARAKHAND
Kunwa B.O,Branch Post Office,249171,,BURKOT,UTTARKASHI,UTTARAKHAND,TEHRI,DEHRADUN,UTTARAKHAND
Nagangaon B.O,Branch Post Office,249141,,BURKOT,UTTARKASHI,UTTARAKHAND,TEHRI,DEHRADUN,UTTARAKHAND
Naugaon S.O,Sub Post Office,249171,01375-245211,BURKOT,UTTARKASHI,UTTARAKHAND,TEHRI,DEHRADUN,UTTARAKHAND
Odgaon B.O,Branch Post Office,249171,,BURKOT,UTTARKASHI,UTTARAKHAND,TEHRI,DEHRADUN,UTTARAKHAND
Pounthi B.O,Branch Post Office,249141,,BURKOT,UTTARKASHI,UTTARAKHAND,TEHRI,DEHRADUN,UTTARAKHAND
Pujeli B.O,Branch Post Office,249141,,BURKOT,UTTARKASHI,UTTARAKHAND,TEHRI,DEHRADUN,UTTARAKHAND
Rajgarhi S.O,Sub Post Office,249191,,BURKOT,UTTARKASHI,UTTARAKHAND,TEHRI,DEHRADUN,UTTARAKHAND
Rana B.O,Branch Post Office,249141,,BURKOT,UTTARKASHI,UTTARAKHAND,TEHRI,DEHRADUN,UTTARAKHAND
Rikhaown B.O,Branch Post Office,249171,,BURKOT,UTTARKASHI,UTTARAKHAND,TEHRI,DEHRADUN,UTTARAKHAND
Sarigadkhamundi B.O,Branch Post Office,249171,,BURKOT,UTTARKASHI,UTTARAKHAND,TEHRI,DEHRADUN,UTTARAKHAND
Sarnol B.O,Branch Post Office,249141,,BURKOT,UTTARKASHI,UTTARAKHAND,TEHRI,DEHRADUN,UTTARAKHAND
Badhangaon B.O,Branch Post Office,249196,,DUNDA,UTTARKASHI,UTTARAKHAND,TEHRI,DEHRADUN,UTTARAKHAND
Bagori B.O,Branch Post Office,249196,,DUNDA,UTTARKASHI,UTTARAKHAND,TEHRI,DEHRADUN,UTTARAKHAND
Baldogi B.O,Branch Post Office,249196,,DUNDA,UTTARKASHI,UTTARAKHAND,TEHRI,DEHRADUN,UTTARAKHAND
Banchaura B.O,Branch Post Office,249152,,DUNDA,UTTARKASHI,UTTARAKHAND,TEHRI,DEHRADUN,UTTARAKHAND
Bangaon B.O,Branch Post Office,249152,,DUNDA,UTTARKASHI,UTTARAKHAND,TEHRI,DEHRADUN,UTTARAKHAND
Bhatwari-dhanari B.O,Branch Post Office,249151,,DUNDA,UTTARKASHI,UTTARAKHAND,TEHRI,DEHRADUN,UTTARAKHAND
Chiniyalisour S.O,Sub Post Office,249196,01371-237222,DUNDA,UTTARKASHI,UTTARAKHAND,TEHRI,DEHRADUN,UTTARAKHAND
Chotimani B.O,Branch Post Office,249131,,DUNDA,UTTARKASHI,UTTARAKHAND,TEHRI,DEHRADUN,UTTARAKHAND
Dharashu S.O,Sub Post Office,249134,,DUNDA,UTTARKASHI,UTTARAKHAND,TEHRI,DEHRADUN,UTTARAKHAND
Dichli B.O,Branch Post Office,249196,,DUNDA,UTTARKASHI,UTTARAKHAND,TEHRI,DEHRADUN,UTTARAKHAND
Diwarikhol B.O,Branch Post Office,249152,,DUNDA,UTTARKASHI,UTTARAKHAND,TEHRI,DEHRADUN,UTTARAKHAND
Dunda S.O,Sub Post Office,249151,01371-225401,DUNDA,UTTARKASHI,UTTARAKHAND,TEHRI,DEHRADUN,UTTARAKHAND
Fold-dhanari B.O,Branch Post Office,249151,,DUNDA,UTTARKASHI,UTTARAKHAND,TEHRI,DEHRADUN,UTTARAKHAND
Gadoli B.O,Branch Post Office,249152,,DUNDA,UTTARKASHI,UTTARAKHAND,TEHRI,DEHRADUN,UTTARAKHAND
Geonla S.O,Sub Post Office,249152,01371-256607,DUNDA,UTTARKASHI,UTTARAKHAND,TEHRI,DEHRADUN,UTTARAKHAND
Jogath B.O,Branch Post Office,249196,,DUNDA,UTTARKASHI,UTTARAKHAND,TEHRI,DEHRADUN,UTTARAKHAND
Junga B.O,Branch Post Office,249152,,DUNDA,UTTARKASHI,UTTARAKHAND,TEHRI,DEHRADUN,UTTARAKHAND
Kali Gaon B.O,Branch Post Office,249151,,DUNDA,UTTARKASHI,UTTARAKHAND,TEHRI,DEHRADUN,UTTARAKHAND
Kalyani B.O,Branch Post Office,249152,,DUNDA,UTTARKASHI,UTTARAKHAND,TEHRI,DEHRADUN,UTTARAKHAND
Kansi B.O,Branch Post Office,249196,,DUNDA,UTTARKASHI,UTTARAKHAND,TEHRI,DEHRADUN,UTTARAKHAND
Katkhet B.O,Branch Post Office,249151,,DUNDA,UTTARKASHI,UTTARAKHAND,TEHRI,DEHRADUN,UTTARAKHAND
Khaand B.O,Branch Post Office,249196,,DUNDA,UTTARKASHI,UTTARAKHAND,TEHRI,DEHRADUN,UTTARAKHAND
Khalsi B.O,Branch Post Office,249196,,DUNDA,UTTARKASHI,UTTARAKHAND,TEHRI,DEHRADUN,UTTARAKHAND
Khurmola B.O,Branch Post Office,249152,,DUNDA,UTTARKASHI,UTTARAKHAND,TEHRI,DEHRADUN,UTTARAKHAND
Kotdhar B.O,Branch Post Office,249152,,DUNDA,UTTARKASHI,UTTARAKHAND,TEHRI,DEHRADUN,UTTARAKHAND
Kyari B.O,Branch Post Office,249196,,DUNDA,UTTARKASHI,UTTARAKHAND,TEHRI,DEHRADUN,UTTARAKHAND
Latasera B.O,Branch Post Office,249194,,DUNDA,UTTARKASHI,UTTARAKHAND,TEHRI,DEHRADUN,UTTARAKHAND
Manjgaon B.O,Branch Post Office,249152,,DUNDA,UTTARKASHI,UTTARAKHAND,TEHRI,DEHRADUN,UTTARAKHAND
Margaon B.O,Branch Post Office,249196,,DUNDA,UTTARKASHI,UTTARAKHAND,TEHRI,DEHRADUN,UTTARAKHAND
Naggaon B.O,Branch Post Office,249152,,DUNDA,UTTARKASHI,UTTARAKHAND,TEHRI,DEHRADUN,UTTARAKHAND
Patara B.O,Branch Post Office,249152,,DUNDA,UTTARKASHI,UTTARAKHAND,TEHRI,DEHRADUN,UTTARAKHAND
Pujargaon B.O,Branch Post Office,249151,,DUNDA,UTTARKASHI,UTTARAKHAND,TEHRI,DEHRADUN,UTTARAKHAND
Ranari B.O,Branch Post Office,249151,,DUNDA,UTTARKASHI,UTTARAKHAND,TEHRI,DEHRADUN,UTTARAKHAND
Rounthal B.O,Branch Post Office,249196,,DUNDA,UTTARKASHI,UTTARAKHAND,TEHRI,DEHRADUN,UTTARAKHAND
Siguni B.O,Branch Post Office,249151,,DUNDA,UTTARKASHI,UTTARAKHAND,TEHRI,DEHRADUN,UTTARAKHAND
Siyansu B.O,Branch Post Office,249131,,DUNDA,UTTARKASHI,UTTARAKHAND,TEHRI,DEHRADUN,UTTARAKHAND
Srikot B.O,Branch Post Office,249152,,DUNDA,UTTARKASHI,UTTARAKHAND,TEHRI,DEHRADUN,UTTARAKHAND
Tarakot B.O,Branch Post Office,249152,,DUNDA,UTTARKASHI,UTTARAKHAND,TEHRI,DEHRADUN,UTTARAKHAND
Thandi B.O,Branch Post Office,249165,,DUNDA,UTTARKASHI,UTTARAKHAND,TEHRI,DEHRADUN,UTTARAKHAND
Thati-dhanari B.O,Branch Post Office,249151,,DUNDA,UTTARKASHI,UTTARAKHAND,TEHRI,DEHRADUN,UTTARAKHAND
Tipri B.O,Branch Post Office,249151,,DUNDA,UTTARKASHI,UTTARAKHAND,TEHRI,DEHRADUN,UTTARAKHAND
Udri B.O,Branch Post Office,249165,,DUNDA,UTTARKASHI,UTTARAKHAND,TEHRI,DEHRADUN,UTTARAKHAND
Arakot B.O,Branch Post Office,249185,,PUROLA,UTTARKASHI,UTTARAKHAND,TEHRI,DEHRADUN,UTTARAKHAND
Bhankoli-ranwain B.O,Branch Post Office,249171,,PUROLA,UTTARKASHI,UTTARAKHAND,TEHRI,DEHRADUN,UTTARAKHAND
Bhutanu B.O,Branch Post Office,249185,,PUROLA,UTTARKASHI,UTTARAKHAND,TEHRI,DEHRADUN,UTTARAKHAND
Chinwa B.O,Branch Post Office,249185,,PUROLA,UTTARKASHI,UTTARAKHAND,TEHRI,DEHRADUN,UTTARAKHAND
Devjani B.O,Branch Post Office,249185,,PUROLA,UTTARKASHI,UTTARAKHAND,TEHRI,DEHRADUN,UTTARAKHAND
Dhakara B.O,Branch Post Office,249185,,PUROLA,UTTARKASHI,UTTARAKHAND,TEHRI,DEHRADUN,UTTARAKHAND
Dhatmeer B.O,Branch Post Office,249185,,PUROLA,UTTARKASHI,UTTARAKHAND,TEHRI,DEHRADUN,UTTARAKHAND
Doni B.O,Branch Post Office,249185,,PUROLA,UTTARKASHI,UTTARAKHAND,TEHRI,DEHRADUN,UTTARAKHAND
Fitari B.O,Branch Post Office,249185,,PUROLA,UTTARKASHI,UTTARAKHAND,TEHRI,DEHRADUN,UTTARAKHAND
Gaddugaad B.O,Branch Post Office,249185,,PUROLA,UTTARKASHI,UTTARAKHAND,TEHRI,DEHRADUN,UTTARAKHAND
Gangar B.O,Branch Post Office,249185,,PUROLA,UTTARKASHI,UTTARAKHAND,TEHRI,DEHRADUN,UTTARAKHAND
Guniyatgaon B.O,Branch Post Office,249185,,PUROLA,UTTARKASHI,UTTARAKHAND,TEHRI,DEHRADUN,UTTARAKHAND
Hudoli B.O,Branch Post Office,249185,,PUROLA,UTTARKASHI,UTTARAKHAND,TEHRI,DEHRADUN,UTTARAKHAND
Jakholi B.O,Branch Post Office,249185,,PUROLA,UTTARKASHI,UTTARAKHAND,TEHRI,DEHRADUN,UTTARAKHAND
Kantari B.O,Branch Post Office,249185,,PUROLA,UTTARKASHI,UTTARAKHAND,TEHRI,DEHRADUN,UTTARAKHAND
Masri B.O,Branch Post Office,249185,,PUROLA,UTTARKASHI,UTTARAKHAND,TEHRI,DEHRADUN,UTTARAKHAND
Moltari B.O,Branch Post Office,249185,,PUROLA,UTTARKASHI,UTTARAKHAND,TEHRI,DEHRADUN,UTTARAKHAND
Mori B.O,Branch Post Office,249185,,PUROLA,UTTARKASHI,UTTARAKHAND,TEHRI,DEHRADUN,UTTARAKHAND
Naitwar B.O,Branch Post Office,249185,,PUROLA,UTTARKASHI,UTTARAKHAND,TEHRI,DEHRADUN,UTTARAKHAND
Purola S.O,Sub Post Office,249185,01375-223330,PUROLA,UTTARKASHI,UTTARAKHAND,TEHRI,DEHRADUN,UTTARAKHAND
Sankri B.O,Branch Post Office,249185,,PUROLA,UTTARKASHI,UTTARAKHAND,TEHRI,DEHRADUN,UTTARAKHAND
Thadiyar B.O,Branch Post Office,249185,,PUROLA,UTTARKASHI,UTTARAKHAND,TEHRI,DEHRADUN,UTTARAKHAND
Tikochi B.O,Branch Post Office,249185,,PUROLA,UTTARKASHI,UTTARAKHAND,TEHRI,DEHRADUN,UTTARAKHAND
Barsali B.O,Branch Post Office,249135,,UTTARKASHI,UTTARKASHI,UTTARAKHAND,TEHRI,DEHRADUN,UTTARAKHAND
Barsu B.O,Branch Post Office,249135,,UTTARKASHI,UTTARKASHI,UTTARAKHAND,TEHRI,DEHRADUN,UTTARAKHAND
Bhankoli B.O,Branch Post Office,249193,,UTTARKASHI,UTTARKASHI,UTTARAKHAND,TEHRI,DEHRADUN,UTTARAKHAND
Bharangaon B.O,Branch Post Office,249193,,UTTARKASHI,UTTARKASHI,UTTARAKHAND,TEHRI,DEHRADUN,UTTARAKHAND
Bonga B.O,Branch Post Office,249193,,UTTARKASHI,UTTARKASHI,UTTARAKHAND,TEHRI,DEHRADUN,UTTARAKHAND
Boun B.O,Branch Post Office,249193,,UTTARKASHI,UTTARKASHI,UTTARAKHAND,TEHRI,DEHRADUN,UTTARAKHAND
Gangori B.O,Branch Post Office,249193,,UTTARKASHI,UTTARKASHI,UTTARAKHAND,TEHRI,DEHRADUN,UTTARAKHAND
Gangtari B.O,Branch Post Office,249135,,UTTARKASHI,UTTARKASHI,UTTARAKHAND,TEHRI,DEHRADUN,UTTARAKHAND
Gawana B.O,Branch Post Office,249193,,UTTARKASHI,UTTARKASHI,UTTARAKHAND,TEHRI,DEHRADUN,UTTARAKHAND
Gyansu S.O,Sub Post Office,249193,01374-222363,UTTARKASHI,UTTARKASHI,UTTARAKHAND,TEHRI,DEHRADUN,UTTARAKHAND
Joshiyara B.O,Branch Post Office,249193,,UTTARKASHI,UTTARKASHI,UTTARAKHAND,TEHRI,DEHRADUN,UTTARAKHAND
Kallyani B.O,Branch Post Office,249193,,UTTARKASHI,UTTARKASHI,UTTARAKHAND,TEHRI,DEHRADUN,UTTARAKHAND
Malla B.O,Branch Post Office,249135,,UTTARKASHI,UTTARKASHI,UTTARAKHAND,TEHRI,DEHRADUN,UTTARAKHAND
Manpur B.O,Branch Post Office,249193,,UTTARKASHI,UTTARKASHI,UTTARAKHAND,TEHRI,DEHRADUN,UTTARAKHAND
Matli B.O,Branch Post Office,249193,,UTTARKASHI,UTTARKASHI,UTTARAKHAND,TEHRI,DEHRADUN,UTTARAKHAND
Mustik Sour B.O,Branch Post Office,249193,,UTTARKASHI,UTTARKASHI,UTTARAKHAND,TEHRI,DEHRADUN,UTTARAKHAND
Netala B.O,Branch Post Office,249193,,UTTARKASHI,UTTARKASHI,UTTARAKHAND,TEHRI,DEHRADUN,UTTARAKHAND
New Barsali B.O,Branch Post Office,249193,,UTTARKASHI,UTTARKASHI,UTTARAKHAND,TEHRI,DEHRADUN,UTTARAKHAND
Pata B.O,Branch Post Office,249193,,UTTARKASHI,UTTARKASHI,UTTARAKHAND,TEHRI,DEHRADUN,UTTARAKHAND
Rainthal B.O,Branch Post Office,249135,,UTTARKASHI,UTTARKASHI,UTTARAKHAND,TEHRI,DEHRADUN,UTTARAKHAND
Raturisera B.O,Branch Post Office,249193,,UTTARKASHI,UTTARKASHI,UTTARAKHAND,TEHRI,DEHRADUN,UTTARAKHAND
Sald B.O,Branch Post Office,249193,,UTTARKASHI,UTTARKASHI,UTTARAKHAND,TEHRI,DEHRADUN,UTTARAKHAND
Uttarkashi Collectorate S.O,Sub Post Office,249193,01374-222216,UTTARKASHI,UTTARKASHI,UTTARAKHAND,TEHRI,DEHRADUN,UTTARAKHAND
Uttarkashi S.O,Sub Post Office,249193,01374-222229,UTTARKASHI,UTTARKASHI,UTTARAKHAND,TEHRI,DEHRADUN,UTTARAKHAND
Uttaron B.O,Branch Post Office,249193,,UTTARKASHI,UTTARKASHI,UTTARAKHAND,TEHRI,DEHRADUN,UTTARAKHAND
Jhalla B.O,Branch Post Office,249135,,UTTARKASSHI,UTTARKASHI,UTTARAKHAND,TEHRI,DEHRADUN,UTTARAKHAND
M.D. Colony S.O,Sub Post Office,249194,01374-236203,UTTARKASSHI,UTTARKASHI,UTTARAKHAND,TEHRI,DEHRADUN,UTTARAKHAND
Gangnani B.O,Branch Post Office,249135,,UTTRKASHI,UTTARKASHI,UTTARAKHAND,TEHRI,DEHRADUN,UTTARAKHAND
